{"type":"FeatureCollection","properties":{"id":"friday-san-bernardino","distanceMetres":333324,"durationSeconds":19905.7,"generatedBy":"OSRM using OpenStreetMap data"},"features":[{"type":"Feature","properties":{"kind":"route","color":"#5b637d"},"geometry":{"type":"LineString","coordinates":[[8.26852,46.487794],[8.272232,46.488729],[8.274764,46.489823],[8.276844,46.491042],[8.277707,46.491683],[8.278588,46.492603],[8.280437,46.495694],[8.281045,46.495987],[8.28438,46.496652],[8.285434,46.497154],[8.286328,46.497985],[8.287567,46.50014],[8.288211,46.500577],[8.290314,46.501044],[8.292268,46.500916],[8.294777,46.501879],[8.29567,46.502487],[8.296649,46.504003],[8.297777,46.504898],[8.300657,46.50585],[8.305002,46.506485],[8.307236,46.507801],[8.308644,46.508344],[8.309984,46.508621],[8.310967,46.509699],[8.311894,46.510415],[8.318756,46.513747],[8.320408,46.514044],[8.323412,46.513632],[8.324118,46.513811],[8.325277,46.514563],[8.325257,46.515609],[8.325453,46.515945],[8.327222,46.51722],[8.327692,46.517721],[8.329063,46.520014],[8.329337,46.521043],[8.329498,46.5226],[8.329748,46.523133],[8.330315,46.523732],[8.334378,46.525777],[8.337161,46.52745],[8.339454,46.528344],[8.342994,46.531649],[8.343851,46.532807],[8.345702,46.533235],[8.34722,46.534207],[8.348773,46.534462],[8.349483,46.535075],[8.349684,46.536061],[8.349974,46.536416],[8.351249,46.536905],[8.35393,46.538251],[8.355204,46.538653],[8.356517,46.539246],[8.358403,46.540791],[8.359624,46.541319],[8.359512,46.541447],[8.358403,46.541067],[8.355737,46.540511],[8.355148,46.540521],[8.353425,46.539369],[8.351525,46.538654],[8.35026,46.538324],[8.350115,46.538395],[8.351286,46.53892],[8.352895,46.539983],[8.35355,46.540757],[8.354325,46.54147],[8.354853,46.541778],[8.355307,46.542322],[8.357661,46.543043],[8.357874,46.543659],[8.357776,46.543808],[8.356707,46.543866],[8.355872,46.544526],[8.355059,46.544283],[8.35493,46.544402],[8.355253,46.544714],[8.356217,46.545248],[8.357367,46.545425],[8.358477,46.546053],[8.358646,46.546328],[8.3587,46.546932],[8.360353,46.548348],[8.360406,46.54884],[8.359712,46.54994],[8.358709,46.551942],[8.355938,46.555147],[8.355735,46.556619],[8.355537,46.556563],[8.355477,46.555442],[8.355235,46.555441],[8.355264,46.55665],[8.355122,46.557377],[8.355417,46.557792],[8.355656,46.557911],[8.356685,46.557537],[8.356688,46.557647],[8.35593,46.558206],[8.356144,46.558975],[8.358037,46.560327],[8.359361,46.560756],[8.359868,46.561292],[8.361453,46.562209],[8.361206,46.562515],[8.360981,46.562575],[8.36057,46.562116],[8.35872,46.561166],[8.356639,46.560707],[8.355581,46.560877],[8.354944,46.560802],[8.353949,46.560503],[8.353411,46.56008],[8.353244,46.560133],[8.353293,46.560279],[8.354832,46.561282],[8.357116,46.562275],[8.358323,46.562459],[8.358422,46.56259],[8.358254,46.562672],[8.357104,46.56259],[8.353825,46.561786],[8.353116,46.561395],[8.352685,46.560929],[8.352434,46.560966],[8.35347,46.561894],[8.357075,46.563543],[8.358406,46.563935],[8.358411,46.564058],[8.358224,46.56412],[8.35463,46.563235],[8.352968,46.562946],[8.351799,46.562174],[8.351607,46.56185],[8.351379,46.561902],[8.352624,46.563236],[8.354366,46.56393],[8.355515,46.564753],[8.357575,46.565775],[8.358577,46.567072],[8.359559,46.567642],[8.359436,46.567836],[8.356899,46.566171],[8.354407,46.565291],[8.350532,46.564147],[8.349612,46.563313],[8.348359,46.562813],[8.347754,46.561913],[8.347444,46.5617],[8.345127,46.561686],[8.343684,46.562423],[8.342007,46.562463],[8.340697,46.562821],[8.338649,46.562069],[8.33698,46.561117],[8.336593,46.56125],[8.336491,46.561614],[8.337601,46.562473],[8.33771,46.562795],[8.337688,46.563586],[8.338095,46.564419],[8.338214,46.565171],[8.338464,46.565534],[8.338994,46.56589],[8.338974,46.566028],[8.338693,46.56606],[8.336575,46.564814],[8.335907,46.564625],[8.335193,46.564675],[8.333675,46.565103],[8.332689,46.565109],[8.33254,46.565276],[8.332782,46.565389],[8.334888,46.565406],[8.335413,46.565526],[8.335733,46.56581],[8.335871,46.56645],[8.336079,46.566704],[8.338565,46.567839],[8.338594,46.56805],[8.33838,46.568086],[8.335465,46.567329],[8.334323,46.56675],[8.330337,46.566637],[8.330436,46.566848],[8.331495,46.566853],[8.333206,46.567262],[8.337304,46.569607],[8.338917,46.570222],[8.339415,46.570592],[8.339877,46.571333],[8.340212,46.572537],[8.340209,46.574207],[8.339761,46.57571],[8.339705,46.57632],[8.339509,46.57645],[8.339312,46.576354],[8.339544,46.575669],[8.339531,46.575302],[8.338719,46.574156],[8.337725,46.573677],[8.336593,46.573447],[8.336304,46.57351],[8.33638,46.573689],[8.33707,46.573777],[8.337461,46.573994],[8.338027,46.57504],[8.337958,46.575699],[8.337035,46.576639],[8.337078,46.576943],[8.337433,46.577446],[8.337436,46.577697],[8.336292,46.578684],[8.334606,46.579551],[8.333964,46.580469],[8.333177,46.581052],[8.332883,46.582424],[8.333173,46.583439],[8.333247,46.584363],[8.333021,46.584848],[8.33291,46.585663],[8.332151,46.586365],[8.331715,46.586977],[8.331108,46.587463],[8.331105,46.587697],[8.331505,46.588306],[8.331459,46.588659],[8.32952,46.589823],[8.328703,46.590512],[8.327643,46.590669],[8.326673,46.591088],[8.325759,46.591907],[8.324962,46.59223],[8.324959,46.59248],[8.325674,46.592933],[8.325767,46.593591],[8.326187,46.59403],[8.326121,46.594239],[8.325676,46.594255],[8.325378,46.593499],[8.324543,46.593082],[8.324321,46.592842],[8.324276,46.592535],[8.324493,46.591884],[8.324998,46.591269],[8.324778,46.591098],[8.324622,46.59118],[8.324068,46.592271],[8.323845,46.593156],[8.322815,46.594077],[8.322443,46.594576],[8.322437,46.59501],[8.323035,46.595808],[8.323852,46.596235],[8.325381,46.596598],[8.325637,46.596936],[8.325484,46.597356],[8.32447,46.598429],[8.322494,46.598879],[8.321515,46.599534],[8.317699,46.60597],[8.316101,46.607799],[8.315831,46.607822],[8.315774,46.607679],[8.316288,46.60721],[8.316745,46.606338],[8.316678,46.605996],[8.316328,46.605626],[8.315818,46.605415],[8.313695,46.605107],[8.313046,46.605151],[8.312322,46.605432],[8.311761,46.605954],[8.308255,46.610128],[8.308089,46.61054],[8.308109,46.611037],[8.3088,46.612024],[8.308869,46.612521],[8.308611,46.61294],[8.307815,46.61335],[8.307752,46.613804],[8.307815,46.61335],[8.307487,46.613642],[8.307087,46.614771],[8.306499,46.614984],[8.30535,46.614762],[8.303979,46.614864],[8.304159,46.61506],[8.304778,46.614861],[8.305134,46.614887],[8.30604,46.615331],[8.307121,46.615516],[8.306943,46.615687],[8.305423,46.615805],[8.304998,46.616055],[8.304856,46.616382],[8.305645,46.61836],[8.305546,46.620087],[8.306273,46.621391],[8.306551,46.622255],[8.306577,46.622868],[8.30633,46.623887],[8.306006,46.624358],[8.303992,46.625708],[8.303502,46.626248],[8.303301,46.626712],[8.303409,46.627429],[8.304072,46.628176],[8.304302,46.628693],[8.304208,46.629731],[8.304334,46.630762],[8.304211,46.631531],[8.304499,46.632254],[8.304534,46.632716],[8.304342,46.634249],[8.304002,46.635009],[8.303876,46.635869],[8.303353,46.636868],[8.303471,46.63814],[8.303377,46.638546],[8.303107,46.638942],[8.302251,46.639681],[8.301999,46.640167],[8.301638,46.6434],[8.301817,46.644884],[8.301567,46.645446],[8.299879,46.646621],[8.298798,46.64782],[8.296098,46.6497],[8.295541,46.649947],[8.294402,46.650117],[8.293856,46.650389],[8.293615,46.650723],[8.29328,46.651762],[8.292734,46.652542],[8.289198,46.655204],[8.28696,46.656262],[8.286718,46.656638],[8.286575,46.657864],[8.286284,46.658232],[8.285303,46.65894],[8.284648,46.659197],[8.283088,46.659107],[8.281516,46.659428],[8.280205,46.65997],[8.27834,46.661076],[8.277834,46.661118],[8.27671,46.660833],[8.276198,46.660923],[8.275885,46.661999],[8.275339,46.662675],[8.274104,46.66339],[8.272737,46.663852],[8.272849,46.664078],[8.274791,46.664764],[8.274889,46.664909],[8.274792,46.665079],[8.273705,46.665318],[8.270839,46.666359],[8.268962,46.667975],[8.267403,46.668177],[8.267312,46.668372],[8.26757,46.668549],[8.2687,46.668325],[8.269005,46.668467],[8.268759,46.669152],[8.268196,46.669657],[8.266637,46.67024],[8.264929,46.670466],[8.262351,46.671505],[8.261527,46.672449],[8.260704,46.672964],[8.259077,46.673683],[8.257508,46.674105],[8.256518,46.674617],[8.255785,46.675164],[8.254215,46.677651],[8.253424,46.678152],[8.252174,46.678489],[8.251163,46.679176],[8.250786,46.679708],[8.249024,46.681396],[8.247598,46.683392],[8.24624,46.683893],[8.243994,46.684223],[8.243588,46.684406],[8.243167,46.684985],[8.242432,46.685604],[8.24237,46.686181],[8.242632,46.686647],[8.24354,46.686916],[8.243899,46.687165],[8.244033,46.687536],[8.244004,46.687949],[8.243685,46.688396],[8.24252,46.68893],[8.24214,46.689866],[8.240324,46.691405],[8.239908,46.692003],[8.239747,46.692597],[8.239821,46.692982],[8.240184,46.693564],[8.240107,46.695036],[8.239875,46.695569],[8.23924,46.696176],[8.237725,46.696931],[8.235264,46.698834],[8.233468,46.700036],[8.230102,46.7036],[8.229833,46.704042],[8.229572,46.705231],[8.22921,46.70587],[8.229754,46.70611],[8.23023,46.706542],[8.232943,46.70661],[8.233722,46.706153],[8.235073,46.706153],[8.236602,46.707117],[8.236487,46.707312],[8.235805,46.707509],[8.235392,46.707848],[8.235258,46.708112],[8.235416,46.708358],[8.235843,46.708467],[8.238582,46.708462],[8.239296,46.708665],[8.239636,46.708597],[8.240301,46.708132],[8.240487,46.707774],[8.24048,46.707215],[8.240958,46.707057],[8.243079,46.709012],[8.243408,46.709071],[8.244474,46.708922],[8.244983,46.709019],[8.246779,46.709802],[8.248023,46.71096],[8.24919,46.711023],[8.250618,46.710735],[8.253568,46.710971],[8.254972,46.710937],[8.256275,46.711422],[8.257139,46.711918],[8.260489,46.712855],[8.261122,46.713172],[8.261915,46.713848],[8.263658,46.713951],[8.265215,46.714423],[8.266216,46.714288],[8.267219,46.71375],[8.267893,46.713659],[8.269622,46.714328],[8.271102,46.714175],[8.274043,46.714796],[8.276911,46.715812],[8.280306,46.716176],[8.280907,46.716422],[8.283352,46.717953],[8.289679,46.720296],[8.291534,46.720326],[8.291847,46.720086],[8.292296,46.719355],[8.292992,46.719176],[8.294246,46.719408],[8.295314,46.720303],[8.295901,46.720514],[8.297701,46.720675],[8.298031,46.720557],[8.298525,46.720092],[8.299113,46.719998],[8.300122,46.720497],[8.301093,46.720752],[8.302342,46.721375],[8.304375,46.721769],[8.304902,46.72169],[8.307084,46.720899],[8.308721,46.721075],[8.310091,46.721538],[8.311387,46.721677],[8.312154,46.721238],[8.3138,46.7208],[8.3148,46.720863],[8.315819,46.720614],[8.318123,46.720667],[8.318331,46.720824],[8.318216,46.72105],[8.317074,46.721241],[8.315785,46.721858],[8.315011,46.722029],[8.314753,46.722276],[8.314802,46.722529],[8.315132,46.722733],[8.316172,46.722899],[8.316867,46.723377],[8.318282,46.723583],[8.320617,46.724251],[8.321277,46.72417],[8.323838,46.723302],[8.324257,46.723333],[8.324732,46.723867],[8.325264,46.724221],[8.327095,46.724602],[8.328525,46.725383],[8.330902,46.727254],[8.33153,46.728019],[8.332202,46.72928],[8.333271,46.730023],[8.338358,46.732154],[8.341435,46.734043],[8.342506,46.734911],[8.343296,46.735171],[8.345157,46.735418],[8.348099,46.736624],[8.35362,46.738123],[8.356718,46.738078],[8.359415,46.738618],[8.362297,46.73836],[8.36519,46.73866],[8.366651,46.739094],[8.371236,46.739176],[8.372361,46.739325],[8.375096,46.739068],[8.37607,46.739228],[8.376444,46.739178],[8.376712,46.738987],[8.376784,46.738699],[8.376044,46.73811],[8.376053,46.737986],[8.376232,46.737926],[8.377659,46.738853],[8.377979,46.7394],[8.377902,46.739879],[8.378094,46.739963],[8.378266,46.739847],[8.378319,46.739005],[8.37798,46.738473],[8.377485,46.738055],[8.377542,46.73777],[8.378536,46.737439],[8.380731,46.737469],[8.381652,46.736866],[8.382695,46.736551],[8.383394,46.736514],[8.383591,46.736328],[8.383554,46.736116],[8.38291,46.735764],[8.383195,46.735647],[8.383958,46.736182],[8.384024,46.73677],[8.383784,46.736902],[8.382462,46.737007],[8.382312,46.737197],[8.382352,46.73798],[8.380881,46.73871],[8.380651,46.738949],[8.380659,46.739389],[8.381273,46.740154],[8.38178,46.741293],[8.381406,46.74196],[8.380687,46.742375],[8.380828,46.74255],[8.381872,46.741835],[8.382231,46.741421],[8.381792,46.739927],[8.381927,46.739667],[8.383281,46.739359],[8.38432,46.738611],[8.385115,46.738609],[8.386955,46.738142],[8.388051,46.738155],[8.388501,46.737921],[8.388617,46.737652],[8.388504,46.73736],[8.387845,46.737082],[8.386646,46.736261],[8.386284,46.735674],[8.386511,46.735287],[8.387979,46.734602],[8.389264,46.734611],[8.39228,46.735348],[8.394008,46.736023],[8.395557,46.736853],[8.395643,46.73706],[8.395546,46.737325],[8.393935,46.738494],[8.393546,46.739095],[8.392876,46.739487],[8.392211,46.739681],[8.39133,46.739714],[8.390595,46.739529],[8.390408,46.739649],[8.390598,46.739788],[8.392634,46.739935],[8.393885,46.739512],[8.394818,46.738698],[8.397022,46.737743],[8.398192,46.73746],[8.39895,46.736976],[8.399093,46.736602],[8.39845,46.735486],[8.399803,46.734827],[8.401338,46.734966],[8.402484,46.735523],[8.404734,46.735808],[8.407391,46.735172],[8.40833,46.734831],[8.40935,46.734209],[8.409419,46.733848],[8.409067,46.733042],[8.410041,46.73172],[8.410526,46.731483],[8.419141,46.731131],[8.420333,46.731247],[8.422179,46.731678],[8.423854,46.73184],[8.426947,46.730924],[8.42727,46.730949],[8.427367,46.731131],[8.427241,46.731268],[8.426223,46.731587],[8.425079,46.73214],[8.423588,46.732426],[8.415106,46.732172],[8.414472,46.732251],[8.4128,46.732956],[8.413068,46.733093],[8.414579,46.732476],[8.415461,46.732354],[8.418615,46.732761],[8.419673,46.733335],[8.420908,46.733705],[8.421888,46.733793],[8.422844,46.734129],[8.423867,46.734142],[8.425674,46.734484],[8.426354,46.734371],[8.429127,46.733163],[8.433886,46.732718],[8.434916,46.732519],[8.436595,46.731774],[8.438559,46.730139],[8.439608,46.729601],[8.440638,46.728817],[8.441343,46.727922],[8.441548,46.726822],[8.441725,46.72669],[8.441924,46.726799],[8.442069,46.727968],[8.441804,46.729399],[8.441474,46.729729],[8.439844,46.730337],[8.43978,46.730519],[8.439997,46.730562],[8.440734,46.730207],[8.44253,46.72987],[8.444095,46.729389],[8.444688,46.729636],[8.445592,46.72961],[8.446198,46.729807],[8.446665,46.729714],[8.447054,46.729345],[8.451394,46.731416],[8.451819,46.731828],[8.452058,46.734085],[8.452359,46.73484],[8.451988,46.735514],[8.452151,46.736261],[8.451883,46.736979],[8.451947,46.737219],[8.452481,46.737682],[8.45284,46.738217],[8.453459,46.738536],[8.454303,46.73926],[8.455776,46.739874],[8.457339,46.73996],[8.457315,46.7398],[8.456466,46.739815],[8.455893,46.739672],[8.455105,46.739131],[8.454409,46.738852],[8.454073,46.738347],[8.45417,46.737575],[8.453821,46.736829],[8.454404,46.735113],[8.454925,46.734466],[8.454648,46.733801],[8.454291,46.733361],[8.454359,46.733234],[8.454522,46.733247],[8.455346,46.73468],[8.455171,46.735446],[8.455282,46.736258],[8.455147,46.736893],[8.455271,46.737215],[8.456221,46.738146],[8.458725,46.739082],[8.460397,46.73999],[8.46066,46.740209],[8.460919,46.740691],[8.461828,46.741116],[8.462806,46.741984],[8.463028,46.742547],[8.463447,46.743056],[8.463242,46.744645],[8.463528,46.745057],[8.463743,46.745715],[8.464511,46.746385],[8.464872,46.747241],[8.465282,46.747503],[8.465831,46.747488],[8.46668,46.746936],[8.467611,46.746763],[8.468901,46.747175],[8.470207,46.747059],[8.472267,46.747269],[8.473501,46.747589],[8.474706,46.747598],[8.478266,46.746494],[8.479813,46.746171],[8.483273,46.745746],[8.484111,46.745517],[8.487271,46.745049],[8.489931,46.744765],[8.492008,46.744056],[8.493,46.743917],[8.493875,46.743469],[8.494776,46.743359],[8.495719,46.743055],[8.497151,46.742078],[8.498301,46.74168],[8.499931,46.740863],[8.500989,46.740854],[8.501898,46.740651],[8.503129,46.740881],[8.505453,46.742247],[8.506242,46.742857],[8.507548,46.743476],[8.508462,46.74369],[8.508758,46.743517],[8.509384,46.742461],[8.511138,46.740875],[8.512337,46.740174],[8.513074,46.739509],[8.515892,46.738581],[8.517795,46.737404],[8.520901,46.736285],[8.52413,46.735749],[8.525581,46.735712],[8.528527,46.735096],[8.531818,46.733922],[8.532858,46.733979],[8.534391,46.733761],[8.536376,46.733233],[8.538852,46.7329],[8.54007,46.732223],[8.541816,46.731687],[8.5437,46.730784],[8.545827,46.729275],[8.546638,46.728975],[8.547874,46.727916],[8.5515,46.726394],[8.552715,46.725144],[8.554331,46.724752],[8.554917,46.724373],[8.55537,46.723805],[8.55615,46.723414],[8.557099,46.7232],[8.558996,46.723255],[8.560039,46.722538],[8.56078,46.722262],[8.561489,46.722226],[8.562844,46.722408],[8.564325,46.721951],[8.565257,46.722035],[8.565724,46.721729],[8.566503,46.721629],[8.56719,46.721312],[8.568133,46.721078],[8.569232,46.720431],[8.570798,46.720187],[8.572787,46.718791],[8.575355,46.717984],[8.577726,46.716745],[8.580235,46.7164],[8.580814,46.716211],[8.58382,46.71411],[8.586216,46.712885],[8.587929,46.712513],[8.588815,46.712139],[8.591445,46.711565],[8.592801,46.711541],[8.594545,46.711121],[8.594837,46.710984],[8.595242,46.710406],[8.595835,46.710096],[8.597043,46.710004],[8.597981,46.709761],[8.598806,46.709879],[8.599663,46.710398],[8.60039,46.710598],[8.601619,46.711243],[8.602184,46.711667],[8.602437,46.711646],[8.602419,46.711492],[8.599599,46.709436],[8.598147,46.709235],[8.597432,46.709297],[8.596635,46.709031],[8.596407,46.708802],[8.59662,46.708538],[8.597908,46.708443],[8.598354,46.708223],[8.598357,46.708042],[8.597981,46.707615],[8.597893,46.70687],[8.598174,46.706508],[8.599241,46.705825],[8.598767,46.705006],[8.598711,46.703816],[8.598562,46.703346],[8.597655,46.702316],[8.596837,46.701069],[8.596285,46.699696],[8.596173,46.698934],[8.596618,46.696702],[8.596595,46.696111],[8.595812,46.69404],[8.594884,46.692883],[8.594844,46.692498],[8.59511,46.69178],[8.595095,46.691354],[8.594481,46.690153],[8.594315,46.689012],[8.593583,46.687883],[8.593605,46.687311],[8.594527,46.68541],[8.594525,46.684904],[8.594268,46.684254],[8.594556,46.683578],[8.594413,46.683236],[8.59329,46.682489],[8.593837,46.681668],[8.593949,46.680524],[8.593829,46.679375],[8.593399,46.677816],[8.593604,46.675941],[8.593616,46.674433],[8.592686,46.671229],[8.592171,46.671023],[8.592358,46.670929],[8.592515,46.670478],[8.592058,46.667617],[8.592462,46.666675],[8.592468,46.66611],[8.592163,46.665631],[8.5903,46.663799],[8.58943,46.662582],[8.585958,46.660777],[8.585919,46.659954],[8.584612,46.658298],[8.584873,46.658302],[8.585649,46.659082],[8.585862,46.659129],[8.585933,46.659017],[8.585314,46.658475],[8.584558,46.657315],[8.584117,46.656047],[8.583853,46.655668],[8.583583,46.65554],[8.583192,46.655563],[8.582583,46.656033],[8.582258,46.656526],[8.581991,46.656469],[8.583703,46.65448],[8.584701,46.653053],[8.584788,46.65263],[8.584552,46.651975],[8.585395,46.65117],[8.58572,46.650212],[8.586377,46.649827],[8.587571,46.64971],[8.58763,46.649486],[8.587407,46.649349],[8.586592,46.649507],[8.586653,46.649346],[8.587052,46.649141],[8.587611,46.649099],[8.58852,46.649249],[8.588704,46.649164],[8.588585,46.649041],[8.587498,46.648791],[8.587088,46.648834],[8.586512,46.649159],[8.586353,46.64909],[8.58645,46.648921],[8.587226,46.648571],[8.589561,46.648643],[8.590252,46.648401],[8.59075,46.648066],[8.590822,46.647646],[8.590253,46.645945],[8.590434,46.645634],[8.591307,46.644954],[8.592027,46.642074],[8.592085,46.64148],[8.591882,46.641015],[8.592077,46.640911],[8.59265,46.640941],[8.592923,46.640231],[8.594144,46.63912],[8.594565,46.638244],[8.595003,46.636803],[8.596306,46.634752],[8.596661,46.63497],[8.596742,46.63545],[8.597011,46.635517],[8.597141,46.63538],[8.596888,46.634936],[8.596937,46.634672],[8.597232,46.634458],[8.597745,46.634376],[8.598876,46.634637],[8.599958,46.635568],[8.600454,46.635592],[8.601561,46.635316],[8.602239,46.635593],[8.602289,46.636026],[8.601935,46.636352],[8.6001,46.636689],[8.599691,46.636873],[8.599601,46.637254],[8.600073,46.637523],[8.601465,46.63722],[8.603993,46.636243],[8.605398,46.636032],[8.60636,46.635427],[8.606784,46.635469],[8.606912,46.635716],[8.606718,46.635922],[8.604361,46.636752],[8.601902,46.63832],[8.601097,46.639141],[8.601073,46.6395],[8.601569,46.639603],[8.602459,46.638488],[8.60483,46.637392],[8.605737,46.637371],[8.606817,46.6378],[8.607508,46.637906],[8.609662,46.637429],[8.609763,46.637609],[8.60963,46.63774],[8.608705,46.637956],[8.607691,46.638522],[8.604173,46.639227],[8.60303,46.63965],[8.602935,46.639872],[8.603311,46.639979],[8.60438,46.639731],[8.605602,46.63963],[8.610383,46.639726],[8.611393,46.639982],[8.611577,46.640113],[8.611599,46.640318],[8.611359,46.640493],[8.610304,46.640502],[8.609168,46.64085],[8.607825,46.64068],[8.607615,46.640743],[8.607558,46.640898],[8.609731,46.641615],[8.612131,46.64173],[8.617615,46.642267],[8.619653,46.642721],[8.620824,46.643121],[8.625294,46.645192],[8.626806,46.646518],[8.631679,46.649985],[8.634037,46.652108],[8.635277,46.652906],[8.636925,46.65369],[8.637918,46.654814],[8.638655,46.655271],[8.641811,46.656053],[8.643906,46.656826],[8.64631,46.657178],[8.648072,46.657743],[8.650346,46.65783],[8.654928,46.659436],[8.664662,46.661729],[8.665735,46.6618],[8.668535,46.661592],[8.669419,46.661342],[8.670244,46.660916],[8.670973,46.660345],[8.671338,46.659829],[8.671129,46.658829],[8.67137,46.65891],[8.671522,46.659152],[8.67137,46.65891],[8.671129,46.658829],[8.671273,46.658621],[8.67331,46.65829],[8.6741,46.657194],[8.676388,46.65636],[8.677083,46.655866],[8.677111,46.655547],[8.676571,46.654911],[8.676662,46.654717],[8.677491,46.654561],[8.678133,46.654279],[8.678745,46.653919],[8.679375,46.653336],[8.679209,46.65329],[8.678154,46.653835],[8.677996,46.653805],[8.678028,46.653696],[8.679945,46.65274],[8.681714,46.652242],[8.681595,46.652168],[8.680815,46.652315],[8.679512,46.652182],[8.679432,46.652062],[8.681078,46.6519],[8.684109,46.65111],[8.683016,46.650902],[8.681147,46.651044],[8.681048,46.650915],[8.683815,46.650176],[8.685679,46.65022],[8.683529,46.649849],[8.683436,46.649772],[8.683508,46.64967],[8.684268,46.649814],[8.6861,46.649768],[8.687517,46.649977],[8.687534,46.649849],[8.686514,46.649616],[8.686163,46.649362],[8.686376,46.648754],[8.686665,46.648589],[8.68697,46.648623],[8.6879,46.649205],[8.691363,46.649029],[8.693106,46.649329],[8.693243,46.649456],[8.693132,46.649911],[8.693262,46.650122],[8.695733,46.650866],[8.69594,46.651093],[8.696004,46.651653],[8.696249,46.652018],[8.698446,46.653466],[8.699726,46.653832],[8.700902,46.653843],[8.70138,46.654065],[8.701837,46.654531],[8.702267,46.654669],[8.706363,46.654893],[8.708796,46.655238],[8.709393,46.655621],[8.710108,46.655868],[8.71123,46.656712],[8.71288,46.657352],[8.714584,46.658495],[8.717099,46.659766],[8.72011,46.661015],[8.723112,46.662015],[8.727786,46.662596],[8.733432,46.663859],[8.736935,46.664304],[8.739262,46.664458],[8.742731,46.665793],[8.74548,46.66725],[8.745682,46.667457],[8.745702,46.667786],[8.74598,46.668026],[8.745738,46.668373],[8.744542,46.66858],[8.744062,46.669032],[8.743932,46.67005],[8.744905,46.67212],[8.746507,46.672491],[8.747543,46.67292],[8.750673,46.675483],[8.751164,46.675742],[8.752526,46.676088],[8.754612,46.675799],[8.756973,46.676061],[8.757835,46.67628],[8.759806,46.677166],[8.760485,46.677632],[8.761307,46.678521],[8.761873,46.679407],[8.761848,46.680249],[8.762161,46.680498],[8.76272,46.68047],[8.763934,46.679812],[8.766543,46.679287],[8.768316,46.679071],[8.770339,46.679017],[8.7729,46.679248],[8.775066,46.680158],[8.77628,46.680884],[8.777981,46.681472],[8.780308,46.681537],[8.782213,46.680834],[8.783032,46.680743],[8.783478,46.681149],[8.783662,46.681934],[8.784062,46.682105],[8.784522,46.681958],[8.785587,46.680893],[8.78624,46.680685],[8.788714,46.681304],[8.79079,46.681059],[8.792668,46.681182],[8.795044,46.680682],[8.796698,46.680912],[8.798107,46.680942],[8.80295,46.680633],[8.804458,46.680679],[8.810419,46.681417],[8.813701,46.681378],[8.81807,46.681015],[8.820191,46.681139],[8.823123,46.681119],[8.825557,46.68136],[8.829941,46.682202],[8.831172,46.682759],[8.832332,46.683734],[8.835349,46.685691],[8.835442,46.68627],[8.834953,46.686755],[8.834103,46.687059],[8.831834,46.687275],[8.831451,46.68755],[8.83141,46.687868],[8.83174,46.688214],[8.833629,46.688803],[8.835439,46.689623],[8.836736,46.690514],[8.838188,46.691798],[8.838571,46.692344],[8.838668,46.693002],[8.838506,46.69353],[8.837906,46.694426],[8.837973,46.694717],[8.838651,46.694881],[8.842464,46.695236],[8.842538,46.696032],[8.84477,46.698654],[8.84436,46.700597],[8.844462,46.70084],[8.84477,46.700976],[8.846435,46.701134],[8.848314,46.702028],[8.848742,46.702398],[8.850041,46.704304],[8.852325,46.705089],[8.85158,46.704415],[8.851834,46.704214],[8.853279,46.704621],[8.853263,46.703992],[8.852769,46.703131],[8.85296,46.702726],[8.853394,46.702536],[8.854113,46.702839],[8.854594,46.702798],[8.857466,46.700908],[8.857669,46.700611],[8.857582,46.700333],[8.857289,46.70015],[8.855352,46.699774],[8.853074,46.698989],[8.852031,46.698058],[8.851764,46.697395],[8.851882,46.696815],[8.852321,46.696291],[8.854759,46.695161],[8.855374,46.69455],[8.854606,46.693367],[8.854901,46.692541],[8.855385,46.692015],[8.855389,46.691777],[8.854429,46.690927],[8.854098,46.690342],[8.853871,46.689391],[8.853338,46.688875],[8.85323,46.688613],[8.853669,46.687248],[8.85443,46.68622],[8.855222,46.685568],[8.855415,46.68526],[8.855382,46.684306],[8.854821,46.683432],[8.855002,46.682244],[8.855431,46.681595],[8.855389,46.681401],[8.855008,46.681146],[8.85488,46.680884],[8.855505,46.679461],[8.855204,46.678632],[8.855187,46.677773],[8.854763,46.676914],[8.854901,46.67572],[8.855292,46.67544],[8.855716,46.675601],[8.855764,46.675828],[8.855498,46.677043],[8.85568,46.677298],[8.856,46.677344],[8.856307,46.677169],[8.856859,46.676278],[8.858495,46.675743],[8.858858,46.67536],[8.858797,46.675114],[8.858576,46.674925],[8.857299,46.674632],[8.857049,46.674417],[8.857154,46.674174],[8.858556,46.672695],[8.858737,46.672192],[8.858879,46.669641],[8.858394,46.668003],[8.858476,46.666744],[8.858372,46.665912],[8.857752,46.664447],[8.857803,46.663382],[8.856931,46.66198],[8.856041,46.660172],[8.853891,46.657514],[8.853765,46.655536],[8.853288,46.654443],[8.852872,46.65404],[8.851499,46.653548],[8.851145,46.653146],[8.851535,46.651376],[8.851201,46.650159],[8.851315,46.649344],[8.85129,46.647011],[8.850784,46.645859],[8.849796,46.644838],[8.849309,46.643084],[8.848816,46.642097],[8.848804,46.641768],[8.849108,46.641007],[8.849039,46.640557],[8.848649,46.640116],[8.847557,46.639472],[8.847163,46.638925],[8.847147,46.63834],[8.847723,46.636997],[8.847421,46.636114],[8.847379,46.635227],[8.847226,46.634888],[8.846635,46.634373],[8.843693,46.633271],[8.838698,46.630855],[8.838006,46.630356],[8.836806,46.629133],[8.836605,46.628601],[8.836826,46.628151],[8.838246,46.626798],[8.838242,46.62647],[8.838037,46.626279],[8.837612,46.62617],[8.836242,46.626166],[8.834665,46.626643],[8.834098,46.626695],[8.830858,46.626132],[8.830013,46.625774],[8.82945,46.62536],[8.828746,46.624306],[8.828387,46.623975],[8.825619,46.622941],[8.824504,46.622151],[8.823953,46.62113],[8.823726,46.619387],[8.822709,46.614197],[8.822075,46.612224],[8.821718,46.610469],[8.820566,46.608825],[8.819388,46.605423],[8.818718,46.604282],[8.817479,46.602785],[8.817021,46.601402],[8.815772,46.600287],[8.81538,46.599385],[8.814945,46.598853],[8.813009,46.597906],[8.812452,46.597466],[8.812168,46.596972],[8.811891,46.595577],[8.811427,46.594976],[8.809199,46.593852],[8.807913,46.592857],[8.806401,46.59212],[8.80645,46.591909],[8.806824,46.591809],[8.808746,46.59282],[8.809132,46.592821],[8.809314,46.59261],[8.809126,46.592373],[8.807298,46.591444],[8.805763,46.590162],[8.805224,46.589533],[8.804377,46.588109],[8.803857,46.586567],[8.803237,46.581647],[8.802864,46.580774],[8.801676,46.578959],[8.801185,46.577091],[8.801122,46.574569],[8.801359,46.573573],[8.801057,46.57171],[8.801019,46.568802],[8.800779,46.567345],[8.801738,46.565512],[8.8019,46.564951],[8.801806,46.564429],[8.800996,46.563059],[8.800839,46.562295],[8.800931,46.560883],[8.801597,46.559825],[8.801758,46.559329],[8.801343,46.557391],[8.801458,46.55678],[8.803656,46.553659],[8.804154,46.553253],[8.80506,46.55296],[8.809113,46.552608],[8.809337,46.5524],[8.809453,46.551835],[8.809651,46.551537],[8.812529,46.549301],[8.815319,46.548067],[8.817241,46.547493],[8.81809,46.546984],[8.818338,46.546654],[8.81851,46.545131],[8.819706,46.543242],[8.820274,46.542719],[8.821894,46.541831],[8.8246,46.541075],[8.827266,46.540864],[8.828801,46.539952],[8.830413,46.539546],[8.834436,46.537648],[8.835378,46.537358],[8.835794,46.536728],[8.836109,46.536549],[8.837258,46.536793],[8.838504,46.536707],[8.841047,46.535564],[8.841845,46.535386],[8.843413,46.535318],[8.846942,46.534489],[8.847784,46.534099],[8.848392,46.533518],[8.849085,46.531897],[8.849591,46.528926],[8.849842,46.52818],[8.849317,46.526188],[8.849373,46.525821],[8.84968,46.52539],[8.850574,46.524789],[8.852512,46.523788],[8.85321,46.523245],[8.855811,46.521946],[8.857787,46.520268],[8.860606,46.518907],[8.864402,46.517839],[8.865646,46.517126],[8.8663,46.516896],[8.867126,46.516868],[8.872357,46.517303],[8.875125,46.517702],[8.877931,46.517401],[8.880308,46.516725],[8.881369,46.516805],[8.881978,46.517108],[8.88234,46.517497],[8.883283,46.519796],[8.884826,46.521521],[8.885509,46.52199],[8.886332,46.522249],[8.887123,46.522304],[8.890375,46.521671],[8.891363,46.5216],[8.894332,46.522022],[8.895347,46.522276],[8.898041,46.522373],[8.898702,46.522661],[8.899952,46.522952],[8.900596,46.523375],[8.900784,46.523652],[8.900797,46.524012],[8.900628,46.5243],[8.899663,46.524858],[8.899079,46.525356],[8.898984,46.525659],[8.899169,46.525987],[8.899717,46.526217],[8.902365,46.526494],[8.903053,46.526372],[8.903569,46.526075],[8.904153,46.525116],[8.90425,46.52476],[8.904048,46.523983],[8.904311,46.523238],[8.904167,46.522697],[8.90437,46.522487],[8.904598,46.522484],[8.904796,46.522689],[8.904982,46.523723],[8.904851,46.524606],[8.905399,46.524809],[8.905813,46.524531],[8.906466,46.522835],[8.906948,46.52258],[8.908996,46.523178],[8.909702,46.523267],[8.910388,46.523228],[8.913956,46.522438],[8.917156,46.52302],[8.917947,46.522945],[8.919438,46.52251],[8.921729,46.522523],[8.923381,46.52275],[8.924011,46.522602],[8.925124,46.52194],[8.928618,46.521204],[8.93064,46.520361],[8.932019,46.519145],[8.933447,46.518113],[8.934232,46.516184],[8.934578,46.515074],[8.934583,46.514549],[8.934766,46.514478],[8.93491,46.51458],[8.93459,46.51552],[8.934396,46.519018],[8.934067,46.519483],[8.932896,46.520212],[8.932744,46.520495],[8.93254,46.521997],[8.931172,46.523675],[8.9302,46.524194],[8.927341,46.524793],[8.925581,46.525854],[8.923537,46.526102],[8.923193,46.526336],[8.923136,46.526668],[8.923322,46.526928],[8.924293,46.527553],[8.925285,46.527976],[8.93103,46.527778],[8.933169,46.527889],[8.934173,46.52822],[8.934863,46.529005],[8.935996,46.529331],[8.936688,46.529763],[8.938131,46.529804],[8.938615,46.529418],[8.938984,46.528984],[8.939198,46.528396],[8.939596,46.528143],[8.940885,46.525532],[8.940988,46.524953],[8.940817,46.524295],[8.939081,46.522127],[8.938123,46.520687],[8.938004,46.520218],[8.93808,46.519461],[8.938273,46.519207],[8.939466,46.518573],[8.939843,46.518123],[8.940046,46.517062],[8.939735,46.516274],[8.939727,46.515836],[8.940351,46.514597],[8.942354,46.512626],[8.943425,46.510151],[8.945391,46.507811],[8.945854,46.506753],[8.94809,46.504903],[8.946934,46.50502],[8.946782,46.504898],[8.948347,46.504017],[8.948791,46.503391],[8.949795,46.503023],[8.950661,46.502368],[8.95163,46.499254],[8.952217,46.498372],[8.952342,46.497905],[8.952083,46.497242],[8.950566,46.495498],[8.95026,46.494675],[8.94997,46.490569],[8.951287,46.487003],[8.951369,46.484845],[8.951259,46.48422],[8.948081,46.479535],[8.946974,46.478282],[8.945891,46.477668],[8.945094,46.476678],[8.943488,46.47419],[8.942969,46.472712],[8.942358,46.471896],[8.942446,46.471097],[8.94176,46.469469],[8.941809,46.469185],[8.9422,46.468679],[8.941814,46.468078],[8.941749,46.466234],[8.941824,46.465087],[8.942125,46.463938],[8.942459,46.463384],[8.941959,46.462048],[8.942258,46.461501],[8.942252,46.460423],[8.942862,46.458167],[8.942985,46.457121],[8.942807,46.456334],[8.942148,46.455462],[8.941577,46.455183],[8.940206,46.454862],[8.939799,46.454563],[8.940293,46.453266],[8.940262,46.452939],[8.939883,46.45212],[8.939916,46.451673],[8.94085,46.450586],[8.941256,46.44956],[8.941916,46.448837],[8.942375,46.447545],[8.942961,46.446541],[8.944531,46.444768],[8.946077,46.44353],[8.947068,46.443074],[8.949591,46.442452],[8.950403,46.441338],[8.95299,46.439069],[8.956729,46.436512],[8.967175,46.430465],[8.967618,46.430819],[8.970292,46.429213],[8.970537,46.428963],[8.970134,46.428719],[8.970832,46.428014],[8.972622,46.426778],[8.973393,46.426534],[8.974873,46.426341],[8.975675,46.425754],[8.976023,46.424942],[8.975995,46.423407],[8.977155,46.421544],[8.977352,46.419946],[8.978092,46.418192],[8.978043,46.417488],[8.976973,46.414168],[8.977467,46.411055],[8.977972,46.41012],[8.980314,46.408662],[8.980724,46.40823],[8.980976,46.407718],[8.982209,46.403646],[8.982168,46.402805],[8.981541,46.400775],[8.981601,46.399638],[8.98201,46.398684],[8.983638,46.396683],[8.984562,46.394975],[8.986116,46.388314],[8.986087,46.387647],[8.985668,46.38698],[8.980042,46.382023],[8.978659,46.381412],[8.973381,46.379754],[8.971386,46.378852],[8.970456,46.378138],[8.970016,46.377436],[8.969491,46.375819],[8.968348,46.374287],[8.967904,46.372802],[8.967493,46.372064],[8.966612,46.371056],[8.963702,46.368408],[8.961927,46.366087],[8.961156,46.364606],[8.959275,46.360144],[8.958498,46.35895],[8.958081,46.358659],[8.958161,46.358346],[8.957531,46.356858],[8.957075,46.354917],[8.956836,46.354704],[8.956451,46.354639],[8.956129,46.354743],[8.955946,46.354961],[8.95608,46.355308],[8.956584,46.355448],[8.957551,46.354986],[8.961044,46.351767],[8.96427,46.348159],[8.968254,46.342908],[8.976915,46.33056],[8.978814,46.327557],[8.97981,46.325381],[8.980573,46.32285],[8.980974,46.320352],[8.981579,46.31391],[8.982012,46.311424],[8.982514,46.309483],[8.983737,46.306411],[8.987356,46.300153],[8.988885,46.29684],[8.989795,46.294316],[8.994356,46.279856],[8.994982,46.27844],[8.996188,46.276362],[8.998548,46.273386],[9.000898,46.271191],[9.006114,46.267182],[9.007596,46.265539],[9.008442,46.264235],[9.009259,46.262311],[9.009573,46.260816],[9.009643,46.259379],[9.00937,46.255795],[9.009657,46.253396],[9.010464,46.25099],[9.012006,46.248122],[9.013444,46.246117],[9.01478,46.244598],[9.017278,46.242438],[9.020257,46.240542],[9.025109,46.238244],[9.027413,46.236944],[9.029559,46.235317],[9.031261,46.233549],[9.032569,46.231621],[9.033498,46.22943],[9.03455,46.224359],[9.034983,46.221453],[9.035516,46.220748],[9.037531,46.219133],[9.038505,46.217929],[9.038628,46.217574],[9.038514,46.217272],[9.038194,46.217087],[9.037793,46.217077],[9.037426,46.217255],[9.037312,46.217598],[9.037435,46.218204],[9.037864,46.218978],[9.038826,46.219892],[9.040486,46.220686],[9.042598,46.221196],[9.048063,46.221683],[9.051247,46.22231],[9.066517,46.227269],[9.068291,46.227618],[9.0715,46.22802],[9.072893,46.228361],[9.078877,46.230917],[9.081426,46.231556],[9.084054,46.231622],[9.089537,46.230973],[9.091666,46.230888],[9.101944,46.231812],[9.105347,46.231873],[9.108424,46.231492],[9.12373,46.228499],[9.12677,46.228354],[9.130042,46.228758],[9.132132,46.22937],[9.133924,46.230153],[9.135074,46.230828],[9.136602,46.232046],[9.137496,46.233026],[9.138194,46.234048],[9.141341,46.240064],[9.142503,46.241457],[9.14353,46.242359],[9.145686,46.243674],[9.150376,46.245813],[9.152899,46.247227],[9.154662,46.248556],[9.157807,46.251468],[9.159337,46.25301],[9.160229,46.254101],[9.168507,46.266521],[9.169304,46.267524],[9.17056,46.268527],[9.173389,46.269955],[9.174111,46.270548],[9.174771,46.271354],[9.17524,46.272229],[9.1756,46.273349],[9.175742,46.275951],[9.176031,46.277064],[9.176556,46.27791],[9.178588,46.280135],[9.179515,46.281882],[9.181521,46.291458],[9.181909,46.292542],[9.182431,46.293521],[9.183222,46.294501],[9.187358,46.298163],[9.189353,46.300322],[9.201283,46.315215],[9.20684,46.322603],[9.207625,46.323941],[9.208212,46.325438],[9.208602,46.327301],[9.208821,46.33088],[9.209238,46.331969],[9.209708,46.332701],[9.210377,46.333487],[9.211923,46.33488],[9.216501,46.338552],[9.21746,46.339674],[9.217912,46.340846],[9.21795,46.341835],[9.217709,46.342758],[9.216685,46.345184],[9.216408,46.346583],[9.216516,46.348251],[9.216867,46.34944],[9.217872,46.351205],[9.21989,46.353536],[9.220528,46.354491],[9.220889,46.355376],[9.221396,46.357668],[9.221952,46.358724],[9.223019,46.359845],[9.225913,46.361849],[9.22659,46.362687],[9.227094,46.363967],[9.227288,46.365401],[9.227132,46.366892],[9.226498,46.368608],[9.225039,46.370904],[9.224871,46.371734],[9.225046,46.372563],[9.225549,46.373354],[9.226825,46.374526],[9.227843,46.37592],[9.230003,46.377834],[9.232837,46.382461],[9.233251,46.382609],[9.233534,46.382382],[9.233318,46.382185],[9.232975,46.382199],[9.232414,46.382824],[9.232726,46.38336],[9.232852,46.383909],[9.232577,46.384502],[9.23299,46.384902],[9.23326,46.385687],[9.233334,46.386629],[9.233926,46.387958],[9.233148,46.389347],[9.23322,46.390169],[9.233035,46.391408],[9.231343,46.395737],[9.230377,46.396811],[9.2303,46.397995],[9.229881,46.398522],[9.229971,46.398757],[9.230801,46.398966],[9.230851,46.399369],[9.230631,46.39977],[9.230366,46.399949],[9.228656,46.399929],[9.227602,46.400168],[9.227285,46.400394],[9.2274,46.400688],[9.228127,46.400879],[9.228893,46.401422],[9.228745,46.401516],[9.228131,46.401189],[9.227973,46.401236],[9.228763,46.40181],[9.228637,46.402437],[9.228827,46.403253],[9.228621,46.403248],[9.228102,46.401895],[9.227983,46.401982],[9.228021,46.402425],[9.22871,46.40393],[9.228597,46.404592],[9.229723,46.406052],[9.229862,46.406944],[9.228401,46.409302],[9.228426,46.410544],[9.229048,46.410908],[9.227979,46.410704],[9.227753,46.410516],[9.227645,46.41002],[9.227529,46.410099],[9.2275,46.410553],[9.227692,46.410903],[9.227781,46.411715],[9.227617,46.411678],[9.227307,46.41101],[9.227136,46.411019],[9.227239,46.411298],[9.227104,46.412104],[9.227216,46.412556],[9.226471,46.413935],[9.226779,46.414571],[9.226724,46.414685],[9.226501,46.414711],[9.226293,46.414499],[9.226076,46.414112],[9.226089,46.413575],[9.225885,46.413607],[9.225757,46.414984],[9.225304,46.415819],[9.22575,46.416047],[9.226047,46.416735],[9.226006,46.417429],[9.226238,46.418371],[9.225608,46.419219],[9.225443,46.420154],[9.225427,46.421287],[9.224446,46.423626],[9.223865,46.426422],[9.223562,46.426688],[9.222542,46.427135],[9.219426,46.427807],[9.21833,46.428462],[9.216159,46.429403],[9.215504,46.429808],[9.213693,46.431863],[9.213874,46.431917],[9.215324,46.431551],[9.214472,46.432374],[9.214544,46.432502],[9.2163,46.432056],[9.215838,46.432414],[9.215193,46.433571],[9.214587,46.433992],[9.214495,46.434185],[9.21445,46.434825],[9.214609,46.434942],[9.215934,46.434431],[9.215704,46.434803],[9.2158,46.43556],[9.215618,46.435674],[9.214272,46.43572],[9.213192,46.435523],[9.213056,46.435311],[9.21326,46.434717],[9.213105,46.434669],[9.212768,46.435556],[9.212869,46.435951],[9.212749,46.436543],[9.212115,46.437565],[9.211941,46.4375],[9.212312,46.436777],[9.212331,46.436463],[9.21196,46.43599],[9.212027,46.435724],[9.211939,46.435667],[9.211809,46.435732],[9.211723,46.436099],[9.211999,46.436501],[9.21199,46.43676],[9.211014,46.437874],[9.210874,46.437775],[9.211436,46.436993],[9.211369,46.436822],[9.210705,46.436991],[9.210325,46.437395],[9.20947,46.437568],[9.207324,46.437467],[9.207387,46.437346],[9.209483,46.437179],[9.208285,46.437117],[9.207632,46.436541],[9.207139,46.436633],[9.20819,46.435801],[9.207481,46.435358],[9.206532,46.435131],[9.205781,46.434633],[9.205563,46.434274],[9.205397,46.434294],[9.205592,46.435191],[9.205336,46.436045],[9.20509,46.436001],[9.204961,46.435562],[9.204981,46.434999],[9.204807,46.434951],[9.204008,46.436187],[9.203801,46.437519],[9.203279,46.438043],[9.203503,46.439447],[9.203061,46.440503],[9.203039,46.441279],[9.201692,46.444413],[9.201081,46.446683],[9.200531,46.447218],[9.200617,46.447403],[9.20127,46.447734],[9.200461,46.448581],[9.199216,46.451935],[9.199031,46.452717],[9.197925,46.455201],[9.195662,46.457348],[9.193519,46.458746],[9.193126,46.459396],[9.19325,46.460007],[9.192984,46.460723],[9.191852,46.462744],[9.190948,46.463148],[9.189962,46.462786],[9.188514,46.462795],[9.187886,46.463285],[9.187759,46.464026],[9.187572,46.464299],[9.186685,46.46485],[9.185432,46.465399],[9.185558,46.465558],[9.186278,46.465408],[9.186842,46.465467],[9.187159,46.465878],[9.187414,46.466697],[9.187142,46.467393],[9.186585,46.46808],[9.186385,46.46889],[9.186398,46.469393],[9.186272,46.469392],[9.186215,46.469107],[9.186088,46.469072],[9.185601,46.469619],[9.183135,46.470223],[9.181992,46.471058],[9.180493,46.471478],[9.180411,46.472216],[9.180631,46.472713],[9.18043,46.473151],[9.180473,46.473311],[9.180851,46.473349],[9.182245,46.472632],[9.182328,46.472805],[9.18152,46.47343],[9.181703,46.473574],[9.18271,46.473815],[9.182754,46.474034],[9.181847,46.474025],[9.181727,46.474171],[9.181885,46.474459],[9.181799,46.474555],[9.180964,46.474286],[9.181293,46.474909],[9.18129,46.475152],[9.181013,46.475563],[9.180384,46.475968],[9.179624,46.475961],[9.178006,46.476519],[9.177085,46.476377],[9.177104,46.476496],[9.177966,46.476919],[9.176789,46.476858],[9.176402,46.476984],[9.172889,46.479814],[9.171998,46.481111],[9.170872,46.482376],[9.169783,46.483161],[9.16996,46.483219],[9.171388,46.482455],[9.171901,46.481941],[9.172397,46.481675],[9.172542,46.481889],[9.172282,46.482362],[9.172349,46.482446],[9.174442,46.482254],[9.174156,46.482507],[9.173297,46.482819],[9.172638,46.483667],[9.173611,46.483214],[9.174185,46.483339],[9.174181,46.483545],[9.173287,46.484481],[9.172939,46.484679],[9.171422,46.48487],[9.170762,46.484795],[9.171598,46.485385],[9.170457,46.485106],[9.170484,46.485217],[9.171157,46.48551],[9.170139,46.486315],[9.16974,46.486432],[9.168852,46.486388],[9.168249,46.486628],[9.168421,46.486946],[9.168426,46.487352],[9.16878,46.487651],[9.168984,46.487682],[9.169457,46.487467],[9.170327,46.487417],[9.170889,46.487639],[9.171112,46.488049],[9.170553,46.491603],[9.170401,46.491988],[9.169502,46.492876],[9.169581,46.493625],[9.169157,46.494568],[9.169191,46.494939],[9.170647,46.49592],[9.171194,46.497261],[9.170991,46.497753],[9.171261,46.498007],[9.172563,46.498114],[9.174423,46.496955],[9.174571,46.496977],[9.175653,46.498938],[9.177256,46.500916],[9.178025,46.50261],[9.178731,46.503407],[9.178868,46.504328],[9.178693,46.504967],[9.178708,46.505416],[9.179017,46.505871],[9.17911,46.506829],[9.179233,46.50684],[9.179368,46.506456],[9.179521,46.506426],[9.179396,46.507465],[9.180001,46.507381],[9.179625,46.507615],[9.179461,46.507952],[9.179791,46.50924],[9.179954,46.509163],[9.179913,46.50877],[9.180169,46.50916],[9.18008,46.50999],[9.180208,46.510023],[9.180308,46.509796],[9.180429,46.50979],[9.181475,46.511494],[9.181754,46.513299],[9.183076,46.514513],[9.18202,46.515322],[9.183321,46.514765],[9.183676,46.514814],[9.183853,46.515119],[9.183917,46.515706],[9.184359,46.516379],[9.184328,46.516958],[9.1846,46.517281],[9.185702,46.518035],[9.186484,46.518344],[9.186941,46.51874],[9.188099,46.519147],[9.188984,46.519811],[9.189995,46.520225],[9.189059,46.52005],[9.186206,46.518942],[9.186732,46.519397],[9.187291,46.519535],[9.188423,46.520277],[9.189418,46.520679],[9.189289,46.520733],[9.187019,46.519995],[9.189272,46.521126],[9.189176,46.521201],[9.18784,46.520603],[9.186888,46.520423],[9.187836,46.520853],[9.188908,46.521547],[9.188805,46.521618],[9.187841,46.521193],[9.188725,46.521803],[9.188672,46.521883],[9.187588,46.521341],[9.188581,46.522074],[9.187763,46.521773],[9.187053,46.521257],[9.184937,46.520652],[9.184936,46.52078],[9.18588,46.521192],[9.183233,46.520543],[9.185977,46.521891],[9.183219,46.521184],[9.181789,46.52109],[9.181637,46.52122],[9.18284,46.521749],[9.183182,46.522731],[9.184008,46.52339],[9.185589,46.524177],[9.186844,46.524485],[9.186918,46.525258],[9.18669,46.525314],[9.186641,46.525458],[9.187124,46.525931],[9.18806,46.527402],[9.188406,46.527737],[9.193696,46.530088],[9.195519,46.53041],[9.197332,46.530372],[9.198608,46.530487],[9.199789,46.530352],[9.200637,46.530402],[9.202244,46.530759],[9.204343,46.530927],[9.205865,46.531602],[9.206879,46.531791],[9.207922,46.531727],[9.209525,46.53136],[9.210757,46.531412],[9.213082,46.532259],[9.215618,46.532667],[9.217068,46.53308],[9.223712,46.535964],[9.227003,46.53716],[9.228712,46.537586],[9.231793,46.537892],[9.237778,46.537643],[9.242055,46.538334],[9.243564,46.53822],[9.243664,46.538332],[9.245238,46.538379],[9.247704,46.538764],[9.25064,46.538696],[9.251489,46.538861],[9.254018,46.539695],[9.256579,46.539514],[9.257848,46.539602],[9.261412,46.540653],[9.26386,46.541118],[9.266155,46.541277],[9.272322,46.541166],[9.273946,46.541318],[9.278064,46.542304],[9.282657,46.544173],[9.287371,46.545234],[9.289037,46.545234],[9.292937,46.544456],[9.295606,46.544364],[9.29725,46.544702],[9.302187,46.546704],[9.303532,46.547038],[9.307778,46.547148],[9.311391,46.546768],[9.312886,46.546976],[9.314003,46.547428],[9.317538,46.549579],[9.319394,46.550414],[9.327148,46.552542],[9.328119,46.553144],[9.329469,46.554338],[9.330437,46.554841],[9.335787,46.556097],[9.337185,46.556602],[9.341212,46.558692],[9.342562,46.559717],[9.345198,46.560215],[9.348098,46.560982],[9.34867,46.561495],[9.348976,46.56284],[9.349338,46.56331],[9.35183,46.564263],[9.353434,46.565028],[9.355137,46.565538],[9.358235,46.565939],[9.361418,46.56711],[9.366053,46.567863],[9.36726,46.568421],[9.369417,46.569947],[9.371451,46.570675],[9.376579,46.571289],[9.378404,46.571155],[9.380644,46.570694],[9.381302,46.57034],[9.381771,46.569792],[9.382472,46.567108],[9.382759,46.566507],[9.383406,46.565973],[9.384402,46.565648],[9.38517,46.565628],[9.385993,46.565795],[9.386724,46.566198],[9.388217,46.567387],[9.389121,46.56772],[9.390211,46.56787],[9.391703,46.56768],[9.395904,46.566218],[9.400787,46.565811],[9.402272,46.565881],[9.403517,46.566291],[9.404404,46.566895],[9.405708,46.568847],[9.406803,46.56962],[9.413979,46.571695],[9.415283,46.572355],[9.415872,46.57296],[9.416131,46.573459],[9.416247,46.57392],[9.41625,46.575003],[9.416438,46.575482],[9.417495,46.576701],[9.417932,46.578087],[9.418423,46.578601],[9.41894,46.578903],[9.42085,46.579644],[9.422467,46.57989],[9.423591,46.579684],[9.426131,46.57849],[9.426912,46.578493],[9.427626,46.578771],[9.428013,46.579179],[9.428126,46.579789],[9.426233,46.587882],[9.426195,46.588533],[9.426539,46.589371],[9.427573,46.590529],[9.427907,46.591216],[9.427819,46.592085],[9.426995,46.593434],[9.427013,46.594239],[9.427443,46.594858],[9.429596,46.597042],[9.430526,46.598289],[9.431105,46.599463],[9.431096,46.600507],[9.430423,46.60213],[9.430226,46.603006],[9.430248,46.603885],[9.430436,46.604654],[9.43121,46.606022],[9.433357,46.608153],[9.433974,46.609436],[9.434008,46.610817],[9.433118,46.613217],[9.432921,46.614096],[9.432947,46.614894],[9.433364,46.616718],[9.432977,46.618951],[9.433131,46.620201],[9.434311,46.622323],[9.43471,46.624072],[9.435011,46.624793],[9.437699,46.62826],[9.438374,46.629495],[9.438612,46.630374],[9.438671,46.631203],[9.438264,46.633387],[9.438319,46.634377],[9.438844,46.635576],[9.440113,46.637079],[9.440517,46.63776],[9.440734,46.638486],[9.44087,46.639878],[9.441152,46.640631],[9.44169,46.641347],[9.442429,46.641954],[9.445927,46.643632],[9.447462,46.644984],[9.448222,46.646439],[9.448371,46.647933],[9.448574,46.648644],[9.449701,46.650484],[9.450735,46.651437],[9.451118,46.651972],[9.452263,46.655023],[9.452179,46.655757],[9.451514,46.656531],[9.45089,46.656848],[9.449264,46.657328],[9.448674,46.657736],[9.448402,46.658166],[9.448199,46.659308],[9.447943,46.659911],[9.447465,46.660474],[9.446213,46.661528],[9.445721,46.662555],[9.445733,46.663387],[9.446113,46.664154],[9.446505,46.664568],[9.44782,46.665407],[9.448707,46.666197],[9.449862,46.667669],[9.450126,46.668274],[9.450142,46.669344],[9.449915,46.670372],[9.447958,46.674011],[9.447971,46.674616],[9.448467,46.676149],[9.448567,46.676838],[9.44845,46.67782],[9.44813,46.678689],[9.447354,46.679806],[9.445809,46.681043],[9.444651,46.681612],[9.441271,46.682734],[9.43936,46.68382],[9.438072,46.685195],[9.437745,46.685808],[9.437451,46.686785],[9.43742,46.687731],[9.437605,46.688607],[9.438004,46.689449],[9.438699,46.690357],[9.439592,46.691159],[9.44402,46.694377],[9.446525,46.696626],[9.446921,46.696663],[9.449909,46.695821],[9.451671,46.695498],[9.453092,46.69547],[9.454442,46.695614],[9.455746,46.695933],[9.457226,46.696568],[9.459977,46.69857],[9.460883,46.699093],[9.461958,46.699519],[9.464363,46.699909],[9.466788,46.699665],[9.469124,46.698868],[9.470801,46.698147],[9.471257,46.697773],[9.471763,46.696821],[9.472051,46.696645],[9.473938,46.696324],[9.475797,46.696521],[9.477879,46.696234],[9.479498,46.695382],[9.47967,46.694973],[9.479707,46.694395],[9.479877,46.694134],[9.480893,46.693857],[9.481704,46.693339],[9.482954,46.693361],[9.484322,46.692834],[9.485113,46.692662],[9.486693,46.692966],[9.489974,46.692642],[9.492302,46.69293],[9.492855,46.692842],[9.494584,46.691343],[9.495324,46.691136],[9.496732,46.691077],[9.497739,46.690644],[9.497996,46.690407],[9.498559,46.68938],[9.500083,46.688039],[9.501155,46.687413],[9.502479,46.687145],[9.504752,46.687141],[9.505675,46.686744],[9.506502,46.686066],[9.507118,46.685865],[9.507734,46.685865],[9.509128,46.68625],[9.510065,46.686156],[9.512323,46.68478],[9.513471,46.68427],[9.522222,46.681628],[9.523369,46.681404],[9.525686,46.681242],[9.52641,46.681042],[9.526889,46.680751],[9.528212,46.67953],[9.52878,46.679244],[9.529553,46.679206],[9.531278,46.679729],[9.532344,46.679832],[9.534558,46.679432],[9.541366,46.678672],[9.542272,46.678236],[9.543433,46.676918],[9.544411,46.676164],[9.54914,46.673723],[9.551023,46.673139],[9.553081,46.673038],[9.557474,46.673844],[9.558886,46.673781],[9.560202,46.673469],[9.561475,46.672888],[9.563764,46.67149],[9.565797,46.669274],[9.56914,46.66771],[9.570467,46.66686],[9.571239,46.665403],[9.571332,46.66495],[9.571209,46.664447],[9.571335,46.66426],[9.573893,46.663146],[9.575838,46.66264],[9.576535,46.662683],[9.576689,46.662274],[9.576203,46.66202],[9.575687,46.661932],[9.576392,46.661376],[9.576122,46.661143],[9.575949,46.66122],[9.576212,46.661514],[9.575687,46.661932],[9.576203,46.66202],[9.576689,46.662274],[9.576535,46.662683],[9.575838,46.66264],[9.573893,46.663146],[9.571335,46.66426],[9.571209,46.664447],[9.57131,46.664803],[9.575081,46.664023],[9.576988,46.663984],[9.578102,46.663515],[9.578939,46.663524],[9.579381,46.663247],[9.579606,46.663376],[9.579596,46.663608],[9.578804,46.664012],[9.579899,46.664339],[9.580699,46.664184],[9.581882,46.664478],[9.582699,46.664417],[9.584783,46.664551],[9.586245,46.664271],[9.587181,46.664669],[9.588834,46.664703],[9.590124,46.664903],[9.590266,46.665221],[9.589991,46.665459],[9.588824,46.665456],[9.587363,46.665731],[9.586792,46.665693],[9.585599,46.66603],[9.58496,46.666668],[9.582505,46.667701],[9.579672,46.669228],[9.579444,46.66955],[9.579258,46.670193],[9.578934,46.670494],[9.577245,46.670773],[9.573737,46.672111],[9.573412,46.67247],[9.573629,46.673052],[9.57351,46.673211],[9.572517,46.673092],[9.571282,46.673446],[9.570693,46.67403],[9.570587,46.674896],[9.567603,46.676272],[9.567236,46.676961],[9.567173,46.677385],[9.566425,46.678485],[9.5665,46.678694],[9.567418,46.679153],[9.567653,46.679728],[9.567556,46.68025],[9.564705,46.682969],[9.563433,46.684512],[9.562987,46.688634],[9.56228,46.689534],[9.561951,46.689728],[9.561966,46.689901],[9.560008,46.692354],[9.557849,46.698598],[9.560397,46.705839],[9.559154,46.70933],[9.559608,46.713567],[9.558775,46.714692],[9.559192,46.718523],[9.558754,46.719486],[9.558672,46.721342],[9.558904,46.72249],[9.558688,46.723035],[9.557944,46.724061],[9.557687,46.725934],[9.55785,46.726854],[9.557781,46.727601],[9.557618,46.728385],[9.557207,46.729218],[9.556523,46.729876],[9.553898,46.731539],[9.553273,46.732406],[9.552449,46.733209],[9.551844,46.73428],[9.552203,46.734976],[9.552203,46.735608],[9.553012,46.73792],[9.552927,46.738851],[9.553051,46.739132],[9.553734,46.739402],[9.555393,46.739246],[9.555794,46.739426],[9.556026,46.739723],[9.556002,46.740085],[9.55545,46.741071],[9.555456,46.741499],[9.556039,46.743083],[9.556725,46.744089],[9.556418,46.744754],[9.55559,46.74468]]}},{"type":"Feature","properties":{"kind":"stop","index":0,"name":"Hotel Landhaus","time":"08:20","detail":"Early departure"},"geometry":{"type":"Point","coordinates":[8.268457,46.4879271]}},{"type":"Feature","properties":{"kind":"stop","index":1,"name":"Grimsel Pass","time":"","detail":"Morning pass"},"geometry":{"type":"Point","coordinates":[8.33758,46.5614]}},{"type":"Feature","properties":{"kind":"stop","index":2,"name":"Gelmerbahn","time":"09:00","detail":"Walk from parking; ascent 09:48"},"geometry":{"type":"Point","coordinates":[8.3085363,46.6136385]}},{"type":"Feature","properties":{"kind":"stop","index":3,"name":"Gschletterkurve","time":"","detail":"Susten road waypoint"},"geometry":{"type":"Point","coordinates":[8.3806647,46.7424683]}},{"type":"Feature","properties":{"kind":"stop","index":4,"name":"Susten viewpoint","time":"","detail":"Photo stop"},"geometry":{"type":"Point","coordinates":[8.4127499,46.7330611]}},{"type":"Feature","properties":{"kind":"stop","index":5,"name":"Susten Pass","time":"12:21","detail":"Continue toward Oberalp"},"geometry":{"type":"Point","coordinates":[8.4470234,46.7293696]}},{"type":"Feature","properties":{"kind":"stop","index":6,"name":"Ustria Alpsu","time":"13:21","detail":"Lunch and route decision"},"geometry":{"type":"Point","coordinates":[8.6714017,46.6587706]}},{"type":"Feature","properties":{"kind":"stop","index":7,"name":"Garviel da Medel","time":"","detail":"Lukmanier route"},"geometry":{"type":"Point","coordinates":[8.8172,46.60218]}},{"type":"Feature","properties":{"kind":"stop","index":8,"name":"Motto · Blenio","time":"","detail":"Roadbook waypoint"},"geometry":{"type":"Point","coordinates":[8.97053,46.42895]}},{"type":"Feature","properties":{"kind":"stop","index":9,"name":"Mesocco","time":"","detail":"San Bernardino approach"},"geometry":{"type":"Point","coordinates":[9.2288448,46.4109835]}},{"type":"Feature","properties":{"kind":"stop","index":10,"name":"San Bernardino village","time":"","detail":"Roadbook waypoint"},"geometry":{"type":"Point","coordinates":[9.2051555,46.4361286]}},{"type":"Feature","properties":{"kind":"stop","index":11,"name":"San Bernardino Pass","time":"","detail":"High pass"},"geometry":{"type":"Point","coordinates":[9.17079,46.4959]}},{"type":"Feature","properties":{"kind":"stop","index":12,"name":"Albula Pass","time":"","detail":"Late-afternoon pass"},"geometry":{"type":"Point","coordinates":[9.5765123,46.6626282]}},{"type":"Feature","properties":{"kind":"stop","index":13,"name":"Migrol Lantsch/Lenz","time":"","detail":"Fuel"},"geometry":{"type":"Point","coordinates":[9.5619604,46.6896395]}},{"type":"Feature","properties":{"kind":"stop","index":14,"name":"Hotel Waldhaus am See","time":"18:50","detail":"Fondue at 20:00"},"geometry":{"type":"Point","coordinates":[9.5555085,46.7445648]}}]}
