{"type":"FeatureCollection","properties":{"id":"friday-albula","distanceMetres":299830.7,"durationSeconds":18674.7,"generatedBy":"OSRM using OpenStreetMap data"},"features":[{"type":"Feature","properties":{"kind":"route","color":"#737b97"},"geometry":{"type":"LineString","coordinates":[[8.26852,46.487794],[8.272232,46.488729],[8.274764,46.489823],[8.276844,46.491042],[8.277707,46.491683],[8.278588,46.492603],[8.280437,46.495694],[8.281045,46.495987],[8.28438,46.496652],[8.285434,46.497154],[8.286328,46.497985],[8.287567,46.50014],[8.288211,46.500577],[8.290314,46.501044],[8.292268,46.500916],[8.294777,46.501879],[8.29567,46.502487],[8.296649,46.504003],[8.297777,46.504898],[8.300657,46.50585],[8.305002,46.506485],[8.307236,46.507801],[8.308644,46.508344],[8.309984,46.508621],[8.310967,46.509699],[8.311894,46.510415],[8.318756,46.513747],[8.320408,46.514044],[8.323412,46.513632],[8.324118,46.513811],[8.325277,46.514563],[8.325257,46.515609],[8.325453,46.515945],[8.327222,46.51722],[8.327692,46.517721],[8.329063,46.520014],[8.329337,46.521043],[8.329498,46.5226],[8.329748,46.523133],[8.330315,46.523732],[8.334378,46.525777],[8.337161,46.52745],[8.339454,46.528344],[8.342994,46.531649],[8.343851,46.532807],[8.345702,46.533235],[8.34722,46.534207],[8.348773,46.534462],[8.349483,46.535075],[8.349684,46.536061],[8.349974,46.536416],[8.351249,46.536905],[8.35393,46.538251],[8.355204,46.538653],[8.356517,46.539246],[8.358403,46.540791],[8.359624,46.541319],[8.359512,46.541447],[8.358403,46.541067],[8.355737,46.540511],[8.355148,46.540521],[8.353425,46.539369],[8.351525,46.538654],[8.35026,46.538324],[8.350115,46.538395],[8.351286,46.53892],[8.352895,46.539983],[8.35355,46.540757],[8.354325,46.54147],[8.354853,46.541778],[8.355307,46.542322],[8.357661,46.543043],[8.357874,46.543659],[8.357776,46.543808],[8.356707,46.543866],[8.355872,46.544526],[8.355059,46.544283],[8.35493,46.544402],[8.355253,46.544714],[8.356217,46.545248],[8.357367,46.545425],[8.358477,46.546053],[8.358646,46.546328],[8.3587,46.546932],[8.360353,46.548348],[8.360406,46.54884],[8.359712,46.54994],[8.358709,46.551942],[8.355938,46.555147],[8.355735,46.556619],[8.355537,46.556563],[8.355477,46.555442],[8.355235,46.555441],[8.355264,46.55665],[8.355122,46.557377],[8.355417,46.557792],[8.355656,46.557911],[8.356685,46.557537],[8.356688,46.557647],[8.35593,46.558206],[8.356144,46.558975],[8.358037,46.560327],[8.359361,46.560756],[8.359868,46.561292],[8.361453,46.562209],[8.361206,46.562515],[8.360981,46.562575],[8.36057,46.562116],[8.35872,46.561166],[8.356639,46.560707],[8.355581,46.560877],[8.354944,46.560802],[8.353949,46.560503],[8.353411,46.56008],[8.353244,46.560133],[8.353293,46.560279],[8.354832,46.561282],[8.357116,46.562275],[8.358323,46.562459],[8.358422,46.56259],[8.358254,46.562672],[8.357104,46.56259],[8.353825,46.561786],[8.353116,46.561395],[8.352685,46.560929],[8.352434,46.560966],[8.35347,46.561894],[8.357075,46.563543],[8.358406,46.563935],[8.358411,46.564058],[8.358224,46.56412],[8.35463,46.563235],[8.352968,46.562946],[8.351799,46.562174],[8.351607,46.56185],[8.351379,46.561902],[8.352624,46.563236],[8.354366,46.56393],[8.355515,46.564753],[8.357575,46.565775],[8.358577,46.567072],[8.359559,46.567642],[8.359436,46.567836],[8.356899,46.566171],[8.354407,46.565291],[8.350532,46.564147],[8.349612,46.563313],[8.348359,46.562813],[8.347754,46.561913],[8.347444,46.5617],[8.345127,46.561686],[8.343684,46.562423],[8.342007,46.562463],[8.340697,46.562821],[8.338649,46.562069],[8.33698,46.561117],[8.336593,46.56125],[8.336491,46.561614],[8.337601,46.562473],[8.33771,46.562795],[8.337688,46.563586],[8.338095,46.564419],[8.338214,46.565171],[8.338464,46.565534],[8.338994,46.56589],[8.338974,46.566028],[8.338693,46.56606],[8.336575,46.564814],[8.335907,46.564625],[8.335193,46.564675],[8.333675,46.565103],[8.332689,46.565109],[8.33254,46.565276],[8.332782,46.565389],[8.334888,46.565406],[8.335413,46.565526],[8.335733,46.56581],[8.335871,46.56645],[8.336079,46.566704],[8.338565,46.567839],[8.338594,46.56805],[8.33838,46.568086],[8.335465,46.567329],[8.334323,46.56675],[8.330337,46.566637],[8.330436,46.566848],[8.331495,46.566853],[8.333206,46.567262],[8.337304,46.569607],[8.338917,46.570222],[8.339415,46.570592],[8.339877,46.571333],[8.340212,46.572537],[8.340209,46.574207],[8.339761,46.57571],[8.339705,46.57632],[8.339509,46.57645],[8.339312,46.576354],[8.339544,46.575669],[8.339531,46.575302],[8.338719,46.574156],[8.337725,46.573677],[8.336593,46.573447],[8.336304,46.57351],[8.33638,46.573689],[8.33707,46.573777],[8.337461,46.573994],[8.338027,46.57504],[8.337958,46.575699],[8.337035,46.576639],[8.337078,46.576943],[8.337433,46.577446],[8.337436,46.577697],[8.336292,46.578684],[8.334606,46.579551],[8.333964,46.580469],[8.333177,46.581052],[8.332883,46.582424],[8.333173,46.583439],[8.333247,46.584363],[8.333021,46.584848],[8.33291,46.585663],[8.332151,46.586365],[8.331715,46.586977],[8.331108,46.587463],[8.331105,46.587697],[8.331505,46.588306],[8.331459,46.588659],[8.32952,46.589823],[8.328703,46.590512],[8.327643,46.590669],[8.326673,46.591088],[8.325759,46.591907],[8.324962,46.59223],[8.324959,46.59248],[8.325674,46.592933],[8.325767,46.593591],[8.326187,46.59403],[8.326121,46.594239],[8.325676,46.594255],[8.325378,46.593499],[8.324543,46.593082],[8.324321,46.592842],[8.324276,46.592535],[8.324493,46.591884],[8.324998,46.591269],[8.324778,46.591098],[8.324622,46.59118],[8.324068,46.592271],[8.323845,46.593156],[8.322815,46.594077],[8.322443,46.594576],[8.322437,46.59501],[8.323035,46.595808],[8.323852,46.596235],[8.325381,46.596598],[8.325637,46.596936],[8.325484,46.597356],[8.32447,46.598429],[8.322494,46.598879],[8.321515,46.599534],[8.317699,46.60597],[8.316101,46.607799],[8.315831,46.607822],[8.315774,46.607679],[8.316288,46.60721],[8.316745,46.606338],[8.316678,46.605996],[8.316328,46.605626],[8.315818,46.605415],[8.313695,46.605107],[8.313046,46.605151],[8.312322,46.605432],[8.311761,46.605954],[8.308255,46.610128],[8.308089,46.61054],[8.308109,46.611037],[8.3088,46.612024],[8.308869,46.612521],[8.308611,46.61294],[8.307815,46.61335],[8.307752,46.613804],[8.307815,46.61335],[8.307487,46.613642],[8.307087,46.614771],[8.306499,46.614984],[8.30535,46.614762],[8.303979,46.614864],[8.304159,46.61506],[8.304778,46.614861],[8.305134,46.614887],[8.30604,46.615331],[8.306979,46.615422],[8.307128,46.61555],[8.306943,46.615687],[8.305423,46.615805],[8.304998,46.616055],[8.304871,46.616296],[8.304925,46.61673],[8.305645,46.61836],[8.305504,46.619897],[8.30621,46.621243],[8.306551,46.622255],[8.306541,46.623254],[8.30633,46.623887],[8.306006,46.624358],[8.303992,46.625708],[8.303502,46.626248],[8.303301,46.626712],[8.303409,46.627429],[8.304072,46.628176],[8.304302,46.628693],[8.304208,46.629731],[8.304334,46.630762],[8.304211,46.631531],[8.304499,46.632254],[8.304534,46.632716],[8.304342,46.634249],[8.304002,46.635009],[8.303876,46.635869],[8.303353,46.636868],[8.303471,46.63814],[8.303377,46.638546],[8.303107,46.638942],[8.302251,46.639681],[8.301999,46.640167],[8.301638,46.6434],[8.301817,46.644884],[8.30169,46.645273],[8.301395,46.645604],[8.299879,46.646621],[8.298798,46.64782],[8.296098,46.6497],[8.295541,46.649947],[8.294402,46.650117],[8.293856,46.650389],[8.293615,46.650723],[8.29328,46.651762],[8.292734,46.652542],[8.289198,46.655204],[8.28696,46.656262],[8.286718,46.656638],[8.286575,46.657864],[8.286284,46.658232],[8.285303,46.65894],[8.284648,46.659197],[8.283088,46.659107],[8.281516,46.659428],[8.280205,46.65997],[8.27834,46.661076],[8.277834,46.661118],[8.27671,46.660833],[8.276198,46.660923],[8.275885,46.661999],[8.275339,46.662675],[8.274104,46.66339],[8.272737,46.663852],[8.272849,46.664078],[8.274791,46.664764],[8.274889,46.664909],[8.274792,46.665079],[8.273705,46.665318],[8.270839,46.666359],[8.268962,46.667975],[8.267403,46.668177],[8.267312,46.668372],[8.26757,46.668549],[8.2687,46.668325],[8.269005,46.668467],[8.268759,46.669152],[8.268196,46.669657],[8.266637,46.67024],[8.264929,46.670466],[8.262351,46.671505],[8.261527,46.672449],[8.260704,46.672964],[8.259077,46.673683],[8.257508,46.674105],[8.256518,46.674617],[8.255785,46.675164],[8.254215,46.677651],[8.253424,46.678152],[8.252174,46.678489],[8.251163,46.679176],[8.250786,46.679708],[8.249024,46.681396],[8.247598,46.683392],[8.24624,46.683893],[8.243994,46.684223],[8.243588,46.684406],[8.243167,46.684985],[8.242432,46.685604],[8.24237,46.686181],[8.242632,46.686647],[8.24354,46.686916],[8.243899,46.687165],[8.244033,46.687536],[8.244004,46.687949],[8.243685,46.688396],[8.24252,46.68893],[8.24214,46.689866],[8.240324,46.691405],[8.239908,46.692003],[8.239747,46.692597],[8.239821,46.692982],[8.240184,46.693564],[8.240107,46.695036],[8.239875,46.695569],[8.23924,46.696176],[8.237725,46.696931],[8.233206,46.700272],[8.229944,46.703796],[8.229572,46.705231],[8.22921,46.70587],[8.229754,46.70611],[8.230163,46.706512],[8.230554,46.706604],[8.23303,46.7066],[8.233824,46.706138],[8.234826,46.706114],[8.235307,46.70623],[8.236602,46.707117],[8.236487,46.707312],[8.235805,46.707509],[8.235341,46.707905],[8.235277,46.708198],[8.235544,46.70842],[8.238425,46.708451],[8.239529,46.70864],[8.240301,46.708132],[8.240487,46.707774],[8.24048,46.707215],[8.240918,46.707048],[8.24121,46.707203],[8.243079,46.709012],[8.243408,46.709071],[8.244474,46.708922],[8.244983,46.709019],[8.246779,46.709802],[8.248023,46.71096],[8.24919,46.711023],[8.250618,46.710735],[8.253568,46.710971],[8.254972,46.710937],[8.256275,46.711422],[8.257139,46.711918],[8.260489,46.712855],[8.261122,46.713172],[8.261915,46.713848],[8.263658,46.713951],[8.265215,46.714423],[8.266216,46.714288],[8.267219,46.71375],[8.267893,46.713659],[8.269622,46.714328],[8.271102,46.714175],[8.274043,46.714796],[8.276911,46.715812],[8.280306,46.716176],[8.280907,46.716422],[8.283352,46.717953],[8.287347,46.719495],[8.289867,46.720324],[8.291534,46.720326],[8.291847,46.720086],[8.292296,46.719355],[8.292992,46.719176],[8.294246,46.719408],[8.295314,46.720303],[8.295901,46.720514],[8.297701,46.720675],[8.298031,46.720557],[8.298525,46.720092],[8.299113,46.719998],[8.300122,46.720497],[8.301093,46.720752],[8.302342,46.721375],[8.304375,46.721769],[8.304902,46.72169],[8.307084,46.720899],[8.308721,46.721075],[8.310091,46.721538],[8.311387,46.721677],[8.312154,46.721238],[8.3138,46.7208],[8.3148,46.720863],[8.315819,46.720614],[8.318123,46.720667],[8.318331,46.720824],[8.318216,46.72105],[8.317074,46.721241],[8.315785,46.721858],[8.315011,46.722029],[8.314753,46.722276],[8.314802,46.722529],[8.315132,46.722733],[8.316172,46.722899],[8.316867,46.723377],[8.318282,46.723583],[8.320617,46.724251],[8.321277,46.72417],[8.323838,46.723302],[8.324257,46.723333],[8.324732,46.723867],[8.325264,46.724221],[8.327095,46.724602],[8.328525,46.725383],[8.330902,46.727254],[8.33153,46.728019],[8.332202,46.72928],[8.333271,46.730023],[8.338358,46.732154],[8.341435,46.734043],[8.342506,46.734911],[8.343296,46.735171],[8.345157,46.735418],[8.348099,46.736624],[8.35362,46.738123],[8.356718,46.738078],[8.359415,46.738618],[8.362297,46.73836],[8.36519,46.73866],[8.366651,46.739094],[8.371236,46.739176],[8.372361,46.739325],[8.375096,46.739068],[8.37607,46.739228],[8.376444,46.739178],[8.376712,46.738987],[8.376784,46.738699],[8.376044,46.73811],[8.376053,46.737986],[8.376232,46.737926],[8.377659,46.738853],[8.377979,46.7394],[8.377902,46.739879],[8.378094,46.739963],[8.378266,46.739847],[8.378319,46.739005],[8.37798,46.738473],[8.377485,46.738055],[8.377542,46.73777],[8.378536,46.737439],[8.380731,46.737469],[8.381652,46.736866],[8.382695,46.736551],[8.383394,46.736514],[8.383591,46.736328],[8.383554,46.736116],[8.38291,46.735764],[8.383195,46.735647],[8.383958,46.736182],[8.384024,46.73677],[8.383784,46.736902],[8.382462,46.737007],[8.382312,46.737197],[8.382352,46.73798],[8.380881,46.73871],[8.380651,46.738949],[8.380659,46.739389],[8.381273,46.740154],[8.38178,46.741293],[8.381406,46.74196],[8.380687,46.742375],[8.380828,46.74255],[8.381872,46.741835],[8.382231,46.741421],[8.381792,46.739927],[8.381927,46.739667],[8.383281,46.739359],[8.38432,46.738611],[8.385115,46.738609],[8.386955,46.738142],[8.388051,46.738155],[8.388501,46.737921],[8.388617,46.737652],[8.388504,46.73736],[8.387845,46.737082],[8.386646,46.736261],[8.386284,46.735674],[8.386511,46.735287],[8.387979,46.734602],[8.389264,46.734611],[8.39228,46.735348],[8.394008,46.736023],[8.395557,46.736853],[8.395643,46.73706],[8.395546,46.737325],[8.393935,46.738494],[8.393546,46.739095],[8.392876,46.739487],[8.392211,46.739681],[8.39133,46.739714],[8.390595,46.739529],[8.390408,46.739649],[8.390598,46.739788],[8.392634,46.739935],[8.393885,46.739512],[8.394818,46.738698],[8.397022,46.737743],[8.398192,46.73746],[8.39895,46.736976],[8.399093,46.736602],[8.39845,46.735486],[8.399803,46.734827],[8.401338,46.734966],[8.402484,46.735523],[8.404734,46.735808],[8.407391,46.735172],[8.40833,46.734831],[8.40935,46.734209],[8.409419,46.733848],[8.409067,46.733042],[8.410041,46.73172],[8.410526,46.731483],[8.419141,46.731131],[8.420333,46.731247],[8.422179,46.731678],[8.423854,46.73184],[8.426947,46.730924],[8.42727,46.730949],[8.427367,46.731131],[8.427241,46.731268],[8.426223,46.731587],[8.425079,46.73214],[8.423588,46.732426],[8.415106,46.732172],[8.414472,46.732251],[8.4128,46.732956],[8.413068,46.733093],[8.414579,46.732476],[8.415461,46.732354],[8.418615,46.732761],[8.419673,46.733335],[8.420908,46.733705],[8.421888,46.733793],[8.422844,46.734129],[8.423867,46.734142],[8.425674,46.734484],[8.426354,46.734371],[8.429127,46.733163],[8.433886,46.732718],[8.434916,46.732519],[8.436595,46.731774],[8.438559,46.730139],[8.439608,46.729601],[8.440638,46.728817],[8.441343,46.727922],[8.441548,46.726822],[8.441725,46.72669],[8.441924,46.726799],[8.442069,46.727968],[8.441804,46.729399],[8.441474,46.729729],[8.439844,46.730337],[8.43978,46.730519],[8.439997,46.730562],[8.440734,46.730207],[8.44253,46.72987],[8.444095,46.729389],[8.444688,46.729636],[8.445592,46.72961],[8.446198,46.729807],[8.446665,46.729714],[8.447054,46.729345],[8.451394,46.731416],[8.451819,46.731828],[8.452058,46.734085],[8.452359,46.73484],[8.451988,46.735514],[8.452151,46.736261],[8.451883,46.736979],[8.451947,46.737219],[8.452481,46.737682],[8.45284,46.738217],[8.453459,46.738536],[8.454303,46.73926],[8.455776,46.739874],[8.457339,46.73996],[8.457315,46.7398],[8.456466,46.739815],[8.455893,46.739672],[8.455105,46.739131],[8.454409,46.738852],[8.454073,46.738347],[8.45417,46.737575],[8.453821,46.736829],[8.454404,46.735113],[8.454925,46.734466],[8.454648,46.733801],[8.454291,46.733361],[8.454359,46.733234],[8.454522,46.733247],[8.455346,46.73468],[8.455171,46.735446],[8.455282,46.736258],[8.455147,46.736893],[8.455271,46.737215],[8.456221,46.738146],[8.458725,46.739082],[8.460397,46.73999],[8.46066,46.740209],[8.460919,46.740691],[8.461828,46.741116],[8.462806,46.741984],[8.463028,46.742547],[8.463447,46.743056],[8.463242,46.744645],[8.463528,46.745057],[8.463743,46.745715],[8.464511,46.746385],[8.464872,46.747241],[8.465282,46.747503],[8.465831,46.747488],[8.46668,46.746936],[8.467611,46.746763],[8.468901,46.747175],[8.470207,46.747059],[8.472267,46.747269],[8.473501,46.747589],[8.474706,46.747598],[8.478266,46.746494],[8.479813,46.746171],[8.483273,46.745746],[8.484111,46.745517],[8.487271,46.745049],[8.489931,46.744765],[8.492008,46.744056],[8.493,46.743917],[8.493875,46.743469],[8.494776,46.743359],[8.495719,46.743055],[8.497151,46.742078],[8.498301,46.74168],[8.499931,46.740863],[8.500989,46.740854],[8.501898,46.740651],[8.503129,46.740881],[8.505453,46.742247],[8.506242,46.742857],[8.507548,46.743476],[8.508462,46.74369],[8.508758,46.743517],[8.509384,46.742461],[8.511138,46.740875],[8.512337,46.740174],[8.513074,46.739509],[8.515892,46.738581],[8.517795,46.737404],[8.520901,46.736285],[8.52413,46.735749],[8.525581,46.735712],[8.528527,46.735096],[8.531818,46.733922],[8.532858,46.733979],[8.534391,46.733761],[8.536376,46.733233],[8.538852,46.7329],[8.54007,46.732223],[8.541816,46.731687],[8.5437,46.730784],[8.545827,46.729275],[8.546638,46.728975],[8.547874,46.727916],[8.5515,46.726394],[8.552715,46.725144],[8.554331,46.724752],[8.554917,46.724373],[8.55537,46.723805],[8.55615,46.723414],[8.557099,46.7232],[8.558996,46.723255],[8.560039,46.722538],[8.56078,46.722262],[8.561489,46.722226],[8.562844,46.722408],[8.564325,46.721951],[8.565257,46.722035],[8.565724,46.721729],[8.566503,46.721629],[8.56719,46.721312],[8.568133,46.721078],[8.569232,46.720431],[8.570798,46.720187],[8.572787,46.718791],[8.575355,46.717984],[8.577726,46.716745],[8.580235,46.7164],[8.580814,46.716211],[8.58382,46.71411],[8.586216,46.712885],[8.587929,46.712513],[8.588815,46.712139],[8.591445,46.711565],[8.592801,46.711541],[8.594545,46.711121],[8.594837,46.710984],[8.595242,46.710406],[8.595835,46.710096],[8.597043,46.710004],[8.597981,46.709761],[8.598806,46.709879],[8.599663,46.710398],[8.60039,46.710598],[8.601619,46.711243],[8.602184,46.711667],[8.602437,46.711646],[8.602419,46.711492],[8.599599,46.709436],[8.598147,46.709235],[8.597432,46.709297],[8.596635,46.709031],[8.596407,46.708802],[8.59662,46.708538],[8.597908,46.708443],[8.598354,46.708223],[8.598357,46.708042],[8.597981,46.707615],[8.597893,46.70687],[8.598174,46.706508],[8.599241,46.705825],[8.598767,46.705006],[8.598711,46.703816],[8.598562,46.703346],[8.597655,46.702316],[8.596837,46.701069],[8.596285,46.699696],[8.596173,46.698934],[8.596618,46.696702],[8.596595,46.696111],[8.595812,46.69404],[8.594884,46.692883],[8.594844,46.692498],[8.59511,46.69178],[8.595095,46.691354],[8.594481,46.690153],[8.594315,46.689012],[8.593583,46.687883],[8.593605,46.687311],[8.594527,46.68541],[8.594525,46.684904],[8.594268,46.684254],[8.594556,46.683578],[8.594413,46.683236],[8.59329,46.682489],[8.593837,46.681668],[8.593949,46.680524],[8.593829,46.679375],[8.593399,46.677816],[8.593604,46.675941],[8.593616,46.674433],[8.592686,46.671229],[8.592171,46.671023],[8.592358,46.670929],[8.592515,46.670478],[8.592058,46.667617],[8.592462,46.666675],[8.592468,46.66611],[8.592163,46.665631],[8.5903,46.663799],[8.58943,46.662582],[8.585958,46.660777],[8.585919,46.659954],[8.584612,46.658298],[8.584873,46.658302],[8.585649,46.659082],[8.585862,46.659129],[8.585933,46.659017],[8.585314,46.658475],[8.584558,46.657315],[8.584117,46.656047],[8.583853,46.655668],[8.583583,46.65554],[8.583192,46.655563],[8.582583,46.656033],[8.582258,46.656526],[8.582087,46.656564],[8.58199,46.656435],[8.583703,46.65448],[8.584701,46.653053],[8.584788,46.65263],[8.584552,46.651975],[8.585395,46.65117],[8.58572,46.650212],[8.586377,46.649827],[8.587571,46.64971],[8.58763,46.649486],[8.587407,46.649349],[8.586592,46.649507],[8.586653,46.649346],[8.587052,46.649141],[8.587611,46.649099],[8.58852,46.649249],[8.588704,46.649164],[8.588585,46.649041],[8.587498,46.648791],[8.587088,46.648834],[8.586512,46.649159],[8.586353,46.64909],[8.58645,46.648921],[8.587226,46.648571],[8.589561,46.648643],[8.590252,46.648401],[8.5908,46.647991],[8.590822,46.647646],[8.590253,46.645945],[8.590434,46.645634],[8.591307,46.644954],[8.592027,46.642074],[8.592085,46.64148],[8.591882,46.641015],[8.592077,46.640911],[8.59265,46.640941],[8.592923,46.640231],[8.594144,46.63912],[8.594565,46.638244],[8.595003,46.636803],[8.596306,46.634752],[8.596641,46.63494],[8.596705,46.635386],[8.596896,46.635527],[8.597141,46.63538],[8.596888,46.634936],[8.596956,46.634647],[8.597286,46.63444],[8.597836,46.634376],[8.598876,46.634637],[8.599958,46.635568],[8.600454,46.635592],[8.601561,46.635316],[8.602219,46.635571],[8.602306,46.635983],[8.601935,46.636352],[8.6001,46.636689],[8.599691,46.636873],[8.59957,46.637072],[8.599626,46.637294],[8.60014,46.637528],[8.601465,46.63722],[8.603993,46.636243],[8.605398,46.636032],[8.606242,46.635479],[8.606579,46.635405],[8.606886,46.635564],[8.606809,46.635867],[8.604685,46.636607],[8.60393,46.637002],[8.601521,46.638628],[8.601063,46.639197],[8.601073,46.6395],[8.601569,46.639603],[8.602459,46.638488],[8.60483,46.637392],[8.605737,46.637371],[8.606817,46.6378],[8.607508,46.637906],[8.608159,46.63784],[8.609617,46.637413],[8.609766,46.637577],[8.60963,46.63774],[8.608705,46.637956],[8.607691,46.638522],[8.604173,46.639227],[8.60303,46.63965],[8.602935,46.639872],[8.603311,46.639979],[8.60438,46.639731],[8.605602,46.63963],[8.610383,46.639726],[8.611393,46.639982],[8.611577,46.640113],[8.611599,46.640318],[8.611359,46.640493],[8.610304,46.640502],[8.609168,46.64085],[8.607825,46.64068],[8.607615,46.640743],[8.607558,46.640898],[8.609846,46.641634],[8.611867,46.641709],[8.617288,46.642224],[8.620339,46.642934],[8.625294,46.645192],[8.626806,46.646518],[8.631679,46.649985],[8.634037,46.652108],[8.635277,46.652906],[8.636925,46.65369],[8.637918,46.654814],[8.638655,46.655271],[8.641811,46.656053],[8.643906,46.656826],[8.64631,46.657178],[8.648072,46.657743],[8.650346,46.65783],[8.654928,46.659436],[8.664662,46.661729],[8.665735,46.6618],[8.668535,46.661592],[8.669419,46.661342],[8.670244,46.660916],[8.670973,46.660345],[8.671338,46.659829],[8.671129,46.658829],[8.67137,46.65891],[8.671522,46.659152],[8.67137,46.65891],[8.671129,46.658829],[8.671273,46.658621],[8.67331,46.65829],[8.6741,46.657194],[8.676388,46.65636],[8.677083,46.655866],[8.677111,46.655547],[8.676571,46.654911],[8.676662,46.654717],[8.677491,46.654561],[8.678133,46.654279],[8.678745,46.653919],[8.679375,46.653336],[8.679209,46.65329],[8.678154,46.653835],[8.677996,46.653805],[8.678028,46.653696],[8.679945,46.65274],[8.681714,46.652242],[8.681595,46.652168],[8.680815,46.652315],[8.679512,46.652182],[8.679432,46.652062],[8.681078,46.6519],[8.684109,46.65111],[8.683016,46.650902],[8.681147,46.651044],[8.681048,46.650915],[8.683815,46.650176],[8.685679,46.65022],[8.683529,46.649849],[8.683436,46.649772],[8.683508,46.64967],[8.684268,46.649814],[8.6861,46.649768],[8.687517,46.649977],[8.687534,46.649849],[8.686514,46.649616],[8.686163,46.649362],[8.686376,46.648754],[8.686665,46.648589],[8.68697,46.648623],[8.6879,46.649205],[8.691363,46.649029],[8.693106,46.649329],[8.693243,46.649456],[8.693132,46.649911],[8.693262,46.650122],[8.695733,46.650866],[8.69594,46.651093],[8.696004,46.651653],[8.696249,46.652018],[8.698446,46.653466],[8.699726,46.653832],[8.700902,46.653843],[8.70138,46.654065],[8.701837,46.654531],[8.702267,46.654669],[8.706363,46.654893],[8.708796,46.655238],[8.709393,46.655621],[8.710108,46.655868],[8.71123,46.656712],[8.71288,46.657352],[8.714584,46.658495],[8.717099,46.659766],[8.72011,46.661015],[8.723112,46.662015],[8.727786,46.662596],[8.733432,46.663859],[8.736935,46.664304],[8.739262,46.664458],[8.742731,46.665793],[8.74548,46.66725],[8.745682,46.667457],[8.745702,46.667786],[8.74598,46.668026],[8.745738,46.668373],[8.744542,46.66858],[8.744062,46.669032],[8.743932,46.67005],[8.744905,46.67212],[8.746507,46.672491],[8.747543,46.67292],[8.750673,46.675483],[8.751164,46.675742],[8.752526,46.676088],[8.754612,46.675799],[8.756973,46.676061],[8.757835,46.67628],[8.759806,46.677166],[8.760485,46.677632],[8.761307,46.678521],[8.761873,46.679407],[8.761848,46.680249],[8.762161,46.680498],[8.76272,46.68047],[8.763934,46.679812],[8.766543,46.679287],[8.768316,46.679071],[8.770339,46.679017],[8.7729,46.679248],[8.775066,46.680158],[8.77628,46.680884],[8.777981,46.681472],[8.780308,46.681537],[8.782213,46.680834],[8.783032,46.680743],[8.783478,46.681149],[8.783662,46.681934],[8.784062,46.682105],[8.784522,46.681958],[8.785587,46.680893],[8.78624,46.680685],[8.788714,46.681304],[8.79079,46.681059],[8.792668,46.681182],[8.795044,46.680682],[8.796698,46.680912],[8.798107,46.680942],[8.80295,46.680633],[8.804458,46.680679],[8.810419,46.681417],[8.813701,46.681378],[8.81807,46.681015],[8.820191,46.681139],[8.823123,46.681119],[8.825557,46.68136],[8.829941,46.682202],[8.831172,46.682759],[8.832332,46.683734],[8.83503,46.685394],[8.835457,46.685906],[8.835468,46.686191],[8.835298,46.686503],[8.834611,46.686909],[8.833915,46.68709],[8.832357,46.687157],[8.831715,46.687325],[8.831404,46.687677],[8.831522,46.688056],[8.831868,46.688268],[8.834082,46.688977],[8.835439,46.689623],[8.836736,46.690514],[8.838188,46.691798],[8.838571,46.692344],[8.838668,46.693002],[8.838506,46.69353],[8.837906,46.694426],[8.838034,46.694762],[8.841612,46.695189],[8.842204,46.695143],[8.842493,46.695261],[8.842538,46.696032],[8.84477,46.698654],[8.844366,46.700559],[8.844429,46.700804],[8.84477,46.700976],[8.846435,46.701134],[8.848379,46.702068],[8.848742,46.702398],[8.849949,46.704214],[8.850384,46.704494],[8.853902,46.705548],[8.85421,46.705578],[8.854572,46.705413],[8.855413,46.705692],[8.856451,46.70632],[8.859547,46.707592],[8.860467,46.707759],[8.863686,46.70796],[8.864589,46.708196],[8.867444,46.709367],[8.868646,46.710358],[8.870085,46.710854],[8.871862,46.712232],[8.873807,46.713025],[8.875448,46.713255],[8.87865,46.714455],[8.880568,46.71497],[8.881927,46.715182],[8.882673,46.715433],[8.883788,46.715535],[8.885549,46.716094],[8.887401,46.71626],[8.889089,46.71662],[8.895366,46.719851],[8.896176,46.720899],[8.89724,46.721539],[8.898275,46.721704],[8.899274,46.721646],[8.903528,46.721937],[8.908757,46.722805],[8.910195,46.723279],[8.911878,46.723525],[8.91507,46.724605],[8.923263,46.725973],[8.924919,46.726133],[8.928354,46.726119],[8.931525,46.726334],[8.936057,46.727101],[8.938111,46.727799],[8.939196,46.727935],[8.941269,46.72892],[8.94309,46.729473],[8.946895,46.730033],[8.950892,46.731151],[8.951838,46.731736],[8.952347,46.732563],[8.952769,46.732965],[8.954492,46.73366],[8.955903,46.73442],[8.957685,46.734605],[8.960505,46.733846],[8.961522,46.73379],[8.962533,46.73396],[8.963947,46.733657],[8.967808,46.734583],[8.969678,46.735413],[8.971756,46.737059],[8.972204,46.737603],[8.972559,46.738529],[8.972871,46.738851],[8.97655,46.740656],[8.978435,46.74189],[8.979158,46.742161],[8.982159,46.742608],[8.983947,46.742364],[8.985176,46.742488],[8.986885,46.7424],[8.989319,46.74299],[8.997846,46.743434],[8.998679,46.743654],[9.001594,46.74491],[9.002355,46.745061],[9.005907,46.744788],[9.008284,46.743604],[9.00909,46.74337],[9.012862,46.74303],[9.016401,46.74252],[9.017283,46.742556],[9.020112,46.743115],[9.02095,46.743501],[9.021569,46.744425],[9.022186,46.744732],[9.022887,46.744727],[9.024545,46.744227],[9.027022,46.744626],[9.028494,46.745124],[9.03006,46.745464],[9.032008,46.746148],[9.034278,46.747319],[9.035437,46.748123],[9.03658,46.748578],[9.039277,46.748931],[9.043414,46.749897],[9.046156,46.750396],[9.055768,46.752695],[9.057217,46.753488],[9.058928,46.755333],[9.061313,46.75664],[9.062468,46.757058],[9.06363,46.75723],[9.06458,46.757218],[9.066851,46.756718],[9.067768,46.756658],[9.072883,46.757965],[9.079834,46.758146],[9.083038,46.757743],[9.087999,46.758619],[9.090932,46.760106],[9.093139,46.761036],[9.095278,46.761761],[9.097615,46.763223],[9.100542,46.764236],[9.102372,46.765302],[9.105036,46.765802],[9.107757,46.767213],[9.111087,46.768089],[9.11674,46.771024],[9.119896,46.771834],[9.123549,46.772984],[9.127342,46.774506],[9.129235,46.774837],[9.132854,46.775015],[9.136481,46.775941],[9.13888,46.776731],[9.140183,46.776738],[9.143485,46.775892],[9.148705,46.775534],[9.149949,46.77569],[9.152642,46.776828],[9.154339,46.777121],[9.156791,46.777039],[9.159038,46.77617],[9.16015,46.77604],[9.163242,46.776498],[9.166964,46.776523],[9.169978,46.776883],[9.170841,46.776876],[9.171963,46.776545],[9.174626,46.775131],[9.177698,46.774749],[9.181233,46.773459],[9.182874,46.773237],[9.191927,46.774035],[9.193396,46.773833],[9.193622,46.773686],[9.193799,46.773828],[9.195225,46.774197],[9.202564,46.775408],[9.208199,46.776802],[9.212664,46.777488],[9.215332,46.778703],[9.218031,46.77946],[9.219167,46.780175],[9.221352,46.783041],[9.221862,46.783459],[9.223586,46.784423],[9.224836,46.785428],[9.22501,46.78579],[9.224782,46.786311],[9.224893,46.786645],[9.225895,46.788073],[9.226939,46.788817],[9.228333,46.789013],[9.229382,46.789491],[9.229988,46.789625],[9.232159,46.78961],[9.235703,46.790066],[9.239843,46.790149],[9.24079,46.790623],[9.242108,46.790883],[9.244131,46.792055],[9.246663,46.792823],[9.247415,46.793345],[9.248669,46.793452],[9.249671,46.794025],[9.251093,46.794024],[9.251366,46.794224],[9.252089,46.795559],[9.252386,46.795854],[9.252851,46.796024],[9.254047,46.796133],[9.256511,46.79724],[9.256801,46.79759],[9.256881,46.79801],[9.256266,46.799272],[9.256392,46.800086],[9.256181,46.802306],[9.257361,46.803639],[9.259197,46.807437],[9.260463,46.808423],[9.261339,46.809709],[9.262181,46.81145],[9.262517,46.811889],[9.263301,46.8126],[9.26355,46.812621],[9.263513,46.812784],[9.26606,46.815154],[9.266897,46.816719],[9.266779,46.817091],[9.267082,46.818152],[9.268505,46.820396],[9.271381,46.822645],[9.272728,46.824263],[9.273687,46.824768],[9.275173,46.825148],[9.276159,46.825555],[9.277093,46.82621],[9.277704,46.826958],[9.278089,46.827958],[9.279147,46.834637],[9.279418,46.835532],[9.279906,46.836383],[9.280597,46.837165],[9.281471,46.837856],[9.28307,46.838678],[9.28492,46.839199],[9.287902,46.839577],[9.292123,46.839572],[9.296246,46.838951],[9.299158,46.838097],[9.30438,46.835837],[9.30694,46.835336],[9.30927,46.835399],[9.314937,46.836332],[9.317495,46.836278],[9.318326,46.836083],[9.320726,46.8351],[9.323818,46.834873],[9.325725,46.834165],[9.330178,46.834405],[9.333822,46.834032],[9.33797,46.833949],[9.34097,46.834142],[9.342476,46.83404],[9.343806,46.833628],[9.346544,46.832308],[9.348163,46.831899],[9.359445,46.830859],[9.362717,46.830282],[9.363655,46.829979],[9.365877,46.828645],[9.36776,46.827778],[9.369857,46.827307],[9.371502,46.8274],[9.373819,46.828297],[9.3756,46.828215],[9.377888,46.828518],[9.379078,46.828128],[9.380347,46.828128],[9.381483,46.827512],[9.382914,46.826991],[9.385625,46.826788],[9.386764,46.826901],[9.389173,46.827414],[9.395313,46.827612],[9.399653,46.828472],[9.402912,46.828069],[9.405014,46.828194],[9.409496,46.82785],[9.410666,46.827966],[9.413648,46.828623],[9.416568,46.828333],[9.416906,46.829016],[9.417224,46.829138],[9.417514,46.829055],[9.417582,46.82888],[9.417485,46.828711],[9.415838,46.827364],[9.414548,46.825598],[9.413732,46.824824],[9.412662,46.82424],[9.409155,46.823049],[9.408089,46.82246],[9.407127,46.821705],[9.406409,46.820862],[9.405865,46.8198],[9.405667,46.818729],[9.405767,46.817722],[9.406406,46.816092],[9.407549,46.814257],[9.414058,46.806232],[9.415942,46.803549],[9.417263,46.800866],[9.418186,46.797724],[9.418493,46.794654],[9.41825,46.791858],[9.417793,46.790155],[9.415735,46.784954],[9.415451,46.783555],[9.415467,46.782053],[9.415704,46.780963],[9.416154,46.779771],[9.419003,46.775479],[9.420399,46.772764],[9.420905,46.771294],[9.421343,46.769414],[9.421642,46.767571],[9.42157,46.767333],[9.42183,46.764696],[9.421607,46.764446],[9.417958,46.763663],[9.417148,46.764643],[9.417164,46.765075],[9.417709,46.765976],[9.418755,46.766803],[9.419096,46.767218],[9.41927,46.767748],[9.41942,46.769109],[9.419497,46.768902],[9.419096,46.767218],[9.418755,46.766803],[9.417709,46.765976],[9.417164,46.765075],[9.417148,46.764643],[9.417958,46.763663],[9.421607,46.764446],[9.42196,46.764272],[9.422434,46.763452],[9.424446,46.759151],[9.434304,46.740134],[9.435838,46.737763],[9.438601,46.734614],[9.439282,46.733583],[9.439846,46.732425],[9.440292,46.730987],[9.440473,46.729501],[9.439934,46.724642],[9.43991,46.723292],[9.440195,46.721546],[9.44089,46.719721],[9.441542,46.718603],[9.442576,46.717257],[9.447205,46.71204],[9.447873,46.711003],[9.448528,46.709465],[9.448874,46.707313],[9.448667,46.70541],[9.446984,46.699966],[9.445731,46.697305],[9.445777,46.696999],[9.451033,46.695581],[9.453092,46.69547],[9.454442,46.695614],[9.455746,46.695933],[9.457226,46.696568],[9.459977,46.69857],[9.461377,46.699317],[9.462544,46.699679],[9.463663,46.699863],[9.465583,46.699865],[9.467492,46.699456],[9.470569,46.698268],[9.47115,46.697891],[9.471763,46.696821],[9.472051,46.696645],[9.473938,46.696324],[9.475797,46.696521],[9.477879,46.696234],[9.479498,46.695382],[9.47967,46.694973],[9.479707,46.694395],[9.479877,46.694134],[9.480893,46.693857],[9.481704,46.693339],[9.482954,46.693361],[9.484322,46.692834],[9.485113,46.692662],[9.486693,46.692966],[9.489974,46.692642],[9.492686,46.692897],[9.493173,46.692667],[9.494584,46.691343],[9.495324,46.691136],[9.496732,46.691077],[9.497739,46.690644],[9.497996,46.690407],[9.498559,46.68938],[9.500083,46.688039],[9.501155,46.687413],[9.502479,46.687145],[9.504752,46.687141],[9.505675,46.686744],[9.506502,46.686066],[9.507118,46.685865],[9.507734,46.685865],[9.509128,46.68625],[9.510065,46.686156],[9.512323,46.68478],[9.513471,46.68427],[9.522222,46.681628],[9.523369,46.681404],[9.525686,46.681242],[9.52641,46.681042],[9.526889,46.680751],[9.528212,46.67953],[9.52878,46.679244],[9.529553,46.679206],[9.531278,46.679729],[9.532344,46.679832],[9.534558,46.679432],[9.541366,46.678672],[9.542272,46.678236],[9.543433,46.676918],[9.544411,46.676164],[9.54914,46.673723],[9.551023,46.673139],[9.553081,46.673038],[9.556605,46.673754],[9.55776,46.673854],[9.559203,46.67373],[9.560486,46.673366],[9.563764,46.67149],[9.565797,46.669274],[9.56914,46.66771],[9.570467,46.66686],[9.571239,46.665403],[9.571332,46.66495],[9.571209,46.664447],[9.571335,46.66426],[9.573893,46.663146],[9.575838,46.66264],[9.576535,46.662683],[9.576689,46.662274],[9.576203,46.66202],[9.575687,46.661932],[9.576392,46.661376],[9.576122,46.661143],[9.575949,46.66122],[9.576212,46.661514],[9.575687,46.661932],[9.576536,46.662159],[9.576718,46.662334],[9.576535,46.662683],[9.576853,46.662717],[9.578721,46.661951],[9.579226,46.661518],[9.579575,46.661739],[9.581046,46.66202],[9.582071,46.662437],[9.583703,46.662429],[9.585276,46.662075],[9.586142,46.661533],[9.58768,46.661001],[9.58913,46.660983],[9.5909,46.660732],[9.594766,46.66063],[9.59666,46.660798],[9.598665,46.660549],[9.601712,46.661195],[9.602327,46.661435],[9.603899,46.662524],[9.605058,46.664184],[9.605481,46.664445],[9.606144,46.664549],[9.607663,46.664432],[9.611478,46.664868],[9.612121,46.665104],[9.613045,46.666113],[9.614236,46.666547],[9.615412,46.666605],[9.615897,46.66692],[9.617118,46.667302],[9.622012,46.667371],[9.626874,46.666553],[9.63038,46.666355],[9.631025,46.66647],[9.632161,46.666952],[9.635182,46.667572],[9.637302,46.667863],[9.639627,46.668453],[9.641865,46.668441],[9.644021,46.66809],[9.647756,46.668308],[9.648085,46.668482],[9.648627,46.669167],[9.649694,46.669683],[9.653414,46.670267],[9.656103,46.67122],[9.658484,46.671288],[9.659834,46.671789],[9.661535,46.672131],[9.663887,46.673206],[9.665089,46.673986],[9.666314,46.674467],[9.668151,46.674792],[9.669957,46.675372],[9.670766,46.675352],[9.67145,46.674997],[9.671672,46.674518],[9.671448,46.673547],[9.671665,46.673254],[9.672106,46.673061],[9.675404,46.673274],[9.678503,46.672768],[9.682665,46.672551],[9.685516,46.672135],[9.690447,46.669954],[9.690777,46.669568],[9.691076,46.668736],[9.691377,46.668407],[9.693135,46.66768],[9.69442,46.666709],[9.695212,46.664695],[9.696029,46.663727],[9.697493,46.662548],[9.698468,46.662106],[9.701187,46.659581],[9.702281,46.659057],[9.703881,46.658611],[9.705695,46.657867],[9.706983,46.657465],[9.707871,46.657341],[9.709995,46.656536],[9.712813,46.655894],[9.713475,46.655625],[9.715026,46.654759],[9.715531,46.653503],[9.71621,46.652913],[9.717763,46.651845],[9.719041,46.65157],[9.71961,46.651278],[9.720074,46.650276],[9.721465,46.648918],[9.721803,46.648162],[9.722036,46.647937],[9.723693,46.647349],[9.724991,46.646406],[9.727725,46.645613],[9.728311,46.645176],[9.729463,46.64479],[9.729933,46.644268],[9.730127,46.644244],[9.73003,46.644677],[9.729373,46.645177],[9.729553,46.645289],[9.730412,46.64479],[9.730865,46.644294],[9.733632,46.642683],[9.7339,46.642395],[9.733969,46.64211],[9.733497,46.641203],[9.733621,46.640462],[9.733084,46.640076],[9.732488,46.639068],[9.73326,46.637998],[9.733691,46.637733],[9.735003,46.637286],[9.737378,46.636901],[9.738613,46.636343],[9.739383,46.635883],[9.740055,46.635278],[9.7415,46.634537],[9.743594,46.63322],[9.744429,46.631461],[9.745366,46.630573],[9.746346,46.630121],[9.746122,46.62941],[9.745435,46.629004],[9.746378,46.628304],[9.748185,46.627313],[9.748762,46.626747],[9.748815,46.626426],[9.749578,46.625761],[9.750699,46.623799],[9.750947,46.621875],[9.752128,46.620619],[9.753191,46.618924],[9.754267,46.618138],[9.755129,46.618078],[9.755704,46.617869],[9.756786,46.616779],[9.75796,46.616213],[9.758222,46.615943],[9.758323,46.615602],[9.758198,46.615147],[9.758698,46.613755],[9.758628,46.613042],[9.758314,46.612508],[9.758141,46.61168],[9.758297,46.610902],[9.757339,46.609059],[9.756876,46.608452],[9.756666,46.607704],[9.756403,46.607302],[9.756366,46.606428],[9.755435,46.605378],[9.755428,46.605099],[9.755901,46.603871],[9.755798,46.603384],[9.755434,46.603007],[9.754771,46.602865],[9.754551,46.602526],[9.754874,46.602108],[9.75562,46.601706],[9.756174,46.600858],[9.756388,46.600199],[9.756319,46.599438],[9.756475,46.598929],[9.756191,46.598406],[9.756235,46.598142],[9.756515,46.597969],[9.757265,46.597963],[9.757707,46.59782],[9.757857,46.597578],[9.7578,46.597012],[9.75813,46.596577],[9.758241,46.596074],[9.759757,46.59542],[9.760004,46.595124],[9.760064,46.594829],[9.759919,46.594482],[9.759488,46.594185],[9.760357,46.594165],[9.760754,46.594643],[9.760984,46.595307],[9.761093,46.595341],[9.761585,46.593229],[9.762098,46.592629],[9.762642,46.592761],[9.764583,46.592565],[9.765183,46.591924],[9.76607,46.591524],[9.767425,46.591725],[9.769333,46.591346],[9.770774,46.591591],[9.77221,46.591625],[9.774541,46.590667],[9.775693,46.589516],[9.77688,46.589447],[9.777542,46.589223],[9.778403,46.588688],[9.778789,46.588131],[9.779586,46.5876],[9.780086,46.586515],[9.780483,46.586177],[9.78096,46.58604],[9.782278,46.58603],[9.782912,46.585862],[9.783243,46.585551],[9.783796,46.585362],[9.784967,46.585213],[9.784856,46.585102],[9.783612,46.584915],[9.782164,46.585246],[9.780922,46.585289],[9.778832,46.584952],[9.779004,46.584728],[9.780132,46.584553],[9.78193,46.583415],[9.783048,46.58291],[9.785858,46.582369],[9.788235,46.582788],[9.789389,46.582847],[9.790326,46.582761],[9.793759,46.582845],[9.796138,46.58249],[9.797898,46.582673],[9.79866,46.582439],[9.799949,46.58165],[9.801809,46.579795],[9.801867,46.579483],[9.801711,46.579235],[9.800811,46.578783],[9.800582,46.578188],[9.800597,46.577865],[9.800912,46.577116],[9.801272,46.576732],[9.801383,46.576324],[9.8033,46.575485],[9.803737,46.575449],[9.804667,46.575809],[9.805209,46.576467],[9.806552,46.5765],[9.808271,46.576012],[9.808547,46.576158],[9.808255,46.576584],[9.80853,46.576703],[9.810507,46.576126],[9.811531,46.576344],[9.812787,46.57676],[9.813225,46.577524],[9.81405,46.577827],[9.814153,46.578298],[9.814445,46.578686],[9.817716,46.579409],[9.818068,46.579416],[9.819196,46.579085],[9.820259,46.579342],[9.821457,46.579036],[9.827485,46.578574],[9.828081,46.57862],[9.828874,46.57893],[9.829552,46.579629],[9.833708,46.580209],[9.834283,46.580401],[9.834958,46.580988],[9.835791,46.581414],[9.837432,46.581882],[9.837798,46.582486],[9.838087,46.582643],[9.841156,46.583307],[9.842598,46.583408],[9.846933,46.584184],[9.848868,46.584803],[9.852469,46.585512],[9.854356,46.585743],[9.856593,46.586752],[9.858105,46.587235],[9.858653,46.587147],[9.859348,46.586672],[9.860004,46.586621],[9.866888,46.588002],[9.86917,46.588024],[9.872561,46.588715],[9.87544,46.588811],[9.876637,46.588415],[9.880402,46.588523],[9.88346,46.588207],[9.883919,46.588343],[9.884367,46.588849],[9.884829,46.58905],[9.885323,46.589041],[9.886141,46.588771],[9.888683,46.589068],[9.891397,46.588753],[9.892209,46.588434],[9.896114,46.58771],[9.897729,46.58717],[9.898417,46.587065],[9.897688,46.586902],[9.898417,46.587065],[9.897729,46.58717],[9.896114,46.58771],[9.892209,46.588434],[9.891397,46.588753],[9.888683,46.589068],[9.886141,46.588771],[9.885323,46.589041],[9.884829,46.58905],[9.884367,46.588849],[9.883919,46.588343],[9.88346,46.588207],[9.880402,46.588523],[9.876637,46.588415],[9.87544,46.588811],[9.872561,46.588715],[9.86917,46.588024],[9.866888,46.588002],[9.860004,46.586621],[9.859348,46.586672],[9.858653,46.587147],[9.858105,46.587235],[9.856593,46.586752],[9.854255,46.58572],[9.852469,46.585512],[9.848868,46.584803],[9.846933,46.584184],[9.842598,46.583408],[9.841156,46.583307],[9.837918,46.582575],[9.837531,46.582708],[9.837918,46.582575],[9.837481,46.581912],[9.835791,46.581414],[9.834958,46.580988],[9.834283,46.580401],[9.833708,46.580209],[9.829552,46.579629],[9.828874,46.57893],[9.828081,46.57862],[9.827485,46.578574],[9.821457,46.579036],[9.820259,46.579342],[9.819196,46.579085],[9.818068,46.579416],[9.817716,46.579409],[9.814445,46.578686],[9.814153,46.578298],[9.81405,46.577827],[9.813225,46.577524],[9.812787,46.57676],[9.811588,46.57636],[9.810507,46.576126],[9.80853,46.576703],[9.808255,46.576584],[9.808547,46.576158],[9.808271,46.576012],[9.806552,46.5765],[9.805209,46.576467],[9.804786,46.575882],[9.803623,46.575433],[9.802749,46.575663],[9.801345,46.576365],[9.801272,46.576732],[9.800912,46.577116],[9.800644,46.577738],[9.800582,46.578188],[9.800848,46.578838],[9.801711,46.579235],[9.80186,46.579699],[9.799949,46.58165],[9.798533,46.582488],[9.797842,46.582675],[9.795922,46.582495],[9.793759,46.582845],[9.790326,46.582761],[9.789389,46.582847],[9.788235,46.582788],[9.785858,46.582369],[9.783001,46.582926],[9.78193,46.583415],[9.780132,46.584553],[9.779004,46.584728],[9.778832,46.584952],[9.780922,46.585289],[9.782164,46.585246],[9.783612,46.584915],[9.784856,46.585102],[9.784967,46.585213],[9.783796,46.585362],[9.783243,46.585551],[9.782912,46.585862],[9.782278,46.58603],[9.78096,46.58604],[9.780483,46.586177],[9.780086,46.586515],[9.779586,46.5876],[9.778789,46.588131],[9.778403,46.588688],[9.777542,46.589223],[9.77688,46.589447],[9.775693,46.589516],[9.774541,46.590667],[9.77221,46.591625],[9.770774,46.591591],[9.769333,46.591346],[9.767425,46.591725],[9.76607,46.591524],[9.765183,46.591924],[9.764583,46.592565],[9.762642,46.592761],[9.762098,46.592629],[9.761585,46.593229],[9.761093,46.595341],[9.760984,46.595307],[9.760754,46.594643],[9.760357,46.594165],[9.759475,46.594197],[9.759919,46.594482],[9.760064,46.594829],[9.760004,46.595124],[9.759757,46.59542],[9.758241,46.596074],[9.75813,46.596577],[9.7578,46.597012],[9.757857,46.597578],[9.757707,46.59782],[9.757265,46.597963],[9.756515,46.597969],[9.756235,46.598142],[9.756191,46.598406],[9.756475,46.598929],[9.756319,46.599438],[9.756388,46.600199],[9.756174,46.600858],[9.75562,46.601706],[9.754874,46.602108],[9.754551,46.602526],[9.754771,46.602865],[9.755434,46.603007],[9.755798,46.603384],[9.755901,46.603871],[9.755428,46.605099],[9.755435,46.605378],[9.756366,46.606428],[9.756403,46.607302],[9.756666,46.607704],[9.756876,46.608452],[9.757339,46.609059],[9.758297,46.610902],[9.758141,46.61168],[9.758314,46.612508],[9.758628,46.613042],[9.758698,46.613755],[9.758198,46.615147],[9.758323,46.615602],[9.758222,46.615943],[9.75796,46.616213],[9.756786,46.616779],[9.755704,46.617869],[9.755129,46.618078],[9.754267,46.618138],[9.753191,46.618924],[9.752128,46.620619],[9.750947,46.621875],[9.750732,46.623705],[9.749617,46.625707],[9.748815,46.626426],[9.748762,46.626747],[9.748185,46.627313],[9.746378,46.628304],[9.745435,46.629004],[9.746122,46.62941],[9.746346,46.630121],[9.745366,46.630573],[9.744429,46.631461],[9.743782,46.632963],[9.743521,46.633293],[9.740055,46.635278],[9.739383,46.635883],[9.738613,46.636343],[9.737378,46.636901],[9.735003,46.637286],[9.733691,46.637733],[9.73326,46.637998],[9.732488,46.639068],[9.733084,46.640076],[9.733621,46.640462],[9.733497,46.641203],[9.733969,46.64211],[9.733718,46.642621],[9.730865,46.644294],[9.730412,46.64479],[9.729553,46.645289],[9.729373,46.645177],[9.73003,46.644677],[9.730127,46.644244],[9.729933,46.644268],[9.729463,46.64479],[9.728311,46.645176],[9.727725,46.645613],[9.724991,46.646406],[9.723693,46.647349],[9.722036,46.647937],[9.721803,46.648162],[9.721465,46.648918],[9.720074,46.650276],[9.71961,46.651278],[9.719041,46.65157],[9.717763,46.651845],[9.71621,46.652913],[9.715531,46.653503],[9.715026,46.654759],[9.713475,46.655625],[9.712813,46.655894],[9.709995,46.656536],[9.707871,46.657341],[9.706983,46.657465],[9.705695,46.657867],[9.703881,46.658611],[9.702281,46.659057],[9.701187,46.659581],[9.698468,46.662106],[9.697493,46.662548],[9.696029,46.663727],[9.695212,46.664695],[9.69442,46.666709],[9.693135,46.66768],[9.691377,46.668407],[9.691076,46.668736],[9.690777,46.669568],[9.690447,46.669954],[9.685036,46.67227],[9.682104,46.672599],[9.678503,46.672768],[9.67528,46.673282],[9.672106,46.673061],[9.671665,46.673254],[9.671448,46.673547],[9.671672,46.674518],[9.67145,46.674997],[9.670766,46.675352],[9.669957,46.675372],[9.668151,46.674792],[9.666314,46.674467],[9.665089,46.673986],[9.663887,46.673206],[9.661535,46.672131],[9.659834,46.671789],[9.658484,46.671288],[9.656103,46.67122],[9.653414,46.670267],[9.649694,46.669683],[9.648627,46.669167],[9.648085,46.668482],[9.647756,46.668308],[9.644021,46.66809],[9.641865,46.668441],[9.639627,46.668453],[9.637302,46.667863],[9.635182,46.667572],[9.632161,46.666952],[9.631025,46.66647],[9.63038,46.666355],[9.626874,46.666553],[9.622012,46.667371],[9.617118,46.667302],[9.615897,46.66692],[9.615412,46.666605],[9.614236,46.666547],[9.613045,46.666113],[9.612121,46.665104],[9.611478,46.664868],[9.607663,46.664432],[9.606144,46.664549],[9.605481,46.664445],[9.605058,46.664184],[9.603899,46.662524],[9.602327,46.661435],[9.601712,46.661195],[9.598527,46.660537],[9.59666,46.660798],[9.594766,46.66063],[9.5909,46.660732],[9.58913,46.660983],[9.58768,46.661001],[9.586142,46.661533],[9.585276,46.662075],[9.583703,46.662429],[9.582187,46.662458],[9.580929,46.661989],[9.57922,46.661737],[9.577036,46.662695],[9.575838,46.66264],[9.573893,46.663146],[9.571479,46.664183],[9.571209,46.664447],[9.57131,46.664803],[9.575081,46.664023],[9.576988,46.663984],[9.578102,46.663515],[9.578939,46.663524],[9.579381,46.663247],[9.579606,46.663376],[9.579596,46.663608],[9.578804,46.664012],[9.579899,46.664339],[9.580699,46.664184],[9.581882,46.664478],[9.582699,46.664417],[9.584783,46.664551],[9.586245,46.664271],[9.587181,46.664669],[9.590014,46.664862],[9.590282,46.665125],[9.590166,46.665353],[9.58988,46.665485],[9.588824,46.665456],[9.587363,46.665731],[9.586792,46.665693],[9.585599,46.66603],[9.58496,46.666668],[9.582505,46.667701],[9.579672,46.669228],[9.579444,46.66955],[9.579258,46.670193],[9.578934,46.670494],[9.577245,46.670773],[9.573737,46.672111],[9.573412,46.67247],[9.573629,46.673052],[9.57351,46.673211],[9.572517,46.673092],[9.571282,46.673446],[9.570693,46.67403],[9.570587,46.674896],[9.567603,46.676272],[9.567236,46.676961],[9.567173,46.677385],[9.566425,46.678485],[9.5665,46.678694],[9.567418,46.679153],[9.567653,46.679728],[9.567556,46.68025],[9.564705,46.682969],[9.563433,46.684512],[9.562987,46.688634],[9.56228,46.689534],[9.561951,46.689728],[9.561966,46.689901],[9.560008,46.692354],[9.557849,46.698598],[9.560397,46.705839],[9.559154,46.70933],[9.559608,46.713567],[9.558775,46.714692],[9.559192,46.718523],[9.558754,46.719486],[9.558672,46.721342],[9.558904,46.72249],[9.558688,46.723035],[9.557944,46.724061],[9.557687,46.725934],[9.55785,46.726854],[9.557781,46.727601],[9.557618,46.728385],[9.557207,46.729218],[9.556523,46.729876],[9.553898,46.731539],[9.553273,46.732406],[9.552449,46.733209],[9.551844,46.73428],[9.552203,46.734976],[9.552203,46.735608],[9.553012,46.73792],[9.552927,46.738851],[9.553051,46.739132],[9.553734,46.739402],[9.555393,46.739246],[9.555794,46.739426],[9.556026,46.739723],[9.556002,46.740085],[9.55545,46.741071],[9.555456,46.741499],[9.556039,46.743083],[9.556725,46.744089],[9.556418,46.744754],[9.55559,46.74468]]}},{"type":"Feature","properties":{"kind":"stop","index":0,"name":"Hotel Landhaus","time":"08:20","detail":"Early departure"},"geometry":{"type":"Point","coordinates":[8.268457,46.4879271]}},{"type":"Feature","properties":{"kind":"stop","index":1,"name":"Grimsel Pass","time":"","detail":"Morning pass"},"geometry":{"type":"Point","coordinates":[8.33758,46.5614]}},{"type":"Feature","properties":{"kind":"stop","index":2,"name":"Gelmerbahn","time":"09:00","detail":"Walk from parking; ascent 09:48"},"geometry":{"type":"Point","coordinates":[8.3085363,46.6136385]}},{"type":"Feature","properties":{"kind":"stop","index":3,"name":"Gschletterkurve","time":"","detail":"Susten road waypoint"},"geometry":{"type":"Point","coordinates":[8.3806647,46.7424683]}},{"type":"Feature","properties":{"kind":"stop","index":4,"name":"Susten Pass","time":"12:21","detail":"Continue toward Oberalp"},"geometry":{"type":"Point","coordinates":[8.4470234,46.7293696]}},{"type":"Feature","properties":{"kind":"stop","index":5,"name":"Ustria Alpsu","time":"13:21","detail":"Lunch and route decision"},"geometry":{"type":"Point","coordinates":[8.6714017,46.6587706]}},{"type":"Feature","properties":{"kind":"stop","index":6,"name":"Rothenbrunnen","time":"","detail":"Short-route junction"},"geometry":{"type":"Point","coordinates":[9.419464,46.768871]}},{"type":"Feature","properties":{"kind":"stop","index":7,"name":"Albula Pass","time":"","detail":"Optional pass out-and-back"},"geometry":{"type":"Point","coordinates":[9.5765123,46.6626282]}},{"type":"Feature","properties":{"kind":"stop","index":8,"name":"Gino Mäder memorial","time":"","detail":"Roadbook waypoint"},"geometry":{"type":"Point","coordinates":[9.8841991,46.5885894]}},{"type":"Feature","properties":{"kind":"stop","index":9,"name":"Albula Hospiz","time":"","detail":"Pass stop"},"geometry":{"type":"Point","coordinates":[9.8376326,46.5825598]}},{"type":"Feature","properties":{"kind":"stop","index":10,"name":"Migrol Lantsch/Lenz","time":"","detail":"Fuel"},"geometry":{"type":"Point","coordinates":[9.5619604,46.6896395]}},{"type":"Feature","properties":{"kind":"stop","index":11,"name":"Hotel Waldhaus am See","time":"18:50","detail":"Fondue at 20:00"},"geometry":{"type":"Point","coordinates":[9.5555085,46.7445648]}}]}
