{"type":"FeatureCollection","properties":{"id":"saturday-ascona","distanceMetres":240523.3,"durationSeconds":15256.9,"generatedBy":"OSRM using OpenStreetMap data"},"features":[{"type":"Feature","properties":{"kind":"route","color":"#836036"},"geometry":{"type":"LineString","coordinates":[[9.55559,46.74468],[9.556418,46.744754],[9.556725,46.744089],[9.556039,46.743083],[9.555456,46.741499],[9.55545,46.741071],[9.556002,46.740085],[9.556026,46.739723],[9.555794,46.739426],[9.555393,46.739246],[9.553734,46.739402],[9.553051,46.739132],[9.552927,46.738851],[9.553012,46.73792],[9.552203,46.735608],[9.552203,46.734976],[9.551844,46.73428],[9.552449,46.733209],[9.553273,46.732406],[9.553898,46.731539],[9.556947,46.729531],[9.557356,46.728946],[9.557714,46.728041],[9.557852,46.726998],[9.557687,46.725934],[9.557944,46.724061],[9.558773,46.722895],[9.558915,46.722377],[9.558672,46.721342],[9.558754,46.719486],[9.559192,46.718523],[9.558775,46.714692],[9.559606,46.713639],[9.559154,46.70933],[9.560397,46.705839],[9.557888,46.698945],[9.557856,46.698502],[9.560092,46.69218],[9.562987,46.688634],[9.563392,46.684599],[9.56463,46.683047],[9.567556,46.68025],[9.567653,46.679728],[9.567418,46.679153],[9.5665,46.678694],[9.566425,46.678485],[9.567173,46.677385],[9.567514,46.676356],[9.570587,46.674896],[9.570693,46.67403],[9.571282,46.673446],[9.572517,46.673092],[9.57351,46.673211],[9.573629,46.673052],[9.573412,46.67247],[9.573737,46.672111],[9.577245,46.670773],[9.578934,46.670494],[9.579258,46.670193],[9.579444,46.66955],[9.579672,46.669228],[9.582505,46.667701],[9.58496,46.666668],[9.585641,46.66601],[9.586792,46.665693],[9.587363,46.665731],[9.588824,46.665456],[9.58988,46.665485],[9.590266,46.665221],[9.590228,46.664982],[9.590014,46.664862],[9.587181,46.664669],[9.586245,46.664271],[9.584783,46.664551],[9.582699,46.664417],[9.581882,46.664478],[9.580699,46.664184],[9.579899,46.664339],[9.578804,46.664012],[9.579596,46.663608],[9.579606,46.663376],[9.579381,46.663247],[9.578939,46.663524],[9.578102,46.663515],[9.576988,46.663984],[9.575081,46.664023],[9.57131,46.664803],[9.571208,46.664481],[9.571479,46.664183],[9.573893,46.663146],[9.575838,46.66264],[9.577146,46.662664],[9.578924,46.661843],[9.579107,46.661564],[9.579859,46.661186],[9.581796,46.66087],[9.582274,46.660561],[9.583124,46.659498],[9.58306,46.659088],[9.582612,46.658756],[9.578134,46.657553],[9.577083,46.657116],[9.575938,46.656246],[9.574895,46.655656],[9.574625,46.654704],[9.57504,46.654263],[9.576094,46.653979],[9.576422,46.653736],[9.57652,46.652577],[9.577153,46.651378],[9.577136,46.651013],[9.576854,46.650413],[9.576926,46.650166],[9.577227,46.649965],[9.578329,46.649684],[9.579774,46.648865],[9.579792,46.648437],[9.579933,46.648293],[9.580691,46.648153],[9.581087,46.647354],[9.58331,46.645758],[9.583868,46.644746],[9.584976,46.643724],[9.584947,46.643388],[9.584357,46.642675],[9.584297,46.64244],[9.584569,46.642259],[9.585205,46.642328],[9.585473,46.642206],[9.585562,46.641581],[9.585831,46.64108],[9.585813,46.640718],[9.585226,46.639437],[9.585178,46.638556],[9.586356,46.635169],[9.586618,46.632803],[9.587058,46.631487],[9.587649,46.630632],[9.587491,46.630361],[9.587134,46.630254],[9.585796,46.630727],[9.585228,46.630601],[9.58473,46.629614],[9.584214,46.628952],[9.584096,46.628571],[9.584154,46.628165],[9.586153,46.625561],[9.587434,46.62487],[9.587948,46.624056],[9.589483,46.622789],[9.589683,46.62235],[9.589702,46.621556],[9.589894,46.621055],[9.590711,46.619627],[9.591739,46.618269],[9.592528,46.6166],[9.593392,46.615718],[9.593624,46.615264],[9.593649,46.614773],[9.593489,46.614348],[9.592258,46.612802],[9.591938,46.612137],[9.591562,46.61],[9.591648,46.609415],[9.591485,46.608863],[9.591728,46.608032],[9.591706,46.607053],[9.593386,46.600936],[9.594106,46.600077],[9.59696,46.597374],[9.596414,46.597192],[9.594556,46.597538],[9.593588,46.597543],[9.591802,46.598351],[9.591688,46.5982],[9.592255,46.59765],[9.592185,46.597067],[9.591892,46.596933],[9.592193,46.596086],[9.592367,46.59611],[9.592058,46.596906],[9.592367,46.59611],[9.592193,46.596086],[9.591892,46.596933],[9.592185,46.597067],[9.592244,46.597716],[9.591688,46.5982],[9.591802,46.598351],[9.593588,46.597543],[9.594556,46.597538],[9.596414,46.597192],[9.59696,46.597374],[9.598271,46.596501],[9.606827,46.592537],[9.609038,46.590818],[9.610136,46.589017],[9.612985,46.585806],[9.615466,46.584083],[9.615881,46.583668],[9.618314,46.582289],[9.620222,46.580239],[9.622811,46.578557],[9.624474,46.577097],[9.625471,46.576705],[9.625403,46.576427],[9.624421,46.576099],[9.622607,46.574716],[9.623047,46.574136],[9.622713,46.573065],[9.623356,46.572549],[9.623865,46.571186],[9.623711,46.57078],[9.623125,46.570164],[9.622687,46.569162],[9.622643,46.568195],[9.621647,46.567278],[9.621629,46.566936],[9.622053,46.565245],[9.621304,46.563854],[9.621563,46.563357],[9.622411,46.562835],[9.623236,46.562906],[9.623761,46.562725],[9.62407,46.561991],[9.624557,46.561306],[9.625269,46.542674],[9.624414,46.538466],[9.624017,46.53728],[9.624117,46.535714],[9.624031,46.535219],[9.61977,46.526977],[9.619708,46.526233],[9.620478,46.525562],[9.621204,46.524511],[9.621126,46.524365],[9.62052,46.524116],[9.620666,46.523089],[9.621006,46.522482],[9.621672,46.522039],[9.622198,46.521337],[9.622643,46.521136],[9.623978,46.52106],[9.625308,46.520748],[9.626032,46.519951],[9.625984,46.519715],[9.625559,46.519275],[9.625754,46.518956],[9.628611,46.51862],[9.629188,46.518333],[9.629256,46.518085],[9.628964,46.517479],[9.629009,46.517138],[9.62936,46.516858],[9.630223,46.516608],[9.630381,46.516303],[9.630205,46.516135],[9.62923,46.515889],[9.628696,46.515573],[9.627979,46.514388],[9.628015,46.514117],[9.629553,46.513298],[9.630617,46.513394],[9.63124,46.513305],[9.631433,46.513433],[9.631283,46.513563],[9.629486,46.51396],[9.629367,46.5143],[9.629682,46.514494],[9.630034,46.514457],[9.63113,46.513955],[9.631937,46.51396],[9.632261,46.5138],[9.63356,46.512424],[9.633601,46.512192],[9.63336,46.511737],[9.633556,46.511034],[9.634439,46.51036],[9.634849,46.509671],[9.635754,46.508952],[9.636542,46.508617],[9.637114,46.508101],[9.637874,46.507655],[9.639813,46.505719],[9.640235,46.504848],[9.640692,46.504281],[9.641164,46.503066],[9.640862,46.502552],[9.640608,46.501676],[9.641249,46.500882],[9.641865,46.497554],[9.642262,46.497148],[9.6445,46.495626],[9.645515,46.494354],[9.644569,46.492978],[9.644514,46.491411],[9.644154,46.491181],[9.643297,46.491002],[9.642977,46.490816],[9.642816,46.490556],[9.642786,46.489782],[9.64191,46.489415],[9.641688,46.489108],[9.641865,46.488095],[9.641477,46.48685],[9.641503,46.485944],[9.641125,46.485183],[9.641048,46.484568],[9.641451,46.483903],[9.64139,46.483067],[9.641718,46.482197],[9.641625,46.480351],[9.642005,46.47964],[9.642679,46.479099],[9.645229,46.478278],[9.645525,46.477915],[9.645791,46.476923],[9.64734,46.473973],[9.647823,46.473582],[9.649171,46.473268],[9.649515,46.473025],[9.649621,46.472773],[9.649545,46.47199],[9.650052,46.469079],[9.650376,46.468696],[9.650513,46.467665],[9.651566,46.466789],[9.652867,46.466543],[9.653166,46.466376],[9.653328,46.466114],[9.653466,46.464917],[9.654839,46.463364],[9.655355,46.463079],[9.658163,46.463306],[9.658395,46.463651],[9.658167,46.464443],[9.658393,46.464578],[9.659762,46.463952],[9.662918,46.462822],[9.666501,46.46229],[9.674089,46.462029],[9.676065,46.462162],[9.677912,46.462463],[9.679739,46.462451],[9.681593,46.462151],[9.682894,46.462183],[9.683757,46.461968],[9.68398,46.462055],[9.684008,46.462187],[9.683449,46.462512],[9.68353,46.462739],[9.684718,46.463192],[9.685879,46.463857],[9.686591,46.464013],[9.686651,46.464166],[9.686198,46.464499],[9.686233,46.464683],[9.686522,46.464738],[9.687021,46.464602],[9.687561,46.464163],[9.687842,46.464237],[9.687841,46.464436],[9.687273,46.465161],[9.687334,46.465332],[9.687735,46.465294],[9.688329,46.464625],[9.688614,46.464526],[9.688814,46.46473],[9.688356,46.465354],[9.688484,46.465584],[9.688813,46.465515],[9.689338,46.46494],[9.689597,46.464885],[9.689781,46.465011],[9.690083,46.465703],[9.690509,46.466057],[9.694103,46.466853],[9.695363,46.466852],[9.696691,46.466524],[9.699995,46.464395],[9.701381,46.463969],[9.702618,46.463991],[9.705769,46.464793],[9.706163,46.465184],[9.705831,46.465999],[9.706001,46.466181],[9.70631,46.46611],[9.707588,46.46522],[9.70785,46.465206],[9.707976,46.465285],[9.707962,46.465449],[9.707075,46.466404],[9.7071,46.466596],[9.70741,46.466642],[9.707873,46.46631],[9.708146,46.466294],[9.708282,46.466439],[9.708334,46.467112],[9.70885,46.46756],[9.712321,46.468523],[9.714155,46.469386],[9.714878,46.469597],[9.71487,46.469794],[9.714165,46.469924],[9.714133,46.470161],[9.715857,46.471272],[9.716571,46.472188],[9.71687,46.472061],[9.716914,46.471396],[9.716637,46.470357],[9.717208,46.469822],[9.717761,46.469804],[9.718062,46.470083],[9.718411,46.470797],[9.719579,46.472115],[9.720651,46.47318],[9.720923,46.473282],[9.721278,46.473205],[9.721449,46.473018],[9.721767,46.47251],[9.721796,46.472015],[9.72194,46.471797],[9.722867,46.47098],[9.72343,46.470808],[9.725177,46.471063],[9.72649,46.472084],[9.726936,46.472246],[9.729933,46.4722],[9.731816,46.471571],[9.733048,46.471681],[9.734528,46.472245],[9.735961,46.47197],[9.737794,46.472445],[9.749279,46.472487],[9.749811,46.4723],[9.75062,46.471236],[9.751284,46.47087],[9.753601,46.47091],[9.754721,46.470461],[9.75545,46.470528],[9.756989,46.470073],[9.75802,46.470201],[9.760411,46.46928],[9.762441,46.469154],[9.76427,46.468877],[9.767994,46.467964],[9.770524,46.466496],[9.773862,46.465174],[9.77513,46.464382],[9.775962,46.463614],[9.776443,46.463403],[9.777741,46.463244],[9.779135,46.462718],[9.781366,46.462638],[9.782822,46.462752],[9.785321,46.462613],[9.787082,46.462016],[9.787779,46.46214],[9.789748,46.4631],[9.792833,46.465272],[9.794108,46.466388],[9.794332,46.466441],[9.794599,46.466277],[9.794626,46.465693],[9.794945,46.464838],[9.79408,46.463541],[9.793923,46.462423],[9.794139,46.462333],[9.7944,46.463226],[9.795196,46.464858],[9.79536,46.466309],[9.795964,46.467069],[9.796634,46.467432],[9.797364,46.467615],[9.800072,46.46755],[9.800687,46.46777],[9.801355,46.468231],[9.801735,46.468276],[9.801909,46.468132],[9.801878,46.467922],[9.801545,46.46733],[9.800881,46.466923],[9.799475,46.466434],[9.79889,46.466107],[9.798484,46.465731],[9.797869,46.464593],[9.79749,46.463657],[9.797392,46.462777],[9.797955,46.460704],[9.797914,46.460089],[9.798027,46.459738],[9.797753,46.458819],[9.797036,46.457959],[9.795851,46.457249],[9.794823,46.456924],[9.791905,46.456404],[9.791634,46.456473],[9.791585,46.456315],[9.79181,46.45616],[9.792099,46.456301],[9.793273,46.456393],[9.793012,46.45578],[9.792009,46.455665],[9.791542,46.45531],[9.791534,46.455098],[9.792215,46.454929],[9.793059,46.455388],[9.793012,46.45578],[9.793273,46.456393],[9.792099,46.456301],[9.79181,46.45616],[9.791905,46.456404],[9.79168,46.456489],[9.791585,46.456315],[9.79042,46.45564],[9.787758,46.452834],[9.78635,46.451569],[9.785171,46.450119],[9.784302,46.449404],[9.783127,46.447805],[9.782108,46.447489],[9.780745,46.446327],[9.779759,46.445839],[9.779116,46.445164],[9.777886,46.444842],[9.776709,46.444305],[9.775346,46.442963],[9.774705,46.442508],[9.766411,46.439113],[9.766082,46.439],[9.765841,46.439074],[9.765759,46.438906],[9.764241,46.438265],[9.763188,46.437942],[9.761448,46.437739],[9.760557,46.437506],[9.758485,46.436562],[9.756346,46.435914],[9.754102,46.434771],[9.752062,46.434188],[9.749494,46.433008],[9.748103,46.432684],[9.746004,46.432811],[9.744835,46.432657],[9.744084,46.43234],[9.742802,46.431505],[9.740997,46.431089],[9.739406,46.430446],[9.738115,46.429454],[9.736723,46.428742],[9.735023,46.428807],[9.734663,46.428719],[9.733052,46.427317],[9.730469,46.425876],[9.728883,46.425205],[9.726736,46.423562],[9.726352,46.422618],[9.7264,46.42092],[9.726609,46.420193],[9.7275,46.419248],[9.727471,46.418929],[9.727159,46.41865],[9.72556,46.417954],[9.718863,46.415867],[9.717681,46.415192],[9.716024,46.414763],[9.713949,46.413908],[9.712014,46.412448],[9.711094,46.41194],[9.709839,46.411509],[9.708776,46.410866],[9.705274,46.410238],[9.704511,46.409913],[9.704264,46.410012],[9.70368,46.40986],[9.703081,46.409318],[9.702212,46.408819],[9.701376,46.407945],[9.699893,46.407024],[9.698921,46.406693],[9.696929,46.406397],[9.696429,46.406184],[9.695166,46.405291],[9.694702,46.40456],[9.694769,46.404319],[9.695452,46.403682],[9.695628,46.403288],[9.695558,46.40181],[9.695257,46.40102],[9.695826,46.400006],[9.694771,46.398633],[9.694892,46.397797],[9.694658,46.396792],[9.694878,46.396098],[9.69478,46.395938],[9.693866,46.396169],[9.693526,46.395747],[9.693553,46.396142],[9.693392,46.396205],[9.69326,46.395866],[9.692797,46.395738],[9.692651,46.395156],[9.692198,46.394743],[9.692012,46.394769],[9.692232,46.395015],[9.69212,46.395111],[9.691549,46.394531],[9.691112,46.394425],[9.690204,46.394465],[9.690145,46.394544],[9.69029,46.394618],[9.690884,46.394599],[9.691446,46.394794],[9.691346,46.394893],[9.690919,46.394722],[9.690187,46.394914],[9.691001,46.394948],[9.69182,46.395948],[9.690604,46.395348],[9.689567,46.395309],[9.68944,46.395404],[9.690302,46.39548],[9.690766,46.395716],[9.691304,46.39633],[9.691339,46.397081],[9.691188,46.397032],[9.691087,46.396455],[9.690225,46.3959],[9.690179,46.39598],[9.690659,46.396386],[9.690785,46.39679],[9.690691,46.396973],[9.688992,46.397819],[9.687955,46.398149],[9.687076,46.398871],[9.686781,46.39884],[9.686739,46.398618],[9.688194,46.397377],[9.688157,46.397139],[9.687807,46.397125],[9.687083,46.397571],[9.686161,46.397836],[9.684728,46.398516],[9.682732,46.398677],[9.681857,46.39848],[9.679057,46.397324],[9.677353,46.395751],[9.676992,46.394962],[9.676741,46.394789],[9.675359,46.394427],[9.673138,46.394393],[9.672318,46.394209],[9.671073,46.39459],[9.670912,46.394495],[9.670923,46.394361],[9.671484,46.394127],[9.671492,46.393923],[9.669628,46.393792],[9.66876,46.393459],[9.666842,46.391748],[9.665545,46.390299],[9.661228,46.38198],[9.660582,46.377368],[9.659838,46.375162],[9.659355,46.374189],[9.659376,46.373795],[9.659751,46.372924],[9.65965,46.372064],[9.659718,46.37154],[9.65853,46.370419],[9.65798,46.369633],[9.657848,46.368954],[9.65729,46.367801],[9.6573,46.366689],[9.656689,46.365385],[9.656273,46.365361],[9.655103,46.366445],[9.65444,46.366748],[9.654078,46.366726],[9.65388,46.366481],[9.653201,46.364098],[9.65274,46.363645],[9.651971,46.363186],[9.651657,46.36265],[9.651362,46.362724],[9.651362,46.363655],[9.650268,46.36405],[9.650015,46.363416],[9.648944,46.362503],[9.648933,46.362014],[9.648702,46.361616],[9.647912,46.360875],[9.647634,46.360903],[9.647526,46.361424],[9.646829,46.362084],[9.646468,46.362151],[9.646076,46.361279],[9.645631,46.360861],[9.645188,46.35992],[9.644632,46.359368],[9.644086,46.358271],[9.643774,46.358316],[9.642838,46.359538],[9.642415,46.359498],[9.641444,46.359039],[9.641102,46.358286],[9.638247,46.356327],[9.637292,46.355872],[9.634144,46.354781],[9.629427,46.351883],[9.627914,46.351198],[9.623448,46.350039],[9.620348,46.350068],[9.608949,46.348795],[9.605718,46.348945],[9.604758,46.348842],[9.603541,46.348357],[9.602335,46.347305],[9.601567,46.346883],[9.600611,46.346635],[9.598478,46.346577],[9.597613,46.34637],[9.594431,46.344251],[9.592691,46.343756],[9.590588,46.343395],[9.58826,46.341949],[9.584837,46.341211],[9.58181,46.340789],[9.578844,46.339916],[9.578192,46.339904],[9.577085,46.340238],[9.575952,46.33989],[9.574939,46.339975],[9.572311,46.339789],[9.570264,46.339162],[9.569379,46.339045],[9.567243,46.339146],[9.563662,46.339615],[9.561474,46.339115],[9.560532,46.338713],[9.558502,46.337361],[9.557531,46.337076],[9.556255,46.336986],[9.552652,46.337088],[9.550046,46.336223],[9.548775,46.336055],[9.54753,46.33613],[9.545329,46.336518],[9.544351,46.336523],[9.543574,46.33636],[9.542398,46.335849],[9.537913,46.334461],[9.536304,46.33437],[9.533216,46.334601],[9.532516,46.334411],[9.531332,46.333621],[9.530792,46.333484],[9.529297,46.33349],[9.526962,46.333206],[9.525289,46.333821],[9.523657,46.333842],[9.522007,46.334231],[9.520742,46.334296],[9.519542,46.334086],[9.516916,46.333049],[9.514636,46.332989],[9.512069,46.332325],[9.510751,46.332273],[9.51017,46.332354],[9.509696,46.332572],[9.509274,46.332558],[9.507161,46.331891],[9.504382,46.331585],[9.503215,46.331679],[9.501118,46.331528],[9.498815,46.33115],[9.49718,46.331105],[9.495625,46.331349],[9.493265,46.331124],[9.491742,46.331363],[9.491406,46.331171],[9.49104,46.330475],[9.49043,46.330261],[9.489343,46.330318],[9.487263,46.331003],[9.486352,46.330418],[9.484637,46.330071],[9.483936,46.329518],[9.483542,46.329682],[9.483272,46.330426],[9.48245,46.330996],[9.482098,46.331047],[9.478698,46.329788],[9.476991,46.328783],[9.475009,46.328423],[9.473942,46.32856],[9.472277,46.328481],[9.470127,46.327698],[9.468778,46.327894],[9.467899,46.32772],[9.46612,46.327759],[9.464997,46.327339],[9.464423,46.326872],[9.463776,46.32661],[9.461684,46.326781],[9.460223,46.326329],[9.458861,46.326215],[9.457865,46.32555],[9.457227,46.325352],[9.454988,46.325628],[9.454216,46.326421],[9.453411,46.326774],[9.451718,46.327953],[9.449692,46.328133],[9.448695,46.328055],[9.446669,46.328166],[9.444113,46.328633],[9.442553,46.329203],[9.4419,46.329288],[9.440473,46.329258],[9.438455,46.328701],[9.433756,46.328364],[9.429926,46.326528],[9.427936,46.326153],[9.424017,46.326141],[9.423552,46.326266],[9.422468,46.326923],[9.420483,46.327348],[9.41672,46.327132],[9.413912,46.32731],[9.412845,46.32716],[9.41156,46.327352],[9.410075,46.32732],[9.408818,46.326927],[9.40835,46.326056],[9.407549,46.32552],[9.405833,46.325067],[9.398737,46.322233],[9.398125,46.321791],[9.397586,46.321002],[9.392557,46.32097],[9.389128,46.321494],[9.387723,46.322171],[9.386018,46.322638],[9.384347,46.323559],[9.380537,46.324331],[9.379577,46.32483],[9.378161,46.32527],[9.375969,46.326937],[9.37573,46.327584],[9.374543,46.329683],[9.373832,46.330482],[9.372706,46.332364],[9.372423,46.333169],[9.371618,46.333989],[9.371076,46.33416],[9.370346,46.334626],[9.370465,46.334666],[9.371085,46.334298],[9.371128,46.334381],[9.370551,46.334979],[9.371438,46.334707],[9.370363,46.335787],[9.369551,46.336389],[9.369578,46.336568],[9.37014,46.337166],[9.369774,46.338443],[9.369995,46.338481],[9.371096,46.337945],[9.371238,46.337987],[9.370464,46.338817],[9.370378,46.339064],[9.370513,46.340422],[9.370772,46.340969],[9.370334,46.342073],[9.370949,46.343048],[9.370959,46.34331],[9.370588,46.344108],[9.369682,46.344806],[9.369326,46.345264],[9.369107,46.345832],[9.368539,46.346261],[9.368235,46.347216],[9.36778,46.347783],[9.367585,46.348519],[9.367617,46.349363],[9.367148,46.350396],[9.367197,46.350939],[9.366971,46.351691],[9.367191,46.351649],[9.367662,46.350391],[9.367881,46.350469],[9.367813,46.351144],[9.367133,46.352882],[9.366111,46.353093],[9.366264,46.353276],[9.366752,46.353113],[9.366899,46.353206],[9.366216,46.353619],[9.366141,46.3544],[9.365707,46.354774],[9.365549,46.355427],[9.364863,46.356496],[9.364526,46.357318],[9.364653,46.358222],[9.363929,46.358801],[9.363556,46.359488],[9.364157,46.361373],[9.364388,46.361388],[9.364282,46.361107],[9.364367,46.361021],[9.364677,46.361267],[9.364564,46.36172],[9.364817,46.362307],[9.364808,46.362663],[9.364203,46.363128],[9.364364,46.363193],[9.364998,46.362945],[9.365191,46.362997],[9.363785,46.363811],[9.363562,46.364067],[9.363622,46.36581],[9.363767,46.36591],[9.363959,46.365837],[9.36384,46.365211],[9.363961,46.365088],[9.364179,46.365139],[9.364252,46.365692],[9.364568,46.36615],[9.364597,46.366446],[9.36423,46.366732],[9.362118,46.367333],[9.360822,46.368075],[9.36094,46.368202],[9.362105,46.367916],[9.361144,46.368974],[9.359686,46.36916],[9.359234,46.369331],[9.359847,46.369294],[9.360058,46.369432],[9.359442,46.369874],[9.359085,46.370577],[9.359063,46.370906],[9.359353,46.371735],[9.359999,46.372798],[9.360005,46.373354],[9.360803,46.374022],[9.360848,46.374244],[9.360628,46.374461],[9.359871,46.374771],[9.358826,46.375734],[9.358009,46.376802],[9.357889,46.377183],[9.356699,46.378155],[9.355909,46.379142],[9.35543,46.382863],[9.355515,46.384489],[9.354675,46.385239],[9.354091,46.386833],[9.352932,46.388917],[9.352703,46.391626],[9.352989,46.39277],[9.352669,46.393588],[9.35293,46.395207],[9.352555,46.398074],[9.353003,46.39999],[9.354733,46.402526],[9.354748,46.402881],[9.35415,46.403509],[9.351766,46.405356],[9.352046,46.406268],[9.351325,46.407048],[9.350931,46.409626],[9.350703,46.41022],[9.349315,46.410823],[9.348519,46.411477],[9.347337,46.411774],[9.346456,46.412407],[9.345333,46.413965],[9.34443,46.414871],[9.34382,46.41647],[9.343694,46.417113],[9.343918,46.417672],[9.343604,46.418207],[9.343907,46.418685],[9.343212,46.419842],[9.343119,46.42041],[9.343286,46.420619],[9.343234,46.420242],[9.343359,46.419991],[9.343956,46.419429],[9.344041,46.419498],[9.343686,46.419805],[9.343591,46.420447],[9.3437,46.420444],[9.343732,46.42007],[9.344045,46.419695],[9.344244,46.419641],[9.344037,46.419861],[9.343935,46.420327],[9.344247,46.419815],[9.344368,46.419824],[9.344212,46.420145],[9.344233,46.420624],[9.343916,46.420995],[9.344013,46.422201],[9.344144,46.4222],[9.344109,46.421526],[9.344243,46.422159],[9.344641,46.422714],[9.344384,46.423049],[9.344447,46.423368],[9.344496,46.423001],[9.344861,46.422751],[9.344448,46.422037],[9.344638,46.422114],[9.345042,46.422729],[9.344743,46.423018],[9.344948,46.423289],[9.344755,46.424114],[9.345156,46.424364],[9.345208,46.424535],[9.344888,46.425379],[9.344773,46.42674],[9.34347,46.427639],[9.343449,46.427808],[9.343843,46.428133],[9.343882,46.428494],[9.343603,46.43016],[9.343256,46.430744],[9.342578,46.431187],[9.342314,46.431841],[9.342502,46.431869],[9.343154,46.431424],[9.344264,46.431323],[9.344916,46.431009],[9.345134,46.431064],[9.34324,46.432273],[9.342504,46.433533],[9.341964,46.434923],[9.342282,46.435709],[9.343219,46.436643],[9.343716,46.436923],[9.343905,46.437403],[9.344295,46.437749],[9.344063,46.437064],[9.344236,46.437063],[9.34503,46.438228],[9.345444,46.440001],[9.344351,46.441234],[9.343426,46.442939],[9.342429,46.444383],[9.341051,46.445968],[9.34026,46.446659],[9.339168,46.448561],[9.33929,46.448615],[9.340292,46.447814],[9.34034,46.448613],[9.339982,46.449553],[9.340446,46.449533],[9.340941,46.448976],[9.341075,46.448992],[9.341261,46.449962],[9.340605,46.451476],[9.340373,46.451695],[9.339722,46.451691],[9.338522,46.45287],[9.339145,46.452848],[9.339486,46.453155],[9.339437,46.453337],[9.3372,46.454608],[9.336384,46.455484],[9.336892,46.456389],[9.338166,46.458003],[9.338445,46.459027],[9.339736,46.460059],[9.340799,46.461246],[9.344113,46.463673],[9.344773,46.464558],[9.346854,46.465954],[9.347972,46.467185],[9.349591,46.468298],[9.350114,46.469355],[9.350398,46.469215],[9.350093,46.468096],[9.350378,46.468068],[9.351433,46.470045],[9.351612,46.471079],[9.351526,46.472465],[9.351778,46.473919],[9.351656,46.474805],[9.351853,46.476187],[9.352166,46.476708],[9.352478,46.477718],[9.353216,46.478414],[9.353684,46.479162],[9.35401,46.480226],[9.354369,46.480635],[9.355402,46.481345],[9.355669,46.481802],[9.355692,46.482196],[9.355385,46.482614],[9.353283,46.484366],[9.350949,46.486014],[9.349856,46.486623],[9.347239,46.487553],[9.34624,46.487519],[9.344922,46.487245],[9.344438,46.487302],[9.344003,46.487485],[9.341401,46.489262],[9.33955,46.489904],[9.338631,46.489929],[9.337569,46.489353],[9.337169,46.489313],[9.334393,46.490405],[9.335561,46.490581],[9.335015,46.490651],[9.333827,46.491121],[9.3318,46.492249],[9.331813,46.492436],[9.332296,46.492538],[9.331398,46.492905],[9.330751,46.49365],[9.330624,46.494283],[9.331787,46.493738],[9.331407,46.494143],[9.331087,46.495777],[9.330527,46.496542],[9.331336,46.496097],[9.331412,46.496181],[9.330341,46.497295],[9.330086,46.497991],[9.330511,46.497596],[9.330641,46.497639],[9.330055,46.499044],[9.329773,46.500269],[9.328994,46.501831],[9.329062,46.501999],[9.330032,46.502429],[9.330051,46.502559],[9.329782,46.502816],[9.329809,46.502976],[9.330745,46.503823],[9.330421,46.504681],[9.330446,46.505445],[9.33015,46.506],[9.330215,46.506485],[9.329429,46.508224],[9.328957,46.508923],[9.328006,46.509416],[9.327418,46.509554],[9.326815,46.51023],[9.32578,46.510969],[9.326012,46.511216],[9.326401,46.511288],[9.326568,46.511198],[9.326609,46.510864],[9.326752,46.510848],[9.326752,46.511362],[9.326558,46.511751],[9.327468,46.512207],[9.328049,46.511358],[9.329037,46.51092],[9.328874,46.511178],[9.328449,46.511432],[9.328217,46.511798],[9.328114,46.51215],[9.328234,46.512589],[9.328482,46.512062],[9.329095,46.511748],[9.329737,46.511115],[9.329875,46.511131],[9.329614,46.511589],[9.32953,46.512074],[9.329113,46.512532],[9.329045,46.513092],[9.328706,46.513613],[9.329095,46.514019],[9.328729,46.514539],[9.328932,46.515126],[9.328623,46.515525],[9.328631,46.515866],[9.328457,46.516141],[9.328605,46.516143],[9.328939,46.515609],[9.329391,46.515275],[9.329034,46.516249],[9.329853,46.515465],[9.329451,46.516422],[9.330484,46.515671],[9.330585,46.51575],[9.330149,46.516493],[9.330956,46.516007],[9.331039,46.51607],[9.330611,46.516745],[9.331081,46.516517],[9.331783,46.5164],[9.331191,46.517398],[9.329461,46.523334],[9.329498,46.523581],[9.330143,46.524306],[9.33022,46.524612],[9.329212,46.527186],[9.328341,46.527867],[9.328437,46.528796],[9.327682,46.529876],[9.32746,46.530871],[9.326797,46.532168],[9.326638,46.533196],[9.326697,46.534552],[9.326262,46.534718],[9.326435,46.535878],[9.325679,46.538019],[9.324628,46.539225],[9.324229,46.540156],[9.324365,46.540664],[9.324633,46.541062],[9.325518,46.541829],[9.326128,46.542063],[9.32618,46.542274],[9.325512,46.542603],[9.324846,46.542704],[9.324568,46.54342],[9.323324,46.544281],[9.322576,46.544199],[9.321844,46.543833],[9.320102,46.544185],[9.320229,46.54429],[9.321549,46.544333],[9.322721,46.545471],[9.323654,46.545717],[9.323441,46.545814],[9.321528,46.545576],[9.320389,46.545649],[9.320378,46.545824],[9.321631,46.546056],[9.322808,46.546754],[9.320154,46.546658],[9.321832,46.547365],[9.322896,46.54765],[9.323913,46.548154],[9.323901,46.548322],[9.323332,46.548836],[9.323365,46.552388],[9.322577,46.552268],[9.320156,46.551328],[9.319452,46.550584],[9.318884,46.550212],[9.317246,46.549416],[9.313754,46.5473],[9.312341,46.546852],[9.310929,46.54678],[9.307429,46.547157],[9.303532,46.547038],[9.302187,46.546704],[9.29725,46.544702],[9.295606,46.544364],[9.292937,46.544456],[9.289037,46.545234],[9.287371,46.545234],[9.282657,46.544173],[9.278064,46.542304],[9.273946,46.541318],[9.272322,46.541166],[9.266155,46.541277],[9.26386,46.541118],[9.261412,46.540653],[9.257848,46.539602],[9.256579,46.539514],[9.254018,46.539695],[9.251489,46.538861],[9.25064,46.538696],[9.247849,46.53877],[9.245182,46.538464],[9.24246,46.53852],[9.237673,46.53794],[9.235086,46.538069],[9.231351,46.538717],[9.229835,46.53869],[9.228322,46.538221],[9.225278,46.536435],[9.222543,46.535381],[9.21719,46.533018],[9.215812,46.532635],[9.213124,46.5322],[9.210808,46.531355],[9.209697,46.531245],[9.207787,46.531675],[9.206768,46.531716],[9.203662,46.530722],[9.203319,46.530823],[9.202376,46.530773],[9.200174,46.530363],[9.198608,46.530487],[9.197332,46.530372],[9.195705,46.530417],[9.194029,46.530185],[9.188406,46.527737],[9.18806,46.527402],[9.187124,46.525931],[9.186641,46.525458],[9.18669,46.525314],[9.186918,46.525258],[9.186844,46.524485],[9.185589,46.524177],[9.184008,46.52339],[9.183182,46.522731],[9.18284,46.521749],[9.181637,46.52122],[9.181789,46.52109],[9.183219,46.521184],[9.185977,46.521891],[9.183233,46.520543],[9.18588,46.521192],[9.184936,46.52078],[9.184937,46.520652],[9.187053,46.521257],[9.187763,46.521773],[9.188581,46.522074],[9.187588,46.521341],[9.188672,46.521883],[9.188725,46.521803],[9.187841,46.521193],[9.188805,46.521618],[9.188908,46.521547],[9.187836,46.520853],[9.186888,46.520423],[9.18784,46.520603],[9.189176,46.521201],[9.189272,46.521126],[9.187019,46.519995],[9.189289,46.520733],[9.189418,46.520679],[9.188423,46.520277],[9.187291,46.519535],[9.186732,46.519397],[9.186206,46.518942],[9.189059,46.52005],[9.189995,46.520225],[9.188984,46.519811],[9.188099,46.519147],[9.186941,46.51874],[9.186484,46.518344],[9.185702,46.518035],[9.1846,46.517281],[9.184328,46.516958],[9.184359,46.516379],[9.183917,46.515706],[9.183853,46.515119],[9.183676,46.514814],[9.183321,46.514765],[9.18202,46.515322],[9.183076,46.514513],[9.181754,46.513299],[9.181475,46.511494],[9.180429,46.50979],[9.180308,46.509796],[9.180208,46.510023],[9.18008,46.50999],[9.180169,46.50916],[9.179913,46.50877],[9.179954,46.509163],[9.179791,46.50924],[9.179461,46.507952],[9.179625,46.507615],[9.180001,46.507381],[9.179396,46.507465],[9.179521,46.506426],[9.179368,46.506456],[9.179233,46.50684],[9.17911,46.506829],[9.179017,46.505871],[9.178708,46.505416],[9.178693,46.504967],[9.178868,46.504328],[9.178731,46.503407],[9.178025,46.50261],[9.177256,46.500916],[9.175653,46.498938],[9.174571,46.496977],[9.174423,46.496955],[9.172563,46.498114],[9.171261,46.498007],[9.170991,46.497753],[9.171194,46.497261],[9.170647,46.49592],[9.169191,46.494939],[9.169157,46.494568],[9.169581,46.493625],[9.169502,46.492876],[9.170401,46.491988],[9.170553,46.491603],[9.171112,46.488049],[9.170889,46.487639],[9.170327,46.487417],[9.169457,46.487467],[9.168984,46.487682],[9.16878,46.487651],[9.168426,46.487352],[9.168421,46.486946],[9.168241,46.486655],[9.168852,46.486388],[9.16974,46.486432],[9.170139,46.486315],[9.171157,46.48551],[9.170484,46.485217],[9.170457,46.485106],[9.171598,46.485385],[9.170762,46.484795],[9.171422,46.48487],[9.172939,46.484679],[9.173287,46.484481],[9.174181,46.483545],[9.174185,46.483339],[9.173611,46.483214],[9.172638,46.483667],[9.173297,46.482819],[9.174156,46.482507],[9.174442,46.482254],[9.172349,46.482446],[9.172282,46.482362],[9.172542,46.481889],[9.172397,46.481675],[9.171901,46.481941],[9.171388,46.482455],[9.16996,46.483219],[9.169783,46.483161],[9.170872,46.482376],[9.171998,46.481111],[9.172889,46.479814],[9.176402,46.476984],[9.176789,46.476858],[9.177966,46.476919],[9.177104,46.476496],[9.177085,46.476377],[9.178006,46.476519],[9.179624,46.475961],[9.180384,46.475968],[9.181013,46.475563],[9.18129,46.475152],[9.181293,46.474909],[9.180964,46.474286],[9.181799,46.474555],[9.181885,46.474459],[9.181727,46.474171],[9.181847,46.474025],[9.182754,46.474034],[9.18271,46.473815],[9.181703,46.473574],[9.18152,46.47343],[9.182328,46.472805],[9.182245,46.472632],[9.180851,46.473349],[9.180473,46.473311],[9.18043,46.473151],[9.180631,46.472713],[9.180411,46.472216],[9.180493,46.471478],[9.181992,46.471058],[9.183135,46.470223],[9.185601,46.469619],[9.186088,46.469072],[9.186215,46.469107],[9.186272,46.469392],[9.186398,46.469393],[9.186385,46.46889],[9.186585,46.46808],[9.187142,46.467393],[9.187414,46.466697],[9.187159,46.465878],[9.186842,46.465467],[9.186278,46.465408],[9.185558,46.465558],[9.185432,46.465399],[9.186685,46.46485],[9.187572,46.464299],[9.187759,46.464026],[9.187886,46.463285],[9.188514,46.462795],[9.189962,46.462786],[9.190948,46.463148],[9.191852,46.462744],[9.192984,46.460723],[9.19325,46.460007],[9.193126,46.459396],[9.193519,46.458746],[9.195662,46.457348],[9.197925,46.455201],[9.199031,46.452717],[9.199216,46.451935],[9.200461,46.448581],[9.20127,46.447734],[9.200587,46.447381],[9.200544,46.447174],[9.200765,46.446936],[9.201683,46.44702],[9.200765,46.446936],[9.201081,46.446683],[9.201692,46.444413],[9.202298,46.4429],[9.202631,46.442418],[9.203074,46.441159],[9.203061,46.440503],[9.203503,46.439447],[9.203259,46.438101],[9.203801,46.437519],[9.204008,46.436187],[9.204807,46.434951],[9.204981,46.434999],[9.204961,46.435562],[9.20509,46.436001],[9.205336,46.436045],[9.205592,46.435191],[9.205397,46.434294],[9.205563,46.434274],[9.205781,46.434633],[9.206532,46.435131],[9.207481,46.435358],[9.20819,46.435801],[9.207139,46.436633],[9.207632,46.436541],[9.208285,46.437117],[9.209483,46.437179],[9.207387,46.437346],[9.207324,46.437467],[9.20947,46.437568],[9.210325,46.437395],[9.210705,46.436991],[9.211369,46.436822],[9.211436,46.436993],[9.210874,46.437775],[9.211014,46.437874],[9.21199,46.43676],[9.211999,46.436501],[9.211723,46.436099],[9.211809,46.435732],[9.211939,46.435667],[9.212027,46.435724],[9.21196,46.43599],[9.212331,46.436463],[9.212312,46.436777],[9.211941,46.4375],[9.212115,46.437565],[9.212749,46.436543],[9.212869,46.435951],[9.212768,46.435556],[9.213105,46.434669],[9.21326,46.434717],[9.213056,46.435311],[9.213192,46.435523],[9.214272,46.43572],[9.215618,46.435674],[9.2158,46.43556],[9.215704,46.434803],[9.215934,46.434431],[9.214609,46.434942],[9.21445,46.434825],[9.214495,46.434185],[9.214587,46.433992],[9.215193,46.433571],[9.215838,46.432414],[9.2163,46.432056],[9.214544,46.432502],[9.214472,46.432374],[9.215324,46.431551],[9.213874,46.431917],[9.213693,46.431863],[9.215504,46.429808],[9.216159,46.429403],[9.21833,46.428462],[9.219426,46.427807],[9.222542,46.427135],[9.223562,46.426688],[9.223865,46.426422],[9.224446,46.423626],[9.225427,46.421287],[9.225443,46.420154],[9.225608,46.419219],[9.226238,46.418371],[9.226006,46.417429],[9.226047,46.416735],[9.22575,46.416047],[9.225304,46.415819],[9.225757,46.414984],[9.225885,46.413607],[9.226089,46.413575],[9.226076,46.414112],[9.226293,46.414499],[9.226501,46.414711],[9.226724,46.414685],[9.226779,46.414571],[9.226471,46.413935],[9.227216,46.412556],[9.227104,46.412104],[9.227239,46.411298],[9.227136,46.411019],[9.227307,46.41101],[9.227617,46.411678],[9.227781,46.411715],[9.227692,46.410903],[9.2275,46.410553],[9.227529,46.410099],[9.227645,46.41002],[9.227753,46.410516],[9.227979,46.410704],[9.229048,46.410908],[9.228426,46.410544],[9.228401,46.409302],[9.229862,46.406944],[9.229723,46.406052],[9.228597,46.404592],[9.22871,46.40393],[9.228021,46.402425],[9.227983,46.401982],[9.228102,46.401895],[9.228621,46.403248],[9.228827,46.403253],[9.228637,46.402437],[9.228763,46.40181],[9.227973,46.401236],[9.228131,46.401189],[9.228745,46.401516],[9.228893,46.401422],[9.228127,46.400879],[9.2274,46.400688],[9.227285,46.400394],[9.227602,46.400168],[9.228656,46.399929],[9.230232,46.399985],[9.230727,46.399637],[9.230859,46.399035],[9.230629,46.398853],[9.229971,46.398757],[9.229881,46.398522],[9.2303,46.397995],[9.230377,46.396811],[9.231343,46.395737],[9.233035,46.391408],[9.23322,46.390169],[9.233148,46.389347],[9.233847,46.388159],[9.23392,46.387816],[9.233334,46.386629],[9.23326,46.385687],[9.23299,46.384902],[9.232577,46.384502],[9.232849,46.383965],[9.232744,46.383412],[9.231891,46.381876],[9.231807,46.38166],[9.231931,46.381486],[9.23137,46.380202],[9.229873,46.377787],[9.227717,46.375886],[9.226839,46.374655],[9.225355,46.373239],[9.224899,46.372389],[9.224787,46.371731],[9.224956,46.370897],[9.226416,46.368585],[9.227121,46.366581],[9.227175,46.364851],[9.226735,46.363261],[9.226319,46.362502],[9.225708,46.361808],[9.223202,46.360118],[9.221848,46.358775],[9.221278,46.357705],[9.220771,46.355436],[9.2204,46.354527],[9.219762,46.353562],[9.217529,46.350925],[9.216624,46.349145],[9.216296,46.347613],[9.21636,46.345972],[9.216821,46.344436],[9.217698,46.342404],[9.217833,46.341701],[9.217708,46.340564],[9.217335,46.339705],[9.216392,46.338605],[9.211831,46.334928],[9.20988,46.333088],[9.209134,46.33199],[9.208699,46.330898],[9.208569,46.330143],[9.208475,46.327356],[9.208267,46.3261],[9.207503,46.32398],[9.206718,46.322632],[9.2007,46.314663],[9.189259,46.300391],[9.187254,46.298215],[9.183111,46.294548],[9.182323,46.293563],[9.181787,46.292582],[9.181256,46.290922],[9.179388,46.281894],[9.17848,46.280185],[9.176554,46.27809],[9.175931,46.277142],[9.175641,46.276176],[9.175446,46.273252],[9.175113,46.272252],[9.174642,46.271374],[9.174132,46.270727],[9.173328,46.270041],[9.170351,46.268518],[9.169475,46.267856],[9.168829,46.267152],[9.160081,46.254133],[9.158745,46.252537],[9.15567,46.24959],[9.153929,46.248091],[9.152494,46.247084],[9.150348,46.245905],[9.14518,46.24352],[9.143426,46.24241],[9.142227,46.241326],[9.141389,46.240327],[9.140748,46.239317],[9.138194,46.234048],[9.137102,46.232565],[9.1361,46.231598],[9.133924,46.230153],[9.131605,46.229181],[9.129295,46.228615],[9.125902,46.228342],[9.122656,46.228663],[9.10901,46.231467],[9.106052,46.231906],[9.102798,46.231951],[9.091367,46.230969],[9.08957,46.231052],[9.084042,46.231707],[9.081901,46.231698],[9.080144,46.231401],[9.078839,46.230999],[9.072838,46.228438],[9.071082,46.22803],[9.067725,46.227618],[9.065632,46.227114],[9.051259,46.222405],[9.047751,46.221715],[9.042109,46.221197],[9.041141,46.220991],[9.039547,46.220418],[9.038009,46.219399],[9.037023,46.218177],[9.036585,46.216838],[9.036637,46.214954],[9.036462,46.214016],[9.035643,46.212556],[9.034623,46.211606],[9.033679,46.210978],[9.032405,46.21037],[9.027205,46.208873],[9.019317,46.205543],[9.017913,46.204655],[9.016777,46.203716],[9.012761,46.199362],[9.011253,46.197542],[9.009776,46.195495],[9.003074,46.185137],[9.001712,46.183231],[8.999517,46.180701],[8.994562,46.175882],[8.992478,46.173226],[8.991278,46.170967],[8.990606,46.169279],[8.990275,46.167659],[8.990071,46.164818],[8.989759,46.164316],[8.988864,46.163563],[8.988721,46.162734],[8.988543,46.162451],[8.987919,46.16205],[8.965124,46.153126],[8.963473,46.152564],[8.962023,46.152232],[8.959793,46.15182],[8.957342,46.15165],[8.940181,46.152315],[8.938572,46.152138],[8.929774,46.150212],[8.928708,46.150059],[8.928533,46.150164],[8.928404,46.15005],[8.913395,46.152435],[8.912948,46.152512],[8.912837,46.152643],[8.912637,46.152557],[8.907203,46.153427],[8.898349,46.153825],[8.893835,46.153158],[8.893174,46.153138],[8.892091,46.153346],[8.891329,46.153722],[8.891001,46.154132],[8.886176,46.163821],[8.885885,46.164652],[8.88583,46.167133],[8.885664,46.168009],[8.885751,46.1682],[8.885546,46.16842],[8.884297,46.168219],[8.872265,46.168389],[8.869816,46.168596],[8.867221,46.169076],[8.863541,46.170268],[8.858461,46.172792],[8.856301,46.17372],[8.850606,46.175342],[8.848077,46.17622],[8.837616,46.181024],[8.833881,46.182475],[8.831575,46.182994],[8.829235,46.183347],[8.813887,46.185291],[8.811494,46.185454],[8.809554,46.18537],[8.807684,46.185091],[8.804716,46.184184],[8.803206,46.183439],[8.797283,46.17963],[8.793044,46.175764],[8.792519,46.175123],[8.791579,46.173515],[8.790313,46.169653],[8.789573,46.168215],[8.787344,46.165724],[8.784835,46.163683],[8.781987,46.162259],[8.780338,46.161588],[8.779157,46.161286],[8.778108,46.161194],[8.776478,46.161337],[8.774361,46.161795],[8.774181,46.161966],[8.774353,46.162165],[8.774711,46.162092],[8.775028,46.161513],[8.774934,46.160835],[8.774526,46.160531],[8.774263,46.160611],[8.773974,46.161287],[8.773575,46.161475],[8.772218,46.161628],[8.769093,46.161575],[8.769164,46.161438],[8.769692,46.161413],[8.770016,46.161123],[8.769788,46.160844],[8.769778,46.1602],[8.769273,46.159659],[8.769259,46.159382]]}},{"type":"Feature","properties":{"kind":"stop","index":0,"name":"Hotel Waldhaus am See","time":"09:00","detail":"Depart hotel"},"geometry":{"type":"Point","coordinates":[9.5555085,46.7445648]}},{"type":"Feature","properties":{"kind":"stop","index":1,"name":"Wasescha Sport · Savognin","time":"09:28","detail":"Mountain karts until 11:58"},"geometry":{"type":"Point","coordinates":[9.5922141,46.5960964]}},{"type":"Feature","properties":{"kind":"stop","index":2,"name":"Restaurant PappaLoù","time":"","detail":"Lunch option"},"geometry":{"type":"Point","coordinates":[9.7913587,46.4552131]}},{"type":"Feature","properties":{"kind":"stop","index":3,"name":"Bellavista · Maloja","time":"12:50","detail":"Lunch / regroup"},"geometry":{"type":"Point","coordinates":[9.701675,46.4084383]}},{"type":"Feature","properties":{"kind":"stop","index":4,"name":"Shell Stampa","time":"15:00","detail":"Fuel"},"geometry":{"type":"Point","coordinates":[9.584355,46.341229]}},{"type":"Feature","properties":{"kind":"stop","index":5,"name":"Berghaus Splügenpass","time":"16:18","detail":"30-minute break"},"geometry":{"type":"Point","coordinates":[9.3274123,46.5120593]}},{"type":"Feature","properties":{"kind":"stop","index":6,"name":"Ospizio San Bernardino","time":"","detail":"Pass stop"},"geometry":{"type":"Point","coordinates":[9.1705533,46.4960855]}},{"type":"Feature","properties":{"kind":"stop","index":7,"name":"Mesocco parking","time":"","detail":"Roadbook waypoint"},"geometry":{"type":"Point","coordinates":[9.2011886,46.4469956]}},{"type":"Feature","properties":{"kind":"stop","index":8,"name":"Hotel Ascona","time":"18:44","detail":"Via Signor in Croce 1"},"geometry":{"type":"Point","coordinates":[8.7694379,46.1593333]}}]}
