{"type":"FeatureCollection","properties":{"id":"sunday-return","distanceMetres":42573.5,"durationSeconds":2525.3,"generatedBy":"OSRM using OpenStreetMap data"},"features":[{"type":"Feature","properties":{"kind":"route","color":"#263d45"},"geometry":{"type":"LineString","coordinates":[[8.769259,46.159382],[8.769273,46.159659],[8.769778,46.1602],[8.769788,46.160844],[8.770016,46.161123],[8.769692,46.161413],[8.769164,46.161438],[8.769093,46.161575],[8.772218,46.161628],[8.773653,46.16146],[8.774019,46.16123],[8.774406,46.16046],[8.77513,46.160282],[8.775254,46.160361],[8.775184,46.160779],[8.775583,46.161232],[8.778152,46.161067],[8.779589,46.16128],[8.781067,46.161774],[8.785461,46.163611],[8.789573,46.168215],[8.790313,46.169653],[8.791579,46.173515],[8.792519,46.175123],[8.793044,46.175764],[8.797283,46.17963],[8.803206,46.183439],[8.805398,46.184447],[8.808582,46.185251],[8.810482,46.185441],[8.812664,46.18541],[8.829235,46.183347],[8.831575,46.182994],[8.833881,46.182475],[8.837616,46.181024],[8.847835,46.17622],[8.850331,46.175334],[8.856298,46.173612],[8.858569,46.172617],[8.863254,46.170271],[8.864939,46.169623],[8.867173,46.168979],[8.869257,46.16857],[8.871478,46.168339],[8.885016,46.168063],[8.885485,46.16779],[8.885805,46.167327],[8.885841,46.16516],[8.885983,46.164293],[8.888063,46.159853],[8.891057,46.154037],[8.89144,46.153608],[8.892454,46.153022],[8.893428,46.153077],[8.898096,46.153821],[8.906989,46.153446],[8.912588,46.152566],[8.912752,46.152431],[8.912995,46.152505],[8.922131,46.151025],[8.922763,46.150914],[8.922886,46.150789],[8.923062,46.150875],[8.928555,46.149954],[8.938139,46.152037],[8.939494,46.152184],[8.94602,46.15205],[8.946975,46.15172],[8.94772,46.151282],[8.949555,46.149022],[8.950676,46.148514],[8.950921,46.148205],[8.950851,46.14793],[8.950593,46.147743],[8.949362,46.147673],[8.948673,46.147854],[8.948539,46.147687],[8.950259,46.147231],[8.950329,46.14706],[8.947991,46.147512],[8.944844,46.14725],[8.941854,46.146478],[8.936165,46.145761],[8.9347,46.145442],[8.933536,46.145383],[8.932814,46.145197],[8.932691,46.145048],[8.932932,46.14488],[8.933886,46.145007],[8.935889,46.144823],[8.940717,46.145131],[8.941372,46.144896],[8.94139,46.144731],[8.941216,46.14462],[8.93978,46.144688],[8.938551,46.144411],[8.937108,46.143832],[8.936415,46.143691],[8.932826,46.143684],[8.930917,46.143495],[8.929242,46.143152],[8.923378,46.142837],[8.921961,46.142916],[8.919308,46.14271],[8.917844,46.142763],[8.912538,46.143279],[8.910963,46.143563],[8.908371,46.143147],[8.905488,46.143256],[8.904981,46.14313],[8.90456,46.142828],[8.904381,46.14247],[8.90439,46.14204],[8.904516,46.141673],[8.905146,46.140787],[8.905867,46.139997],[8.910624,46.136422],[8.913334,46.135129],[8.914756,46.134271],[8.916659,46.13277],[8.917586,46.131854],[8.91769,46.131364],[8.917149,46.130621],[8.917088,46.130291],[8.917965,46.129325],[8.918107,46.12694],[8.918431,46.125865],[8.918876,46.124966],[8.919267,46.124365],[8.920394,46.123145],[8.923864,46.120534],[8.925318,46.11893],[8.929889,46.111189],[8.930541,46.109743],[8.931114,46.107774],[8.931326,46.106079],[8.931264,46.104085],[8.930982,46.10259],[8.930422,46.100888],[8.929552,46.099095],[8.925293,46.093179],[8.923617,46.090369],[8.92252,46.088076],[8.921478,46.08529],[8.920965,46.082522],[8.921181,46.080639],[8.921985,46.07888],[8.92323,46.077382],[8.926017,46.074876],[8.92717,46.073684],[8.928152,46.072161],[8.928746,46.07034],[8.928807,46.069133],[8.928685,46.068059],[8.927851,46.064416],[8.927699,46.063065],[8.92771,46.061653],[8.928123,46.057999],[8.928015,46.055906],[8.927623,46.054359],[8.927228,46.053362],[8.925248,46.049658],[8.924927,46.048592],[8.924803,46.047555],[8.924945,46.045998],[8.925464,46.044508],[8.926152,46.043357],[8.928259,46.040742],[8.928742,46.039313],[8.928784,46.038414],[8.928627,46.037617],[8.927488,46.035144],[8.927177,46.034061],[8.927177,46.032974],[8.927523,46.031833],[8.928488,46.030237],[8.930422,46.028422],[8.930619,46.027899],[8.930464,46.027474],[8.93083,46.027273],[8.931963,46.02782],[8.935566,46.028739],[8.941825,46.029844],[8.957259,46.032277],[8.959777,46.032457],[8.962524,46.032299],[8.963881,46.032086],[8.965724,46.031439],[8.966715,46.030805],[8.966884,46.030336],[8.967578,46.029738],[8.967276,46.029388],[8.96571,46.028262],[8.965568,46.026472],[8.963348,46.0248],[8.961262,46.024864],[8.960663,46.024672],[8.958785,46.021735],[8.956795,46.018284],[8.960991,46.017727]]}},{"type":"Feature","properties":{"kind":"stop","index":0,"name":"Hotel Ascona","time":"08:15","detail":"Suggested departure"},"geometry":{"type":"Point","coordinates":[8.7694379,46.1593333]}},{"type":"Feature","properties":{"kind":"stop","index":1,"name":"Europcar / AMAG Lugano","time":"10:00","detail":"Return · Via Monte Boglia 24"},"geometry":{"type":"Point","coordinates":[8.9609335,46.0175167]}}]}
