{"type":"FeatureCollection","properties":{"id":"tuesday-warmup","distanceMetres":343148.3,"durationSeconds":23881,"generatedBy":"OSRM using OpenStreetMap data"},"features":[{"type":"Feature","properties":{"kind":"route","color":"#d39b31"},"geometry":{"type":"LineString","coordinates":[[7.455864,43.765403],[7.454847,43.766579],[7.454295,43.766829],[7.453773,43.767367],[7.453299,43.768144],[7.452253,43.768655],[7.451706,43.769113],[7.451457,43.76911],[7.451044,43.768888],[7.450944,43.768684],[7.45127,43.767668],[7.451114,43.766859],[7.450852,43.766448],[7.45114,43.765222],[7.450724,43.764364],[7.449628,43.763137],[7.44852,43.762182],[7.44733,43.760302],[7.446282,43.759934],[7.44553,43.759229],[7.444307,43.758744],[7.444054,43.75832],[7.444167,43.757299],[7.443855,43.757046],[7.442765,43.756841],[7.441901,43.756851],[7.440901,43.756523],[7.439929,43.756635],[7.439026,43.756482],[7.438857,43.756624],[7.43868,43.757398],[7.438076,43.758006],[7.438028,43.758498],[7.437652,43.758678],[7.437236,43.758557],[7.436527,43.758088],[7.435927,43.75804],[7.435045,43.758262],[7.434158,43.757892],[7.433623,43.757819],[7.43274,43.756908],[7.432357,43.756736],[7.42983,43.757474],[7.428802,43.757502],[7.42864,43.757344],[7.428814,43.756466],[7.428427,43.755786],[7.42838,43.755313],[7.425787,43.754346],[7.424933,43.754691],[7.424412,43.755114],[7.423947,43.756171],[7.423604,43.756226],[7.422652,43.755533],[7.421608,43.753976],[7.420649,43.753201],[7.420095,43.752494],[7.419501,43.752346],[7.418652,43.752676],[7.417846,43.752707],[7.416523,43.751692],[7.413473,43.750898],[7.412875,43.750964],[7.41257,43.750674],[7.410498,43.749784],[7.408888,43.749595],[7.407423,43.749699],[7.406772,43.750229],[7.405174,43.750669],[7.404691,43.75108],[7.40419,43.751025],[7.403147,43.750426],[7.402791,43.749223],[7.402296,43.748154],[7.400962,43.746523],[7.400639,43.745824],[7.4004,43.745584],[7.399018,43.74539],[7.397659,43.745737],[7.396092,43.74562],[7.395268,43.745308],[7.394642,43.744878],[7.394059,43.744759],[7.393642,43.744452],[7.392916,43.744215],[7.392102,43.744355],[7.391141,43.745153],[7.390995,43.745397],[7.391012,43.745744],[7.390605,43.745879],[7.389235,43.746869],[7.387702,43.747405],[7.386566,43.747612],[7.384549,43.747371],[7.382503,43.746774],[7.38207,43.746496],[7.381389,43.745613],[7.3809,43.745252],[7.3791,43.744466],[7.37671,43.743869],[7.374757,43.743884],[7.370608,43.74428],[7.369044,43.744595],[7.366376,43.745406],[7.365146,43.745543],[7.363758,43.745424],[7.359787,43.744607],[7.352751,43.743796],[7.351415,43.743837],[7.349034,43.744243],[7.347821,43.744229],[7.346691,43.744022],[7.344322,43.743227],[7.343263,43.743035],[7.34209,43.743091],[7.339407,43.743677],[7.338216,43.743691],[7.336953,43.743406],[7.334405,43.742253],[7.333159,43.741829],[7.328715,43.741138],[7.327558,43.7408],[7.326335,43.740187],[7.323204,43.738266],[7.319477,43.735612],[7.317699,43.734586],[7.315296,43.733707],[7.310938,43.7327],[7.306517,43.732151],[7.302039,43.732135],[7.29707,43.732734],[7.292821,43.732747],[7.287001,43.733783],[7.285162,43.733845],[7.282155,43.733341],[7.280393,43.73282],[7.278517,43.732087],[7.277686,43.731909],[7.276583,43.731878],[7.273033,43.732123],[7.269207,43.731943],[7.268296,43.731669],[7.267669,43.731332],[7.266121,43.72996],[7.265145,43.72938],[7.264162,43.729092],[7.261275,43.728674],[7.259878,43.728687],[7.258912,43.728868],[7.258039,43.729175],[7.257173,43.729689],[7.25634,43.730622],[7.255418,43.732904],[7.254944,43.733726],[7.254348,43.734248],[7.253543,43.73462],[7.250293,43.735195],[7.247991,43.735347],[7.245838,43.735214],[7.243571,43.734832],[7.240559,43.73376],[7.238058,43.732295],[7.236409,43.730864],[7.233501,43.727852],[7.2307,43.72588],[7.228856,43.724041],[7.227983,43.723422],[7.226338,43.72289],[7.218503,43.721958],[7.217294,43.721412],[7.215511,43.720137],[7.213986,43.718758],[7.213441,43.717859],[7.213312,43.716927],[7.213509,43.713728],[7.213174,43.712489],[7.212358,43.711418],[7.210858,43.710233],[7.20934,43.709579],[7.207465,43.709308],[7.206307,43.70945],[7.20322,43.710311],[7.200974,43.710551],[7.199637,43.710517],[7.193397,43.7086],[7.191536,43.708109],[7.190146,43.70791],[7.189384,43.707464],[7.189249,43.706882],[7.190263,43.704913],[7.190324,43.704018],[7.189764,43.702954],[7.18948,43.702832],[7.189153,43.703007],[7.189058,43.70319],[7.189172,43.703956],[7.189113,43.70456],[7.188268,43.706929],[7.186362,43.719946],[7.186169,43.722669],[7.185808,43.724311],[7.184755,43.731935],[7.184822,43.732911],[7.185006,43.733222],[7.184781,43.733379],[7.184474,43.734251],[7.184212,43.735948],[7.184151,43.737679],[7.184257,43.739057],[7.184498,43.740363],[7.184977,43.741944],[7.185967,43.744116],[7.186654,43.745217],[7.188057,43.747022],[7.189024,43.747579],[7.189019,43.747929],[7.189191,43.7482],[7.19699,43.755739],[7.197556,43.756164],[7.197953,43.756273],[7.198003,43.756706],[7.198801,43.757662],[7.206651,43.765344],[7.213075,43.771343],[7.213777,43.771654],[7.213891,43.772114],[7.215759,43.774525],[7.216862,43.77658],[7.217597,43.778703],[7.21792,43.780729],[7.217845,43.783241],[7.217285,43.785595],[7.216367,43.787719],[7.215709,43.788812],[7.214331,43.790626],[7.214282,43.791095],[7.213308,43.791447],[7.212325,43.792206],[7.20479,43.798709],[7.204368,43.79918],[7.204271,43.799704],[7.20363,43.799829],[7.203011,43.800221],[7.191386,43.810255],[7.190078,43.811859],[7.189221,43.813406],[7.188474,43.815295],[7.188177,43.816649],[7.188018,43.81888],[7.188171,43.81939],[7.188578,43.819806],[7.18836,43.820041],[7.18855,43.820833],[7.188582,43.821702],[7.18898,43.822125],[7.18874,43.822542],[7.193118,43.834677],[7.193717,43.835402],[7.193491,43.835807],[7.193963,43.837097],[7.194617,43.838717],[7.195054,43.839062],[7.194906,43.839726],[7.197433,43.846628],[7.197803,43.848575],[7.198178,43.84931],[7.198174,43.850042],[7.198392,43.850895],[7.198268,43.852388],[7.198352,43.853556],[7.197817,43.854858],[7.197146,43.855544],[7.196832,43.856113],[7.196939,43.857069],[7.196831,43.857834],[7.197387,43.858709],[7.198344,43.859468],[7.198773,43.860521],[7.199023,43.860652],[7.198789,43.861093],[7.198738,43.861761],[7.198954,43.863256],[7.198933,43.865277],[7.199137,43.866794],[7.19862,43.869503],[7.198011,43.870841],[7.196499,43.871744],[7.194795,43.873601],[7.193102,43.874437],[7.19296,43.875056],[7.193162,43.875623],[7.193165,43.876164],[7.192901,43.877076],[7.192128,43.877771],[7.191094,43.878398],[7.190203,43.879401],[7.189993,43.879893],[7.189937,43.880532],[7.19033,43.881893],[7.190657,43.882535],[7.190716,43.882846],[7.19056,43.883352],[7.190844,43.884363],[7.190329,43.885565],[7.189987,43.886979],[7.189384,43.888144],[7.188651,43.889189],[7.188664,43.889525],[7.189436,43.891275],[7.189338,43.891745],[7.18875,43.89264],[7.188658,43.893052],[7.188979,43.894206],[7.189335,43.894573],[7.190574,43.895374],[7.191099,43.896099],[7.191227,43.896634],[7.190909,43.897324],[7.189599,43.898283],[7.18888,43.899777],[7.188818,43.900273],[7.188971,43.900639],[7.189322,43.900972],[7.190982,43.901803],[7.191432,43.902589],[7.191711,43.902823],[7.192777,43.903082],[7.19445,43.903178],[7.195839,43.903514],[7.196301,43.903721],[7.196568,43.904191],[7.195732,43.905796],[7.195848,43.906453],[7.195694,43.907344],[7.195233,43.908131],[7.19396,43.909117],[7.1932,43.910326],[7.192817,43.910475],[7.192411,43.910381],[7.191629,43.909771],[7.191015,43.908972],[7.18962,43.908255],[7.189065,43.908178],[7.18865,43.908345],[7.188047,43.908838],[7.188189,43.909387],[7.188175,43.909857],[7.188018,43.91009],[7.187093,43.910784],[7.185822,43.911417],[7.185792,43.912013],[7.185901,43.912266],[7.186882,43.912761],[7.18763,43.91296],[7.188124,43.913496],[7.188166,43.913723],[7.188007,43.914153],[7.187272,43.915049],[7.18725,43.915374],[7.187458,43.915645],[7.188869,43.916504],[7.189465,43.917392],[7.189553,43.917711],[7.189491,43.918594],[7.188204,43.91947],[7.187823,43.920628],[7.186645,43.921189],[7.186004,43.922252],[7.185879,43.9227],[7.18633,43.923419],[7.186403,43.923795],[7.186464,43.924587],[7.186343,43.924873],[7.185477,43.925451],[7.183089,43.92616],[7.182236,43.926778],[7.181734,43.927245],[7.181284,43.927958],[7.180844,43.928761],[7.180663,43.929659],[7.180295,43.930078],[7.177142,43.931338],[7.17605,43.931593],[7.175477,43.931973],[7.174636,43.932141],[7.174221,43.932355],[7.173186,43.933639],[7.172364,43.934015],[7.171938,43.934373],[7.171745,43.934947],[7.171801,43.935578],[7.171662,43.936495],[7.170874,43.93758],[7.170528,43.93763],[7.169517,43.937162],[7.167559,43.937075],[7.166747,43.93743],[7.165469,43.937712],[7.165205,43.93831],[7.164899,43.938526],[7.162495,43.938372],[7.161917,43.938584],[7.161151,43.939139],[7.161054,43.939635],[7.161463,43.941403],[7.162514,43.942714],[7.163012,43.944236],[7.163023,43.944931],[7.162661,43.945472],[7.16066,43.946875],[7.160166,43.94763],[7.160318,43.950161],[7.157987,43.95626],[7.157328,43.957246],[7.15686,43.957712],[7.156382,43.958599],[7.156205,43.959386],[7.155164,43.960094],[7.154731,43.960984],[7.153629,43.962137],[7.153551,43.962437],[7.153698,43.963373],[7.15259,43.964194],[7.152148,43.965312],[7.150404,43.96809],[7.14826,43.970055],[7.146333,43.972359],[7.144572,43.972801],[7.14247,43.972748],[7.141405,43.973039],[7.14115,43.973223],[7.140288,43.974443],[7.13938,43.975271],[7.139467,43.975652],[7.139923,43.976172],[7.140228,43.976327],[7.14048,43.977287],[7.140496,43.977889],[7.139819,43.979563],[7.139319,43.981881],[7.138883,43.982616],[7.136755,43.985308],[7.136457,43.985943],[7.136136,43.98716],[7.136362,43.988358],[7.136422,43.989768],[7.137125,43.991528],[7.136767,43.993956],[7.137132,43.995443],[7.13774,43.996545],[7.137694,43.997553],[7.137528,43.998038],[7.137065,43.998649],[7.136986,43.999098],[7.137297,43.99999],[7.138306,44.00203],[7.13832,44.00242],[7.138054,44.00347],[7.13651,44.006012],[7.13591,44.006623],[7.134634,44.007546],[7.132776,44.009331],[7.13221,44.009975],[7.131876,44.010635],[7.131639,44.013601],[7.131089,44.014803],[7.13096,44.015485],[7.131763,44.019021],[7.131253,44.022077],[7.131273,44.023615],[7.131767,44.025181],[7.131273,44.026466],[7.131111,44.028009],[7.131199,44.02846],[7.131964,44.030021],[7.13215,44.030702],[7.131973,44.03283],[7.132057,44.034167],[7.131557,44.034987],[7.130488,44.035785],[7.128179,44.036316],[7.127825,44.036845],[7.1275,44.038354],[7.127253,44.038862],[7.127404,44.039263],[7.127869,44.03976],[7.12833,44.040017],[7.12866,44.040548],[7.12905,44.042171],[7.128931,44.042401],[7.128509,44.042647],[7.128198,44.043541],[7.128718,44.044939],[7.129475,44.046046],[7.129725,44.047127],[7.129002,44.048658],[7.128298,44.049405],[7.128154,44.049788],[7.127095,44.050713],[7.126171,44.05121],[7.125465,44.052118],[7.124569,44.052508],[7.124386,44.05334],[7.124048,44.05349],[7.123325,44.053479],[7.121781,44.054614],[7.120574,44.054753],[7.119559,44.054682],[7.119052,44.05446],[7.118821,44.054567],[7.118781,44.0549],[7.11918,44.055296],[7.119425,44.055771],[7.118838,44.056412],[7.11898,44.057221],[7.118408,44.057884],[7.118634,44.058636],[7.118302,44.059126],[7.118191,44.059582],[7.117733,44.059989],[7.117694,44.06074],[7.118042,44.061173],[7.11799,44.062013],[7.117018,44.062684],[7.117187,44.063057],[7.117104,44.063706],[7.117259,44.064436],[7.11696,44.064614],[7.116353,44.06456],[7.114557,44.065196],[7.114483,44.065324],[7.11462,44.065944],[7.114968,44.066408],[7.114775,44.066725],[7.114753,44.067132],[7.114255,44.068028],[7.113851,44.068273],[7.111872,44.06876],[7.111312,44.069458],[7.11071,44.069848],[7.109575,44.071257],[7.109638,44.073124],[7.108946,44.074591],[7.107545,44.076159],[7.106475,44.076861],[7.105393,44.077316],[7.104837,44.077817],[7.105319,44.079679],[7.106571,44.080398],[7.106862,44.081103],[7.104893,44.083986],[7.106039,44.084465],[7.106251,44.084706],[7.106139,44.086961],[7.1068,44.087359],[7.107438,44.087967],[7.107724,44.088971],[7.107462,44.090134],[7.107769,44.091005],[7.10665,44.09327],[7.106208,44.095569],[7.105819,44.096071],[7.10503,44.096526],[7.104511,44.097617],[7.103688,44.098572],[7.103621,44.099494],[7.102976,44.102397],[7.102602,44.103811],[7.102164,44.10462],[7.101895,44.105724],[7.101891,44.106137],[7.102114,44.106739],[7.102061,44.107846],[7.101906,44.108414],[7.10139,44.108996],[7.098944,44.110231],[7.097877,44.111076],[7.097458,44.111774],[7.097251,44.11258],[7.095505,44.11482],[7.092808,44.116106],[7.092506,44.116395],[7.09239,44.116903],[7.092736,44.117809],[7.092748,44.118141],[7.092111,44.120019],[7.091914,44.121922],[7.092352,44.12409],[7.093556,44.125349],[7.094401,44.126771],[7.094928,44.127148],[7.09629,44.127679],[7.097562,44.12878],[7.099565,44.129857],[7.100096,44.130497],[7.10035,44.131531],[7.100918,44.132479],[7.101022,44.132969],[7.100514,44.135174],[7.099949,44.13641],[7.10018,44.138193],[7.098625,44.140238],[7.098601,44.14099],[7.09837,44.141704],[7.097734,44.14282],[7.097664,44.143437],[7.098068,44.145211],[7.097753,44.145766],[7.096888,44.146551],[7.096332,44.147569],[7.096594,44.14928],[7.096489,44.14997],[7.095904,44.150634],[7.094946,44.151173],[7.094078,44.151931],[7.093919,44.153204],[7.093614,44.153672],[7.091677,44.154598],[7.090433,44.156053],[7.090328,44.156846],[7.090857,44.158457],[7.090877,44.15892],[7.090261,44.160696],[7.090171,44.162194],[7.089583,44.163192],[7.088536,44.16422],[7.088136,44.16507],[7.088047,44.16638],[7.087681,44.167843],[7.085845,44.170392],[7.084518,44.171498],[7.082654,44.172667],[7.082223,44.172827],[7.080501,44.172983],[7.079526,44.173964],[7.078127,44.174835],[7.074387,44.17611],[7.07349,44.176232],[7.07197,44.176161],[7.069749,44.17654],[7.069203,44.176747],[7.067998,44.177373],[7.066104,44.178698],[7.063008,44.179706],[7.059731,44.181494],[7.059065,44.18192],[7.057778,44.183151],[7.055464,44.184262],[7.054755,44.18486],[7.053868,44.185088],[7.04958,44.185465],[7.04768,44.186151],[7.046582,44.186354],[7.045996,44.187195],[7.044651,44.187585],[7.042769,44.188425],[7.040531,44.188965],[7.039222,44.189049],[7.033133,44.19034],[7.031276,44.190552],[7.029814,44.190513],[7.02814,44.190141],[7.025847,44.189305],[7.025065,44.189182],[7.022548,44.189639],[7.01938,44.18972],[7.018413,44.189927],[7.01657,44.191007],[7.013214,44.192415],[7.010337,44.194098],[7.008213,44.19465],[7.007789,44.194955],[7.006852,44.196026],[7.005269,44.197267],[7.004516,44.197688],[7.003675,44.197959],[7.001609,44.198328],[6.999115,44.199704],[6.996263,44.200297],[6.99466,44.201125],[6.991556,44.201413],[6.990871,44.201621],[6.990209,44.202011],[6.988912,44.203136],[6.987866,44.203747],[6.985628,44.204763],[6.983365,44.206621],[6.982875,44.206766],[6.980264,44.206986],[6.979662,44.20729],[6.978814,44.208075],[6.977066,44.209187],[6.975302,44.210786],[6.973843,44.213091],[6.971508,44.214985],[6.971221,44.215404],[6.970974,44.216161],[6.97061,44.216675],[6.968219,44.218763],[6.967727,44.219363],[6.966493,44.220286],[6.963201,44.224679],[6.962515,44.225004],[6.960443,44.225383],[6.959927,44.225636],[6.959081,44.227065],[6.958402,44.227896],[6.95804,44.228815],[6.95771,44.229272],[6.953954,44.231706],[6.949201,44.233763],[6.947323,44.235177],[6.945075,44.236582],[6.944515,44.237148],[6.943943,44.238248],[6.943544,44.238702],[6.943002,44.238996],[6.941314,44.23954],[6.940009,44.240503],[6.939624,44.240487],[6.939613,44.240208],[6.940197,44.239795],[6.940977,44.238937],[6.942089,44.238211],[6.941879,44.237987],[6.941472,44.238067],[6.937963,44.240707],[6.937723,44.242099],[6.93727,44.242794],[6.936638,44.243404],[6.935019,44.244633],[6.934152,44.244698],[6.933865,44.244843],[6.933804,44.245149],[6.934051,44.245867],[6.933888,44.246211],[6.932685,44.246878],[6.932258,44.247279],[6.931448,44.247601],[6.930779,44.248104],[6.929451,44.248788],[6.927343,44.251181],[6.926417,44.252854],[6.924797,44.2542],[6.923587,44.255924],[6.922437,44.256711],[6.922525,44.256868],[6.923983,44.257448],[6.926019,44.25861],[6.92513,44.259314],[6.923541,44.259638],[6.922311,44.260157],[6.921615,44.261067],[6.921632,44.261459],[6.921402,44.261752],[6.921633,44.262852],[6.921405,44.263513],[6.92157,44.265608],[6.920828,44.267647],[6.921183,44.26923],[6.920829,44.270329],[6.919802,44.271022],[6.917892,44.271825],[6.91735,44.272508],[6.916972,44.273348],[6.916626,44.273678],[6.915098,44.274315],[6.912502,44.275907],[6.910709,44.276436],[6.910276,44.277073],[6.909524,44.277685],[6.908185,44.278111],[6.907132,44.278989],[6.906616,44.279291],[6.905541,44.279617],[6.903809,44.28068],[6.903219,44.281657],[6.90226,44.282652],[6.902014,44.283208],[6.902036,44.28354],[6.901596,44.283853],[6.900536,44.285376],[6.900367,44.286547],[6.899256,44.286868],[6.899468,44.287337],[6.899292,44.287987],[6.899536,44.288369],[6.899409,44.288956],[6.89999,44.289832],[6.899857,44.290573],[6.900644,44.290784],[6.900987,44.291105],[6.901111,44.291553],[6.901053,44.292129],[6.901348,44.292349],[6.901341,44.292577],[6.901725,44.293368],[6.901808,44.295117],[6.901631,44.295698],[6.901747,44.296575],[6.901554,44.297204],[6.901552,44.297808],[6.901721,44.298713],[6.901928,44.299125],[6.901814,44.29992],[6.902611,44.3012],[6.903289,44.301568],[6.903396,44.302191],[6.903211,44.302923],[6.903407,44.30384],[6.904043,44.304667],[6.904668,44.305198],[6.904508,44.305392],[6.903923,44.305414],[6.903272,44.305727],[6.905028,44.305667],[6.903188,44.306281],[6.90292,44.306962],[6.902491,44.30746],[6.902387,44.307907],[6.902086,44.308366],[6.901978,44.308916],[6.901124,44.310108],[6.90097,44.310522],[6.900954,44.311087],[6.900678,44.311964],[6.900454,44.312274],[6.900946,44.31402],[6.900381,44.315962],[6.89933,44.317246],[6.898803,44.317648],[6.897834,44.318095],[6.897112,44.318652],[6.895539,44.31903],[6.892804,44.320317],[6.88972,44.320669],[6.886901,44.321844],[6.884176,44.32358],[6.883509,44.323542],[6.882665,44.322933],[6.882281,44.322472],[6.881111,44.322019],[6.878822,44.321438],[6.877121,44.320758],[6.875308,44.320338],[6.874819,44.320099],[6.872061,44.319698],[6.87022,44.319595],[6.866438,44.319928],[6.866325,44.320063],[6.868433,44.320121],[6.866449,44.320488],[6.865331,44.320991],[6.863889,44.3211],[6.861407,44.320936],[6.861079,44.321247],[6.860347,44.321477],[6.859973,44.322022],[6.859232,44.322638],[6.860047,44.322282],[6.860954,44.322082],[6.861541,44.321576],[6.862409,44.321987],[6.862896,44.322463],[6.863891,44.322505],[6.863946,44.322595],[6.862602,44.323028],[6.861816,44.322721],[6.861588,44.323124],[6.861094,44.323466],[6.859796,44.323743],[6.858963,44.324299],[6.858092,44.324283],[6.856049,44.325097],[6.855141,44.325996],[6.854363,44.325981],[6.853501,44.326156],[6.852266,44.326648],[6.853267,44.326674],[6.854164,44.327164],[6.855231,44.327481],[6.857353,44.326963],[6.860459,44.327114],[6.861161,44.32677],[6.861784,44.326639],[6.862266,44.326083],[6.862478,44.326087],[6.86217,44.326799],[6.861831,44.327141],[6.860886,44.327689],[6.859591,44.327972],[6.859715,44.328092],[6.86029,44.328162],[6.861928,44.328029],[6.863013,44.327418],[6.863199,44.327137],[6.863898,44.32711],[6.864977,44.326796],[6.865022,44.327042],[6.863848,44.327679],[6.863632,44.328233],[6.863038,44.328463],[6.862747,44.328802],[6.863848,44.328931],[6.864687,44.328794],[6.865555,44.329405],[6.867662,44.33018],[6.868027,44.329788],[6.868193,44.329167],[6.867989,44.32874],[6.868156,44.328673],[6.86878,44.330256],[6.868603,44.331189],[6.867932,44.331785],[6.866703,44.331606],[6.866541,44.331736],[6.867391,44.332231],[6.867336,44.332734],[6.867495,44.332893],[6.867978,44.332939],[6.86858,44.332772],[6.868539,44.333221],[6.868234,44.333379],[6.866965,44.333267],[6.865877,44.33374],[6.864594,44.333741],[6.863522,44.3339],[6.86105,44.331879],[6.860436,44.331616],[6.859411,44.332068],[6.857937,44.332356],[6.856086,44.33239],[6.854778,44.3321],[6.853417,44.332443],[6.85286,44.332453],[6.852038,44.332793],[6.851066,44.332797],[6.85061,44.333042],[6.850375,44.333549],[6.85034,44.334325],[6.850662,44.335544],[6.850567,44.335959],[6.85011,44.336323],[6.850432,44.33699],[6.850391,44.337549],[6.850528,44.338026],[6.850075,44.338963],[6.850051,44.339678],[6.849521,44.340301],[6.848775,44.340266],[6.848086,44.34048],[6.847449,44.34106],[6.847318,44.34159],[6.846737,44.341719],[6.84591,44.342325],[6.844458,44.34187],[6.843208,44.34071],[6.84249,44.340514],[6.841253,44.340571],[6.8403,44.340916],[6.839062,44.340586],[6.838339,44.340638],[6.83803,44.340852],[6.837772,44.340871],[6.836778,44.340406],[6.836044,44.340452],[6.835382,44.340122],[6.83403,44.34003],[6.832682,44.34025],[6.83232,44.3405],[6.832037,44.340529],[6.831658,44.340202],[6.831195,44.339464],[6.830941,44.3386],[6.830581,44.338166],[6.82916,44.337044],[6.8277,44.336256],[6.826862,44.33533],[6.825865,44.334489],[6.82594,44.334144],[6.825798,44.333653],[6.826284,44.333244],[6.826458,44.332852],[6.826128,44.332363],[6.826239,44.331898],[6.826138,44.331725],[6.825181,44.331264],[6.824328,44.331017],[6.821805,44.330999],[6.820989,44.330508],[6.819956,44.33069],[6.819074,44.33077],[6.818639,44.330655],[6.817403,44.330844],[6.816671,44.330496],[6.815832,44.330447],[6.814073,44.330553],[6.81286,44.330893],[6.811437,44.330752],[6.810897,44.330455],[6.810339,44.329172],[6.809254,44.328384],[6.808911,44.32788],[6.807524,44.326616],[6.807382,44.326744],[6.807948,44.3276],[6.807769,44.328598],[6.80811,44.329634],[6.808586,44.330187],[6.810548,44.331792],[6.810757,44.332155],[6.810799,44.332447],[6.810653,44.332692],[6.810473,44.333983],[6.810065,44.334756],[6.809541,44.33534],[6.807772,44.336284],[6.805214,44.336588],[6.801746,44.336697],[6.80129,44.336819],[6.801328,44.337091],[6.801891,44.337655],[6.802478,44.338766],[6.8021,44.339438],[6.801372,44.339943],[6.801998,44.341435],[6.802057,44.342484],[6.801831,44.342993],[6.801181,44.343722],[6.800418,44.343964],[6.799952,44.344266],[6.798723,44.344276],[6.798281,44.344627],[6.797992,44.345218],[6.797689,44.345238],[6.797634,44.345077],[6.797803,44.344733],[6.797598,44.344634],[6.797277,44.344134],[6.79683,44.343902],[6.797029,44.343848],[6.797601,44.344062],[6.798171,44.343894],[6.798205,44.343769],[6.796094,44.343035],[6.795706,44.342742],[6.795625,44.342477],[6.795433,44.342495],[6.795207,44.342877],[6.794667,44.343315],[6.79467,44.343869],[6.794376,44.343861],[6.794216,44.343093],[6.794499,44.342067],[6.794752,44.34178],[6.794834,44.341396],[6.794361,44.341041],[6.793606,44.340746],[6.793533,44.340194],[6.793342,44.339954],[6.792956,44.340037],[6.791509,44.340799],[6.78995,44.340744],[6.789138,44.340881],[6.789879,44.340461],[6.791008,44.340139],[6.791493,44.33982],[6.791695,44.338834],[6.792003,44.338255],[6.791827,44.337959],[6.789625,44.337785],[6.788921,44.337604],[6.788335,44.33773],[6.78769,44.337516],[6.787324,44.337611],[6.786041,44.338426],[6.785512,44.338354],[6.784982,44.338455],[6.784622,44.338019],[6.784331,44.338025],[6.784108,44.338528],[6.783046,44.338999],[6.782491,44.339607],[6.782726,44.340265],[6.782531,44.341245],[6.782141,44.341946],[6.782251,44.342691],[6.783142,44.343179],[6.784023,44.343061],[6.784396,44.343152],[6.784661,44.343648],[6.784429,44.344121],[6.784557,44.344884],[6.785593,44.34499],[6.786401,44.345713],[6.787136,44.346946],[6.786996,44.347228],[6.785669,44.348347],[6.785484,44.348292],[6.785596,44.347892],[6.785441,44.347669],[6.785169,44.347714],[6.784682,44.348081],[6.784201,44.348153],[6.784865,44.34845],[6.78491,44.34912],[6.785336,44.349859],[6.785138,44.349843],[6.78441,44.348994],[6.783828,44.348636],[6.783576,44.348713],[6.783452,44.350175],[6.7839,44.350442],[6.78448,44.350529],[6.785113,44.351556],[6.784863,44.351731],[6.784315,44.351405],[6.783874,44.351539],[6.783019,44.351539],[6.782695,44.351692],[6.782698,44.351985],[6.783425,44.352891],[6.783605,44.35334],[6.783292,44.354487],[6.782733,44.354958],[6.782564,44.355365],[6.782692,44.356049],[6.783353,44.35688],[6.783632,44.357932],[6.78347,44.358287],[6.783015,44.358583],[6.782956,44.3588],[6.784446,44.360014],[6.78552,44.360305],[6.785634,44.360587],[6.786079,44.361031],[6.78684,44.361265],[6.787508,44.361859],[6.788166,44.363352],[6.787921,44.364545],[6.788445,44.365085],[6.788697,44.36603],[6.788394,44.366775],[6.787577,44.367452],[6.7869,44.368799],[6.786796,44.368737],[6.786754,44.367719],[6.786895,44.367314],[6.786721,44.366893],[6.786814,44.366523],[6.786607,44.366519],[6.786374,44.367299],[6.785915,44.368204],[6.785432,44.368706],[6.78529,44.369118],[6.784854,44.369308],[6.783963,44.37016],[6.782714,44.370873],[6.7822,44.37163],[6.781887,44.372756],[6.782491,44.373619],[6.782535,44.375016],[6.782288,44.375348],[6.782041,44.376092],[6.781309,44.376724],[6.781135,44.377071],[6.781221,44.377584],[6.781688,44.377973],[6.781889,44.378472],[6.78197,44.379616],[6.781491,44.380961],[6.781585,44.38157],[6.781507,44.381836],[6.781297,44.381816],[6.781204,44.381457],[6.780811,44.381079],[6.780737,44.380612],[6.780536,44.380659],[6.780354,44.381181],[6.780458,44.381576],[6.780277,44.382517],[6.780605,44.382852],[6.780411,44.383274],[6.780524,44.383687],[6.779884,44.384679],[6.780354,44.385012],[6.780384,44.386036],[6.781027,44.38686],[6.780607,44.388085],[6.78057,44.388911],[6.780776,44.389261],[6.78063,44.38926],[6.780219,44.388817],[6.780118,44.388124],[6.779916,44.387827],[6.779954,44.387539],[6.779794,44.387543],[6.779698,44.387799],[6.779778,44.388214],[6.77967,44.38841],[6.779117,44.388664],[6.778967,44.388869],[6.779456,44.389345],[6.779442,44.389455],[6.778292,44.388942],[6.778261,44.388729],[6.778697,44.388219],[6.778593,44.388073],[6.777898,44.388772],[6.778232,44.389476],[6.77814,44.38995],[6.77725,44.391088],[6.775358,44.391586],[6.774384,44.392277],[6.77333,44.392769],[6.772111,44.39311],[6.770431,44.394304],[6.76873,44.394702],[6.768075,44.395025],[6.767339,44.395875],[6.767385,44.397224],[6.768786,44.398202],[6.768884,44.398772],[6.768226,44.399359],[6.767704,44.400172],[6.766107,44.401304],[6.765947,44.401572],[6.765878,44.402288],[6.764148,44.402738],[6.762561,44.403362],[6.760994,44.40353],[6.76074,44.403743],[6.760428,44.404475],[6.759302,44.405053],[6.758657,44.405141],[6.757603,44.405012],[6.756291,44.405611],[6.755351,44.405591],[6.754637,44.405872],[6.754555,44.406076],[6.754659,44.406347],[6.755254,44.406653],[6.755391,44.406965],[6.755177,44.407158],[6.754457,44.407339],[6.754221,44.407557],[6.754051,44.408311],[6.753427,44.409057],[6.753444,44.409627],[6.753143,44.410288],[6.752515,44.410808],[6.751136,44.410969],[6.750966,44.41113],[6.752748,44.411211],[6.754668,44.412563],[6.755088,44.41269],[6.75575,44.412597],[6.755893,44.412711],[6.755826,44.412864],[6.754875,44.413077],[6.753074,44.412425],[6.752767,44.41244],[6.752778,44.412658],[6.754081,44.413478],[6.754041,44.413633],[6.753807,44.413656],[6.75302,44.413616],[6.751784,44.413289],[6.751483,44.413096],[6.751347,44.412781],[6.751118,44.412778],[6.751128,44.412981],[6.752017,44.414329],[6.752852,44.4149],[6.752615,44.415028],[6.751564,44.414626],[6.750924,44.415504],[6.750678,44.415516],[6.750211,44.41523],[6.748407,44.414562],[6.745788,44.415208],[6.744909,44.415263],[6.743573,44.415742],[6.741621,44.417386],[6.739656,44.419838],[6.7393,44.420007],[6.737433,44.420277],[6.736612,44.42056],[6.73705,44.421583],[6.737199,44.422274],[6.736953,44.427016],[6.736318,44.428746],[6.73645,44.429535],[6.73691,44.430043],[6.738326,44.4309],[6.738847,44.431811],[6.740358,44.432661],[6.741173,44.433535],[6.743643,44.434297],[6.743963,44.434605],[6.744057,44.435479],[6.74367,44.436249],[6.744091,44.437486],[6.743842,44.438161],[6.743931,44.438765],[6.743629,44.439216],[6.742813,44.439822],[6.74271,44.44065],[6.741948,44.441608],[6.742182,44.443255],[6.742597,44.443998],[6.74262,44.444476],[6.741959,44.445625],[6.74041,44.447223],[6.740205,44.447717],[6.74083,44.450025],[6.742127,44.451188],[6.743151,44.45262],[6.743795,44.453105],[6.743854,44.453477],[6.743624,44.454099],[6.743682,44.455162],[6.744063,44.455868],[6.744089,44.456643],[6.74425,44.457054],[6.744949,44.457912],[6.746485,44.458333],[6.746692,44.458614],[6.746829,44.459611],[6.747317,44.460395],[6.749836,44.462245],[6.750415,44.463357],[6.752088,44.464717],[6.752978,44.465163],[6.753542,44.465273],[6.756345,44.464927],[6.757014,44.464985],[6.76161,44.467293],[6.761896,44.467606],[6.763254,44.470296],[6.763765,44.471019],[6.76372,44.471402],[6.763145,44.472427],[6.762802,44.472768],[6.760446,44.476756],[6.757847,44.478117],[6.756291,44.479533],[6.755559,44.480004],[6.753389,44.480582],[6.751844,44.481487],[6.749672,44.483458],[6.748396,44.484429],[6.747718,44.485379],[6.74747,44.486036],[6.746056,44.487063],[6.745182,44.488305],[6.743425,44.489445],[6.743084,44.490373],[6.742129,44.491434],[6.74203,44.492884],[6.74136,44.494051],[6.740818,44.495811],[6.739799,44.497226],[6.739202,44.498318],[6.7394,44.499339],[6.740488,44.500806],[6.740572,44.501891],[6.740779,44.502355],[6.741436,44.502766],[6.742866,44.503052],[6.743354,44.503834],[6.743544,44.504448],[6.744537,44.504708],[6.744971,44.505068],[6.746678,44.50976],[6.746661,44.509965],[6.746425,44.510187],[6.745149,44.510494],[6.744256,44.511245],[6.744299,44.512276],[6.744082,44.51541],[6.744508,44.515634],[6.745788,44.515261],[6.746826,44.514729],[6.748657,44.514582],[6.75038,44.515428],[6.750813,44.516007],[6.751066,44.517019],[6.751372,44.5174],[6.751937,44.517606],[6.752561,44.517624],[6.75278,44.517811],[6.752386,44.518027],[6.751745,44.518032],[6.749007,44.517116],[6.747343,44.517301],[6.7456,44.518221],[6.744149,44.519808],[6.743622,44.520197],[6.742837,44.520359],[6.741074,44.520078],[6.740652,44.520237],[6.740482,44.520424],[6.740601,44.521354],[6.739634,44.521961],[6.73937,44.522697],[6.739005,44.523022],[6.738472,44.523145],[6.737177,44.522963],[6.735401,44.523376],[6.733843,44.523317],[6.732823,44.52381],[6.73215,44.524867],[6.730224,44.525079],[6.728686,44.525042],[6.727125,44.525387],[6.726851,44.525603],[6.726767,44.526045],[6.726282,44.526358],[6.726061,44.526296],[6.725999,44.52573],[6.725732,44.525556],[6.723534,44.525376],[6.722402,44.525545],[6.720092,44.526208],[6.719358,44.526552],[6.718411,44.526717],[6.717905,44.527159],[6.717285,44.526869],[6.71509,44.526942],[6.715063,44.527134],[6.715695,44.527254],[6.717383,44.528013],[6.72208,44.528623],[6.722225,44.528786],[6.71715,44.529402],[6.716151,44.529319],[6.713522,44.529628],[6.712613,44.529509],[6.71179,44.529617],[6.709979,44.530552],[6.709909,44.530766],[6.710167,44.530819],[6.711028,44.530416],[6.711594,44.530399],[6.712881,44.530874],[6.713088,44.531117],[6.713069,44.531267],[6.712693,44.531415],[6.711567,44.531099],[6.710882,44.531163],[6.710329,44.531452],[6.709401,44.532393],[6.708527,44.532874],[6.707899,44.532855],[6.70751,44.53243],[6.707241,44.532334],[6.705328,44.532304],[6.704407,44.532093],[6.703042,44.532181],[6.701711,44.531794],[6.701403,44.53185],[6.701494,44.53205],[6.704553,44.533073],[6.704734,44.533367],[6.704505,44.534099],[6.704874,44.534823],[6.7048,44.535127],[6.704537,44.535431],[6.703441,44.536162],[6.702995,44.537479],[6.702914,44.538613],[6.702413,44.53932],[6.702217,44.539951],[6.702521,44.540699],[6.702586,44.541704],[6.702911,44.542322],[6.702185,44.545425],[6.702362,44.546943],[6.702781,44.547842],[6.702777,44.548096],[6.700457,44.551234],[6.700459,44.552376],[6.699588,44.552848],[6.699256,44.553222],[6.699069,44.553579],[6.698758,44.554953],[6.698425,44.555524],[6.697306,44.556351],[6.695083,44.557054],[6.694349,44.557452],[6.691868,44.560087],[6.690664,44.560637],[6.689729,44.561769],[6.689263,44.56296],[6.687701,44.564213],[6.687423,44.565079],[6.685932,44.566432],[6.685057,44.567033],[6.684965,44.567279],[6.685035,44.568098],[6.684456,44.569304],[6.684094,44.569451],[6.683466,44.56918],[6.683064,44.56924],[6.68258,44.569788],[6.682771,44.570664],[6.682607,44.571112],[6.68181,44.571661],[6.6804,44.571726],[6.68002,44.572084],[6.680025,44.572679],[6.680154,44.572854],[6.681915,44.573543],[6.681986,44.573875],[6.681794,44.574803],[6.682092,44.575591],[6.682086,44.576509],[6.68289,44.577541],[6.682909,44.578347],[6.684072,44.579074],[6.684325,44.579493],[6.684475,44.580481],[6.682867,44.582989],[6.68285,44.583518],[6.683679,44.584621],[6.685523,44.585971],[6.686628,44.586619],[6.687713,44.5887],[6.687796,44.590813],[6.688017,44.591031],[6.688797,44.591354],[6.6889,44.592081],[6.689383,44.592789],[6.689476,44.593965],[6.689912,44.594767],[6.69,44.596665],[6.689731,44.598577],[6.689875,44.599751],[6.689021,44.601809],[6.689014,44.602766],[6.688589,44.603455],[6.688728,44.604329],[6.689381,44.605082],[6.688375,44.60749],[6.688484,44.609824],[6.688005,44.61016],[6.687958,44.610496],[6.687116,44.612275],[6.686931,44.613166],[6.685907,44.614097],[6.685683,44.614839],[6.685776,44.615648],[6.685665,44.616036],[6.685378,44.616323],[6.685208,44.616935],[6.684266,44.617963],[6.68394,44.618547],[6.683909,44.619157],[6.683608,44.619738],[6.684001,44.620457],[6.684097,44.620935],[6.683803,44.621279],[6.683201,44.621559],[6.682945,44.621974],[6.683402,44.624498],[6.683019,44.624922],[6.681769,44.625617],[6.681396,44.625688],[6.680786,44.625593],[6.680441,44.625777],[6.680044,44.626447],[6.680083,44.627013],[6.680256,44.627307],[6.681042,44.627728],[6.681103,44.627934],[6.68047,44.628603],[6.679606,44.629129],[6.678893,44.629383],[6.677516,44.630685],[6.677351,44.631298],[6.676624,44.631908],[6.676596,44.632356],[6.676781,44.632937],[6.676671,44.633336],[6.676469,44.633553],[6.674848,44.634627],[6.67378,44.634678],[6.672789,44.63438],[6.672043,44.633731],[6.671924,44.633232],[6.671744,44.633078],[6.671137,44.633118],[6.669643,44.635006],[6.670002,44.636423],[6.669834,44.637609],[6.669636,44.637714],[6.669395,44.637638],[6.669269,44.636781],[6.668873,44.636222],[6.668447,44.636203],[6.668503,44.637187],[6.667921,44.638321],[6.667327,44.638835],[6.667424,44.639773],[6.667321,44.639926],[6.666959,44.639872],[6.666198,44.638119],[6.666164,44.637412],[6.665865,44.637325],[6.665713,44.637577],[6.665761,44.638313],[6.665499,44.639504],[6.665753,44.640134],[6.665735,44.640402],[6.665271,44.641108],[6.663448,44.641747],[6.663284,44.642605],[6.662865,44.643242],[6.662547,44.6433],[6.662318,44.643134],[6.662723,44.641889],[6.662624,44.641189],[6.662278,44.641078],[6.662027,44.641293],[6.662088,44.642421],[6.661683,44.643061],[6.660757,44.643195],[6.659331,44.644086],[6.658463,44.645123],[6.656733,44.64592],[6.656529,44.645822],[6.656496,44.645584],[6.656789,44.644742],[6.657351,44.643845],[6.657195,44.643658],[6.656928,44.64374],[6.65631,44.644704],[6.655483,44.64555],[6.655546,44.64743],[6.655274,44.648536],[6.654746,44.649258],[6.654529,44.649858],[6.654059,44.650082],[6.65311,44.650084],[6.652235,44.650576],[6.651063,44.650462],[6.650524,44.650727],[6.650567,44.651482],[6.649894,44.652914],[6.650238,44.653105],[6.651967,44.653413],[6.652155,44.653645],[6.652074,44.653898],[6.65174,44.65417],[6.651365,44.654279],[6.650504,44.654244],[6.649928,44.653773],[6.649648,44.653824],[6.649548,44.654054],[6.649738,44.654953],[6.650964,44.655573],[6.65128,44.655476],[6.651829,44.654855],[6.652304,44.654714],[6.65352,44.653988],[6.654203,44.653765],[6.654738,44.653888],[6.654917,44.654149],[6.654852,44.654559],[6.654054,44.655278],[6.65414,44.655717],[6.655416,44.656399],[6.656356,44.657618],[6.656746,44.658743],[6.659645,44.661279],[6.661085,44.662246],[6.661613,44.663197],[6.663193,44.664272],[6.663382,44.664508],[6.66347,44.664937],[6.663738,44.665169],[6.665667,44.665331],[6.666487,44.665822],[6.667027,44.666643],[6.668611,44.666212],[6.669089,44.666835],[6.669864,44.666814],[6.670355,44.667037],[6.673712,44.667628],[6.674207,44.667868],[6.674933,44.668554],[6.675583,44.668808],[6.676343,44.668901],[6.67682,44.668794],[6.677649,44.668831],[6.679667,44.669087],[6.680428,44.669612],[6.681345,44.670694],[6.681593,44.671033],[6.681951,44.672148],[6.683151,44.672862],[6.68418,44.673736],[6.684467,44.674208],[6.684758,44.674427],[6.685218,44.674501],[6.685704,44.674241],[6.686675,44.674032],[6.688053,44.674268],[6.689078,44.674642],[6.689883,44.675181],[6.691308,44.675528],[6.692002,44.675575],[6.693367,44.676517],[6.693765,44.676667],[6.693905,44.676868],[6.693781,44.6772],[6.693882,44.677382],[6.694981,44.678203],[6.695062,44.678751],[6.695484,44.679393],[6.695735,44.680358],[6.696795,44.681304],[6.697324,44.681947],[6.697254,44.682621],[6.697413,44.68359],[6.698103,44.68445],[6.698219,44.685875],[6.698477,44.686747],[6.699624,44.688391],[6.702395,44.6916],[6.703066,44.69218],[6.704686,44.693141],[6.705405,44.694138],[6.70622,44.695678],[6.70879,44.698016],[6.711663,44.699694],[6.715736,44.701308],[6.7168,44.702322],[6.718539,44.703101],[6.718827,44.703396],[6.719381,44.704437],[6.719847,44.704878],[6.720734,44.70518],[6.722526,44.705238],[6.723476,44.705427],[6.725459,44.706561],[6.729065,44.708254],[6.73134,44.70897],[6.732335,44.708977],[6.733823,44.70842],[6.734716,44.708251],[6.73543,44.70825],[6.736454,44.708466],[6.741019,44.710739],[6.74241,44.711863],[6.743986,44.71227],[6.749453,44.715034],[6.751669,44.715575],[6.756438,44.715929],[6.757879,44.716453],[6.760305,44.717627],[6.760777,44.718038],[6.761224,44.718668],[6.762478,44.72201],[6.762433,44.723422],[6.762538,44.724023],[6.763504,44.725235],[6.763945,44.726376],[6.764196,44.728106],[6.76396,44.728927],[6.764053,44.729442],[6.764629,44.730144],[6.766519,44.731187],[6.766939,44.731567],[6.767334,44.733251],[6.76816,44.73525],[6.768502,44.737914],[6.766725,44.739624],[6.766639,44.740449],[6.766391,44.741088],[6.766874,44.742656],[6.767421,44.743166],[6.767575,44.743639],[6.768197,44.743962],[6.768095,44.74413],[6.767321,44.744175],[6.767193,44.744425],[6.76759,44.744579],[6.768827,44.744337],[6.769698,44.744562],[6.770019,44.745026],[6.770694,44.746703],[6.772529,44.748036],[6.772137,44.748118],[6.771347,44.747739],[6.771074,44.74746],[6.770164,44.747071],[6.768917,44.747741],[6.766855,44.748116],[6.766656,44.748288],[6.766702,44.749059],[6.76617,44.750124],[6.76547,44.750308],[6.763893,44.751076],[6.762951,44.7513],[6.762053,44.751787],[6.761608,44.75244],[6.760663,44.75265],[6.759275,44.753412],[6.758143,44.75362],[6.757766,44.754049],[6.756887,44.754172],[6.755581,44.754685],[6.754492,44.754767],[6.75297,44.75543],[6.752198,44.756186],[6.751115,44.756579],[6.750462,44.756655],[6.749613,44.757576],[6.748648,44.757872],[6.74727,44.758635],[6.745704,44.760106],[6.745282,44.76081],[6.743633,44.761667],[6.743339,44.762038],[6.742926,44.763086],[6.738797,44.766874],[6.736974,44.76948],[6.736315,44.773481],[6.735211,44.776143],[6.735323,44.777336],[6.735081,44.778662],[6.735402,44.780765],[6.734947,44.78137],[6.734933,44.78268],[6.73467,44.7837],[6.73319,44.7862],[6.732903,44.789265],[6.732293,44.790294],[6.73206,44.791676],[6.731106,44.793689],[6.729811,44.795298],[6.728935,44.795891],[6.72818,44.796223],[6.728025,44.796433],[6.728263,44.796817],[6.729072,44.796922],[6.730356,44.796466],[6.731131,44.79665],[6.731724,44.796155],[6.73228,44.79605],[6.733346,44.796928],[6.733832,44.797835],[6.734553,44.79841],[6.734549,44.798543],[6.734346,44.798543],[6.733511,44.797969],[6.732886,44.797289],[6.732448,44.797146],[6.732323,44.797215],[6.73229,44.797639],[6.732094,44.797866],[6.731069,44.798068],[6.73066,44.798373],[6.730071,44.798536],[6.729499,44.798955],[6.728936,44.799062],[6.72934,44.799165],[6.731528,44.798611],[6.732435,44.79862],[6.732369,44.798718],[6.731665,44.798776],[6.73058,44.799263],[6.729478,44.800236],[6.729645,44.80026],[6.730216,44.79979],[6.730714,44.799565],[6.732138,44.799437],[6.732302,44.799705],[6.732423,44.800461],[6.734249,44.802042],[6.733959,44.802047],[6.733416,44.801666],[6.731421,44.800827],[6.731222,44.800847],[6.731171,44.80099],[6.731769,44.801283],[6.732196,44.801737],[6.733487,44.802588],[6.734446,44.804026],[6.73435,44.805038],[6.734675,44.805615],[6.734933,44.805691],[6.735256,44.805583],[6.736231,44.804718],[6.736493,44.804277],[6.736927,44.804051],[6.737409,44.803536],[6.737573,44.803552],[6.736715,44.804903],[6.73666,44.805762],[6.73605,44.807374],[6.73618,44.807566],[6.736752,44.807688],[6.73714,44.807948],[6.737198,44.808667],[6.738118,44.809164],[6.738417,44.80954],[6.738358,44.810164],[6.73819,44.810569],[6.737683,44.811193],[6.736967,44.81134],[6.73657,44.811699],[6.735907,44.811502],[6.73549,44.811513],[6.735053,44.812009],[6.734459,44.813167],[6.734849,44.813444],[6.736146,44.813932],[6.736328,44.814664],[6.736322,44.815558],[6.736035,44.815692],[6.735068,44.81561],[6.734506,44.816237],[6.734566,44.816813],[6.732674,44.818279],[6.733061,44.818285],[6.734336,44.817649],[6.734468,44.817778],[6.734041,44.818006],[6.733376,44.818719],[6.732092,44.819468],[6.73234,44.819569],[6.733168,44.819241],[6.733931,44.819164],[6.734542,44.818817],[6.734755,44.818851],[6.735054,44.820407],[6.734207,44.821],[6.734369,44.821067],[6.735052,44.820861],[6.735503,44.820999],[6.736137,44.822493],[6.735822,44.822599],[6.735009,44.821973],[6.734501,44.821788],[6.732964,44.821835],[6.732994,44.821989],[6.733686,44.822125],[6.733844,44.822414],[6.733788,44.822752],[6.733511,44.822902],[6.733255,44.822785],[6.73309,44.822443],[6.733046,44.822789],[6.733183,44.822993],[6.733046,44.822789],[6.73309,44.822443],[6.732823,44.822292],[6.732309,44.82222],[6.731236,44.822453],[6.731271,44.82259],[6.732008,44.822776],[6.732068,44.82308],[6.731756,44.823426],[6.73226,44.823469],[6.732405,44.823683],[6.732114,44.823966],[6.731682,44.824808],[6.731279,44.825026],[6.730897,44.8256],[6.72939,44.827223],[6.728891,44.827117],[6.728407,44.826687],[6.728363,44.826235],[6.72815,44.826249],[6.727541,44.826895],[6.727369,44.82729],[6.72748,44.828026],[6.727837,44.828353],[6.72779,44.828486],[6.727239,44.828549],[6.726541,44.82817],[6.72614,44.827186],[6.725777,44.827102],[6.725459,44.827249],[6.725128,44.82783],[6.723264,44.830197],[6.723349,44.830426],[6.723696,44.830545],[6.724387,44.830151],[6.724579,44.830205],[6.724161,44.830783],[6.724407,44.83142],[6.72431,44.831743],[6.724043,44.831905],[6.723598,44.831738],[6.723459,44.831797],[6.723625,44.831976],[6.724162,44.832069],[6.724231,44.832194],[6.723768,44.832229],[6.723204,44.831989],[6.722996,44.832021],[6.72237,44.833324],[6.72196,44.833661],[6.722151,44.833751],[6.722976,44.833021],[6.723499,44.832899],[6.723546,44.83305],[6.722409,44.834178],[6.7226,44.83426],[6.723444,44.833946],[6.723615,44.834091],[6.723005,44.83459],[6.721414,44.834988],[6.721544,44.835095],[6.722064,44.834961],[6.723261,44.83499],[6.723202,44.835099],[6.722031,44.835424],[6.721779,44.835996],[6.722347,44.837142],[6.722402,44.837621],[6.722582,44.837572],[6.722606,44.836477],[6.722834,44.836462],[6.723217,44.837801],[6.723524,44.838389],[6.723379,44.839158],[6.723697,44.842203],[6.72359,44.84431],[6.724073,44.844975],[6.724206,44.845372],[6.724381,44.845418],[6.724486,44.845297],[6.724137,44.844258],[6.724392,44.844196],[6.724881,44.844986],[6.725534,44.845707],[6.725707,44.84615],[6.725552,44.846713],[6.724725,44.847821],[6.724694,44.84954],[6.725065,44.850276],[6.724641,44.851333],[6.724496,44.852779],[6.724738,44.853127],[6.725737,44.853956],[6.726897,44.854515],[6.727158,44.855196],[6.727032,44.855746],[6.725006,44.85894],[6.724875,44.859962],[6.72505,44.86138],[6.724841,44.862136],[6.724902,44.86269],[6.724458,44.86336],[6.724255,44.864191],[6.724554,44.865303],[6.724491,44.866134],[6.724802,44.866686],[6.72467,44.867347],[6.724826,44.868218],[6.725344,44.868771],[6.725597,44.86924],[6.726152,44.869643],[6.726141,44.869982],[6.725816,44.870137],[6.725554,44.870094],[6.722863,44.868598],[6.721564,44.868241],[6.720446,44.868231],[6.719591,44.868638],[6.716374,44.867687],[6.715314,44.867665],[6.713624,44.86806],[6.710392,44.867388],[6.709794,44.867441],[6.709044,44.867892],[6.705356,44.868899],[6.703426,44.869191],[6.70281,44.869429],[6.702142,44.870084],[6.701648,44.87149],[6.700796,44.87209],[6.697512,44.872722],[6.694465,44.872975],[6.693945,44.873282],[6.69263,44.874639],[6.689745,44.876438],[6.688631,44.876879],[6.687103,44.877122],[6.682973,44.877188],[6.68161,44.877674],[6.680911,44.878105],[6.679157,44.878856],[6.676652,44.879397],[6.675002,44.879571],[6.674288,44.879883],[6.672997,44.880031],[6.671613,44.879941],[6.671165,44.880275],[6.66998,44.880374],[6.669839,44.880546],[6.669764,44.881231],[6.66939,44.881976],[6.667175,44.881402],[6.666339,44.881413],[6.663543,44.88235],[6.662633,44.882208],[6.661484,44.882693],[6.660276,44.882799],[6.659443,44.883485],[6.65945,44.884084],[6.659304,44.884269],[6.657978,44.884078],[6.65719,44.884096],[6.654617,44.884555],[6.653252,44.885248],[6.652405,44.885165],[6.651532,44.8853],[6.65078,44.885791],[6.649991,44.886033],[6.649377,44.886545],[6.648599,44.886516],[6.648236,44.88666],[6.647921,44.887229],[6.647767,44.887924],[6.647565,44.889264],[6.647746,44.889837],[6.64769,44.890109],[6.646996,44.890622],[6.646945,44.891302],[6.646723,44.891728],[6.646142,44.892032],[6.645931,44.892399],[6.645539,44.892607],[6.644378,44.892963],[6.642853,44.892984],[6.641989,44.893253],[6.640254,44.893028],[6.640253,44.892756],[6.64065,44.892276],[6.640706,44.891739],[6.640096,44.890884],[6.639825,44.890172],[6.64039,44.8894],[6.639874,44.888808],[6.639478,44.888719],[6.639277,44.888883],[6.638853,44.890454],[6.63805,44.891556],[6.637871,44.892366],[6.637863,44.893272],[6.637563,44.894186],[6.636889,44.895075],[6.636702,44.895062],[6.636362,44.894284],[6.636083,44.894207],[6.635307,44.894035],[6.634277,44.894304],[6.63343,44.894129],[6.633059,44.89512],[6.632972,44.89583],[6.632832,44.895889],[6.630554,44.895017],[6.630122,44.894716],[6.629863,44.893692],[6.630179,44.893882],[6.629977,44.894005],[6.630122,44.894716],[6.630474,44.89498],[6.632395,44.895709],[6.632928,44.895737],[6.633061,44.896003],[6.641209,44.899076],[6.64129,44.899362],[6.640821,44.900363],[6.639219,44.902004],[6.639182,44.902247],[6.642157,44.901771],[6.643768,44.901351],[6.644126,44.901523],[6.644925,44.901507],[6.645614,44.901647],[6.648274,44.903034],[6.649331,44.903123],[6.650208,44.902788],[6.650571,44.902784],[6.653923,44.904326],[6.655675,44.904816],[6.657087,44.904867],[6.657743,44.905135],[6.658866,44.905848],[6.660028,44.907251],[6.660549,44.907414],[6.661353,44.907396],[6.661855,44.907625],[6.662125,44.908145],[6.662262,44.908974],[6.66281,44.909518],[6.663975,44.909748],[6.665458,44.909767],[6.666337,44.909927],[6.67079,44.911981],[6.672064,44.912683],[6.673611,44.913683],[6.674292,44.914269],[6.676293,44.916812],[6.677819,44.919059],[6.678968,44.919975],[6.680151,44.920558],[6.682041,44.92103],[6.683502,44.921245],[6.685062,44.920985],[6.685577,44.921068],[6.686178,44.921468],[6.686845,44.921709],[6.687015,44.922257],[6.687223,44.922422],[6.689049,44.922968],[6.69072,44.923891],[6.690842,44.92417],[6.690747,44.924295],[6.688951,44.924532],[6.688714,44.924628],[6.688645,44.924837],[6.688684,44.925213],[6.689235,44.925801],[6.689006,44.926312],[6.689163,44.927008],[6.689753,44.927813],[6.689928,44.927675],[6.689494,44.927015],[6.689482,44.926469],[6.689889,44.925962],[6.689785,44.925379],[6.690056,44.925174],[6.691028,44.925065],[6.690216,44.925327],[6.690115,44.925494],[6.690349,44.926053],[6.690249,44.926365],[6.690349,44.92681],[6.6914,44.927991],[6.691528,44.928374],[6.691187,44.928594],[6.690174,44.928746],[6.690095,44.92893],[6.690208,44.929196],[6.690341,44.929187],[6.69056,44.928878],[6.691617,44.928785],[6.692111,44.928528],[6.692115,44.928153],[6.69138,44.92687],[6.691615,44.926508],[6.692201,44.926184],[6.693776,44.926269],[6.69452,44.925456],[6.695228,44.925539],[6.696431,44.925314],[6.696591,44.925413],[6.696488,44.925527],[6.69478,44.925843],[6.693898,44.926862],[6.692987,44.926818],[6.692562,44.927074],[6.69262,44.927298],[6.693696,44.9284],[6.694373,44.928673],[6.694234,44.929463],[6.694453,44.930475],[6.694598,44.930428],[6.694598,44.929497],[6.694962,44.928621],[6.694849,44.927845],[6.695314,44.927141],[6.696814,44.926892],[6.69779,44.927075],[6.69841,44.926641],[6.699545,44.926714],[6.700501,44.926567],[6.701914,44.926646],[6.702376,44.926852],[6.703027,44.926929],[6.704049,44.927381],[6.706471,44.926812],[6.707145,44.926767],[6.7082,44.927083],[6.709086,44.927163],[6.709914,44.927533],[6.714176,44.928744],[6.717194,44.929196],[6.718932,44.929118],[6.719576,44.929489],[6.721455,44.930205],[6.725423,44.931157],[6.72646,44.931652],[6.727884,44.932587],[6.728208,44.93267],[6.728452,44.933032],[6.728962,44.933346],[6.731374,44.934171],[6.731933,44.934194],[6.733385,44.93384],[6.734883,44.933152],[6.736162,44.933048],[6.739836,44.933575],[6.741795,44.934083],[6.742175,44.934355],[6.742671,44.935271],[6.744045,44.935448],[6.746025,44.936458],[6.747564,44.937018],[6.751915,44.939985],[6.753722,44.940398],[6.755742,44.941112],[6.757015,44.941154],[6.758217,44.94185],[6.758441,44.942326],[6.759959,44.944048],[6.760122,44.944588],[6.760237,44.946337],[6.760572,44.94701],[6.761043,44.947563],[6.765243,44.950592],[6.768075,44.951948],[6.76941,44.952366],[6.770962,44.952505],[6.772402,44.952323],[6.773293,44.951958],[6.774823,44.950954],[6.775814,44.950732],[6.776364,44.950779],[6.777064,44.951032],[6.778364,44.951974],[6.778853,44.952057],[6.779046,44.951956],[6.777785,44.951198],[6.777499,44.950875],[6.777228,44.949979],[6.77652,44.949525],[6.775675,44.949213],[6.773427,44.948809],[6.771925,44.947986],[6.771798,44.947573],[6.772328,44.947261],[6.777247,44.947122],[6.777543,44.947266],[6.778706,44.948367],[6.779971,44.948929],[6.782666,44.949815],[6.783337,44.949841],[6.78385,44.949695],[6.784117,44.949498],[6.784622,44.948757],[6.785293,44.948326],[6.785654,44.948411],[6.786367,44.949381],[6.786804,44.949626],[6.78741,44.949712],[6.788294,44.949513],[6.788646,44.949548],[6.788801,44.949694],[6.788809,44.949949],[6.788503,44.950316],[6.787868,44.950431],[6.786414,44.950177],[6.785963,44.950208],[6.785382,44.950581],[6.78532,44.951167],[6.785782,44.951623],[6.787259,44.95206],[6.789044,44.95292],[6.790131,44.953966],[6.790623,44.954205],[6.791586,44.954319],[6.792717,44.95518],[6.793033,44.955266],[6.79303,44.956297],[6.793991,44.957041],[6.795102,44.958593],[6.795347,44.959726],[6.795077,44.960868],[6.796088,44.962195],[6.795997,44.96401],[6.797821,44.966975],[6.798388,44.967571],[6.798548,44.967932],[6.798562,44.969899],[6.797986,44.970993],[6.798733,44.972629],[6.799742,44.975627],[6.800388,44.976367],[6.802479,44.977017],[6.803125,44.977368],[6.805301,44.97908],[6.805585,44.979544],[6.805944,44.981077],[6.806443,44.981758],[6.806673,44.982304],[6.80692,44.983765],[6.806901,44.984693],[6.807719,44.986813],[6.808543,44.99011],[6.808427,44.99082],[6.807823,44.991776],[6.807643,44.993448],[6.807723,44.994056],[6.808207,44.994908],[6.809114,44.996178],[6.811648,44.998355],[6.812234,44.999969],[6.81305,45.001283],[6.813375,45.0016],[6.816036,45.002604],[6.817203,45.003392],[6.819113,45.00437],[6.821272,45.004945],[6.823992,45.007043],[6.824287,45.007484],[6.824489,45.00855],[6.825703,45.009713],[6.828629,45.013735],[6.830383,45.015737],[6.831529,45.01773],[6.831732,45.018507],[6.831733,45.01905],[6.831093,45.021153],[6.831018,45.023174],[6.829751,45.028403],[6.829703,45.028861],[6.829847,45.029188],[6.832885,45.0322],[6.833485,45.033211],[6.836887,45.035624],[6.841842,45.040486],[6.842977,45.041409],[6.843408,45.041553],[6.843496,45.041833],[6.844068,45.042379],[6.851513,45.048592],[6.853762,45.050933],[6.854778,45.052399],[6.855456,45.053001],[6.85561,45.05335],[6.860428,45.05576],[6.863221,45.057614],[6.86531,45.058799],[6.866869,45.060104],[6.869833,45.063192],[6.87056,45.063621],[6.872475,45.064339],[6.873963,45.065199],[6.878452,45.06881],[6.879281,45.069145],[6.881989,45.069854],[6.883749,45.070684],[6.884225,45.071188],[6.885168,45.073538],[6.885464,45.07398],[6.887077,45.075015],[6.887651,45.075528],[6.888597,45.075958],[6.889938,45.076835],[6.895135,45.079301],[6.897318,45.079233],[6.898311,45.079487],[6.900367,45.078688],[6.901169,45.078662],[6.902209,45.078832],[6.902826,45.079387],[6.903711,45.079926],[6.903789,45.080173],[6.903396,45.080167],[6.901658,45.079214],[6.901234,45.079175],[6.901058,45.079395],[6.902016,45.07977],[6.903079,45.080915],[6.903748,45.081359],[6.903852,45.081579],[6.903766,45.082345],[6.904142,45.082832],[6.906484,45.08389],[6.907602,45.085062],[6.907687,45.085546],[6.907797,45.085603],[6.907976,45.085493],[6.907594,45.084237],[6.907832,45.084105],[6.908149,45.084287],[6.90839,45.085587],[6.908031,45.086215],[6.907931,45.087282],[6.907716,45.087814],[6.907918,45.088205],[6.90935,45.088522],[6.911048,45.088607],[6.91236,45.089447],[6.915031,45.090269],[6.91694,45.091267],[6.918092,45.091565],[6.918441,45.091966],[6.920054,45.092803],[6.921637,45.093375],[6.922932,45.093591],[6.924415,45.094299],[6.925066,45.094475],[6.92629,45.095268],[6.926563,45.095978],[6.926999,45.096563],[6.927037,45.097096],[6.927193,45.097295],[6.927353,45.097349],[6.927832,45.09718],[6.928172,45.097273],[6.930333,45.098396],[6.933171,45.100715],[6.934173,45.100915],[6.935246,45.101486],[6.93618,45.101808],[6.937113,45.101899],[6.938354,45.101825],[6.939436,45.102239],[6.942367,45.102678],[6.945537,45.104302],[6.946308,45.105159],[6.947735,45.105886],[6.949148,45.106097],[6.949865,45.106469],[6.955687,45.107981],[6.957294,45.108513],[6.95984,45.108748],[6.963456,45.110221],[6.966124,45.111823],[6.968969,45.111895],[6.969436,45.112022],[6.970568,45.113275],[6.972457,45.114082],[6.976784,45.116849],[6.9777,45.11708],[6.981881,45.117218],[6.982819,45.117413],[6.985612,45.119118],[6.986166,45.119683],[6.986479,45.120444],[6.986917,45.120757],[6.989914,45.121838],[6.99585,45.123333],[6.998309,45.124576],[6.999365,45.124733],[7.001919,45.124589],[7.004639,45.125774],[7.006139,45.126244],[7.011186,45.127037],[7.01401,45.127329],[7.014649,45.127277],[7.017397,45.126594],[7.018659,45.126472],[7.020879,45.125638],[7.021631,45.125638],[7.02242,45.126045],[7.024974,45.128984],[7.025995,45.129523],[7.026908,45.12965],[7.028648,45.129592],[7.029824,45.129132],[7.030304,45.129111],[7.030938,45.129314],[7.032464,45.130252],[7.034882,45.131238],[7.038412,45.131677],[7.038953,45.131521],[7.039641,45.131006],[7.040252,45.131081],[7.040486,45.13134],[7.040451,45.131599],[7.040227,45.131957],[7.039604,45.13231],[7.03945,45.132567],[7.039866,45.133184],[7.04027,45.133367],[7.040817,45.133313],[7.041324,45.132939],[7.041803,45.132778],[7.043231,45.132989],[7.043723,45.132833],[7.043588,45.132579],[7.042593,45.132438],[7.042257,45.132208],[7.04222,45.131512],[7.041869,45.13042],[7.042024,45.130229],[7.042374,45.130221],[7.042897,45.131142],[7.044024,45.131228],[7.044737,45.13153],[7.045447,45.131942],[7.047007,45.133171],[7.047052,45.133855],[7.047754,45.135321],[7.047637,45.135727],[7.047776,45.136649],[7.047998,45.137035],[7.048424,45.138622],[7.044128,45.139317],[7.043479,45.139527],[7.04284,45.13995],[7.041642,45.141595],[7.039876,45.141797],[7.038125,45.14226],[7.037637,45.143484],[7.037286,45.14373],[7.035979,45.143641],[7.03506,45.14374],[7.033531,45.144329],[7.032405,45.144509],[7.031488,45.144487],[7.030466,45.14426],[7.028183,45.144445],[7.024594,45.144118],[7.02274,45.144242],[7.022157,45.144653],[7.021469,45.144579],[7.020601,45.14417],[7.020402,45.144244],[7.020307,45.144564],[7.020086,45.144641],[7.019174,45.144459],[7.018278,45.144443],[7.018101,45.14454],[7.0181,45.144682],[7.018631,45.145036],[7.018465,45.145588],[7.01711,45.1455],[7.013471,45.145932],[7.013355,45.146094],[7.013289,45.146806],[7.013608,45.147396],[7.013447,45.147603],[7.013298,45.147556],[7.013296,45.147212],[7.012605,45.147078],[7.012934,45.146512],[7.01235,45.146137],[7.012305,45.145749],[7.012448,45.145486],[7.0134,45.145049],[7.013589,45.144663],[7.012875,45.144075],[7.012477,45.14353],[7.011441,45.14349],[7.009136,45.14269],[7.008458,45.142205],[7.00615,45.141714],[7.005876,45.141501],[7.00581,45.141016],[7.005661,45.140959],[7.005442,45.141626],[7.005491,45.141827],[7.00649,45.142359],[7.006759,45.142641],[7.006782,45.143426],[7.006629,45.143916],[7.007071,45.144407],[7.006895,45.144504],[7.006303,45.144056],[7.005485,45.142953],[7.003972,45.142529],[7.002497,45.141541],[7.002475,45.141661],[7.003113,45.1424],[7.003221,45.143051],[7.003694,45.143854],[7.003715,45.144258],[7.003483,45.144648],[7.002792,45.145316],[7.002516,45.145915],[7.001011,45.147742],[7.00081,45.148509],[7.000122,45.149175],[7.000016,45.149617],[6.999404,45.1504],[6.999186,45.151076],[6.998286,45.152042],[6.997408,45.152325],[6.995658,45.153431],[6.994459,45.153701],[6.993597,45.154098],[6.993291,45.154504],[6.993408,45.154822],[6.994075,45.155403],[6.994303,45.155986],[6.995813,45.157214],[6.995867,45.157667],[6.996408,45.158633],[6.996428,45.159008],[6.996965,45.15952],[6.996765,45.16033],[6.997443,45.161024],[6.997586,45.161873],[6.998026,45.162408],[6.998384,45.163279],[6.99937,45.164538],[6.999481,45.16542],[6.999275,45.16578],[6.999285,45.166047],[7.000364,45.167271],[7.001606,45.170161],[7.00237,45.170788],[7.00335,45.17292],[7.003273,45.173298],[7.00202,45.174128],[7.001023,45.174493],[7.000483,45.175037],[7.000219,45.175022],[7.000391,45.174611],[7.001113,45.173982],[7.0014,45.173333],[7.001068,45.172318],[7.001135,45.171648],[7.000946,45.171621],[6.999883,45.173713],[6.999022,45.17425],[6.997901,45.175194],[6.997779,45.175774],[6.996921,45.176368],[6.995957,45.178129],[6.995366,45.178759],[6.995318,45.179263],[6.995722,45.179784],[6.995824,45.18035],[6.995673,45.180614],[6.995218,45.180888],[6.994199,45.181316],[6.992113,45.181865],[6.9892,45.183162],[6.987783,45.183066],[6.987617,45.183205],[6.987646,45.1836],[6.98754,45.183753],[6.985741,45.1846],[6.984646,45.184712],[6.983786,45.184999],[6.982382,45.185063],[6.981033,45.185385],[6.980184,45.186162],[6.977963,45.186977],[6.977909,45.187293],[6.978573,45.187782],[6.978916,45.188618],[6.978325,45.188913],[6.977664,45.188814],[6.977541,45.188999],[6.977729,45.189303],[6.978433,45.18988],[6.979551,45.190227],[6.980826,45.190254],[6.983673,45.191046],[6.984756,45.191685],[6.985519,45.192333],[6.985568,45.192742],[6.985288,45.193179],[6.985313,45.193888],[6.984894,45.194388],[6.984973,45.194941],[6.984583,45.195571],[6.984049,45.196021],[6.983863,45.196523],[6.982648,45.197077],[6.98164,45.196985],[6.980508,45.197113],[6.980101,45.197401],[6.97978,45.198041],[6.978352,45.19844],[6.97784,45.198924],[6.977262,45.199212],[6.975382,45.199697],[6.974097,45.199764],[6.971727,45.200406],[6.969543,45.202069],[6.968274,45.20257],[6.967301,45.203819],[6.964343,45.204605],[6.96333,45.205047],[6.962525,45.205877],[6.961363,45.206525],[6.960715,45.207193],[6.955823,45.21465],[6.95593,45.214988],[6.956725,45.215563],[6.957859,45.215353],[6.958004,45.215452],[6.957181,45.215845],[6.956671,45.215907],[6.955849,45.215583],[6.954752,45.214823],[6.954609,45.214843],[6.956228,45.216115],[6.956588,45.216534],[6.956917,45.216589],[6.957406,45.216292],[6.957085,45.216852],[6.956481,45.216881],[6.955479,45.216105],[6.954427,45.216082],[6.953742,45.21592],[6.954137,45.216257],[6.955021,45.216387],[6.955294,45.216583],[6.95545,45.217042],[6.955386,45.217199],[6.954593,45.217154],[6.954393,45.217273],[6.954651,45.217768],[6.956283,45.218154],[6.95692,45.218666],[6.9573,45.218764],[6.958438,45.218309],[6.961334,45.21617],[6.96424,45.214779],[6.965475,45.214272],[6.965981,45.214264],[6.966584,45.214464],[6.966897,45.214731],[6.967019,45.215027],[6.966475,45.21704],[6.96657,45.217541],[6.967038,45.218563],[6.966981,45.21952],[6.967383,45.219442],[6.967669,45.218511],[6.967454,45.217156],[6.968261,45.21664],[6.968688,45.216008],[6.969022,45.216118],[6.96884,45.216822],[6.969027,45.21811],[6.96889,45.218968],[6.968966,45.219493],[6.968527,45.220264],[6.968463,45.220859],[6.968496,45.221775],[6.968921,45.222914],[6.968993,45.22384],[6.968903,45.224348],[6.968476,45.225211],[6.967985,45.225651],[6.967073,45.22618],[6.964924,45.226868],[6.963254,45.228091],[6.959248,45.230012],[6.958351,45.231464],[6.957567,45.232178],[6.95591,45.234964],[6.955355,45.235475],[6.955086,45.236054],[6.954337,45.236785],[6.953773,45.237747],[6.95333,45.238118],[6.953246,45.238855],[6.952422,45.239328],[6.95033,45.241571],[6.949262,45.242392],[6.949147,45.242612],[6.94926,45.243096],[6.948925,45.243369],[6.947951,45.243377],[6.946394,45.243004],[6.945604,45.242987],[6.943046,45.243661],[6.942044,45.24398],[6.939786,45.245077],[6.937691,45.246412],[6.93525,45.24661],[6.933489,45.247465],[6.929639,45.248324],[6.92749,45.249335],[6.924985,45.249984],[6.922335,45.251268],[6.921621,45.251501],[6.917887,45.252026],[6.914571,45.252766],[6.9126,45.252858],[6.911178,45.253151],[6.908028,45.253184],[6.906943,45.253927],[6.906389,45.254536],[6.905073,45.257902],[6.903725,45.258597],[6.902084,45.259134],[6.900214,45.260294],[6.899966,45.260781],[6.89979,45.261669],[6.900057,45.261823],[6.900794,45.261811],[6.901224,45.261941],[6.901558,45.262222],[6.901579,45.262603],[6.900171,45.264608],[6.898806,45.265535],[6.898668,45.265798],[6.898575,45.26665],[6.897381,45.267747],[6.897108,45.26897],[6.897431,45.269768],[6.897857,45.270216],[6.899148,45.270665],[6.899392,45.271302],[6.900034,45.271665],[6.901828,45.272116],[6.902787,45.272512],[6.903509,45.273019],[6.906237,45.273662],[6.907421,45.274292],[6.908849,45.274716],[6.909745,45.275474],[6.910378,45.275753],[6.911314,45.276676],[6.911827,45.276813],[6.912756,45.27676],[6.912902,45.276959],[6.912668,45.277105],[6.910828,45.27707],[6.909829,45.27653],[6.908836,45.276572],[6.907663,45.276088],[6.907266,45.276182],[6.906888,45.276694],[6.906608,45.276776],[6.905141,45.276349],[6.902244,45.27595],[6.90141,45.276016],[6.900323,45.275904],[6.899363,45.276151],[6.898405,45.276144],[6.897712,45.275957],[6.897583,45.27604],[6.897694,45.276181],[6.899077,45.276709],[6.900388,45.277021],[6.900902,45.277428],[6.901686,45.277534],[6.902741,45.277942],[6.903492,45.278741],[6.90605,45.279217],[6.907245,45.279225],[6.907949,45.279529],[6.908628,45.27961],[6.909934,45.280075],[6.911937,45.281106],[6.912072,45.281275],[6.911801,45.281403],[6.907147,45.280701],[6.904516,45.28087],[6.903666,45.280662],[6.899576,45.280842],[6.898468,45.280662],[6.897238,45.280726],[6.897089,45.280863],[6.897199,45.280958],[6.898841,45.28108],[6.901925,45.282026],[6.903042,45.28225],[6.904564,45.283211],[6.905748,45.283503],[6.907959,45.284647],[6.908108,45.2848],[6.908024,45.284973],[6.907631,45.285007],[6.902828,45.283935],[6.899514,45.283678],[6.897727,45.283988],[6.896402,45.283828],[6.89463,45.284067],[6.893546,45.283946],[6.892588,45.284151],[6.890173,45.284049],[6.885981,45.284417],[6.88462,45.284258],[6.883501,45.284432],[6.883095,45.284713],[6.885036,45.285056]]}},{"type":"Feature","properties":{"kind":"stop","index":0,"name":"Menton","time":"09:30","detail":"Roadbook departure"},"geometry":{"type":"Point","coordinates":[7.4557044,43.7653243]}},{"type":"Feature","properties":{"kind":"stop","index":1,"name":"Col de la Bonette","time":"11:55","detail":"Picnic stop"},"geometry":{"type":"Point","coordinates":[6.8074733,44.3266994]}},{"type":"Feature","properties":{"kind":"stop","index":2,"name":"L’Igloo · Col de Vars","time":"","detail":"Roadbook waypoint"},"geometry":{"type":"Point","coordinates":[6.7029456,44.5391007]}},{"type":"Feature","properties":{"kind":"stop","index":3,"name":"Col d’Izoard","time":"15:23","detail":"Pass and coffee option"},"geometry":{"type":"Point","coordinates":[6.734978,44.819732]}},{"type":"Feature","properties":{"kind":"stop","index":4,"name":"Refuge Napoléon","time":"","detail":"Izoard stop"},"geometry":{"type":"Point","coordinates":[6.7329932,44.8230728]}},{"type":"Feature","properties":{"kind":"stop","index":5,"name":"AVIA Briançon","time":"","detail":"Fuel"},"geometry":{"type":"Point","coordinates":[6.6300918,44.8938438]}},{"type":"Feature","properties":{"kind":"stop","index":6,"name":"Exilles","time":"","detail":"Italian waypoint"},"geometry":{"type":"Point","coordinates":[6.9291885,45.0978014]}},{"type":"Feature","properties":{"kind":"stop","index":7,"name":"Saint Charles · Val Cenis","time":"18:47","detail":"Overnight hotel"},"geometry":{"type":"Point","coordinates":[6.8850567,45.2849656]}}]}
