{"type":"FeatureCollection","properties":{"id":"wednesday-group","distanceMetres":289016.6,"durationSeconds":20585.2,"generatedBy":"OSRM using OpenStreetMap data"},"features":[{"type":"Feature","properties":{"kind":"route","color":"#a93e2b"},"geometry":{"type":"LineString","coordinates":[[6.885036,45.285056],[6.888454,45.285409],[6.888335,45.286037],[6.893415,45.286349],[6.897522,45.286287],[6.901511,45.287546],[6.90269,45.288387],[6.904939,45.289325],[6.906639,45.290308],[6.913415,45.290351],[6.915601,45.291371],[6.918113,45.291496],[6.919131,45.291716],[6.921126,45.29294],[6.92235,45.293269],[6.922523,45.293669],[6.923852,45.29336],[6.924355,45.293602],[6.924345,45.294097],[6.924444,45.294184],[6.926392,45.294091],[6.926558,45.294278],[6.926442,45.2947],[6.926988,45.294854],[6.927277,45.294844],[6.92926,45.293735],[6.930032,45.293668],[6.931084,45.29382],[6.933312,45.294764],[6.934271,45.295661],[6.934372,45.295916],[6.934258,45.296254],[6.933429,45.296817],[6.933226,45.297108],[6.933233,45.297457],[6.933503,45.297779],[6.934074,45.297985],[6.935127,45.297875],[6.935516,45.297687],[6.935989,45.296911],[6.936356,45.296855],[6.936696,45.297007],[6.936718,45.29738],[6.935292,45.298955],[6.935315,45.299234],[6.935579,45.299428],[6.937721,45.299803],[6.940139,45.299197],[6.94067,45.299382],[6.942207,45.300448],[6.943583,45.300799],[6.946453,45.300843],[6.949391,45.300063],[6.952295,45.30063],[6.952742,45.300763],[6.953045,45.301074],[6.95287,45.302077],[6.953021,45.3024],[6.953527,45.302634],[6.954883,45.302894],[6.955676,45.303177],[6.956053,45.303532],[6.956866,45.305025],[6.95722,45.305447],[6.958141,45.305973],[6.960484,45.306431],[6.963634,45.306278],[6.966788,45.30645],[6.968776,45.307082],[6.971629,45.308639],[6.972676,45.308967],[6.973654,45.308943],[6.976061,45.308301],[6.977191,45.30832],[6.978383,45.308692],[6.986383,45.312171],[6.987336,45.312304],[6.989096,45.312091],[6.990609,45.312501],[6.991543,45.313055],[7.001539,45.323422],[7.003671,45.325481],[7.004811,45.326173],[7.010814,45.329116],[7.014291,45.330295],[7.015994,45.331345],[7.023642,45.338727],[7.025858,45.340475],[7.02814,45.343545],[7.028521,45.344236],[7.029483,45.346704],[7.030178,45.352111],[7.029591,45.355838],[7.029633,45.35633],[7.032034,45.359787],[7.034342,45.361949],[7.035055,45.362803],[7.03685,45.364171],[7.040097,45.367342],[7.042264,45.36897],[7.043117,45.369424],[7.046905,45.370544],[7.049932,45.371823],[7.052522,45.373057],[7.052791,45.373365],[7.052805,45.373753],[7.052217,45.374221],[7.051091,45.374292],[7.046991,45.373607],[7.044886,45.37371],[7.042615,45.373359],[7.038912,45.37248],[7.038397,45.37221],[7.035203,45.371784],[7.033972,45.371086],[7.033019,45.370732],[7.031988,45.36982],[7.031529,45.36965],[7.032178,45.37027],[7.032442,45.371011],[7.033184,45.371533],[7.033646,45.372306],[7.034863,45.37322],[7.036748,45.373564],[7.03709,45.373804],[7.040449,45.375205],[7.043578,45.376144],[7.045274,45.376868],[7.047469,45.377456],[7.048366,45.37784],[7.049668,45.378757],[7.050112,45.379601],[7.050107,45.379945],[7.049832,45.380672],[7.049256,45.380771],[7.048513,45.381183],[7.047082,45.381458],[7.046239,45.382573],[7.045272,45.383021],[7.042631,45.384703],[7.042926,45.385287],[7.043189,45.385452],[7.045158,45.38524],[7.045801,45.384983],[7.046061,45.38508],[7.046063,45.38529],[7.045815,45.385768],[7.045131,45.386262],[7.042015,45.390103],[7.040919,45.392873],[7.040222,45.393267],[7.03936,45.396649],[7.039045,45.396793],[7.039319,45.396655],[7.039614,45.396679],[7.039711,45.396228],[7.040551,45.394865],[7.042809,45.392712],[7.043534,45.391862],[7.04682,45.389655],[7.047294,45.389742],[7.04755,45.390229],[7.047401,45.390488],[7.046275,45.391263],[7.046011,45.392019],[7.045329,45.392451],[7.045028,45.392939],[7.044405,45.393518],[7.044074,45.394104],[7.043965,45.394585],[7.042758,45.395509],[7.042576,45.396292],[7.042634,45.396981],[7.04337,45.398704],[7.043355,45.399302],[7.042529,45.39986],[7.042282,45.400323],[7.041847,45.400524],[7.03974,45.400845],[7.039295,45.401026],[7.038854,45.400982],[7.038178,45.40119],[7.037738,45.401514],[7.036213,45.401529],[7.035369,45.402416],[7.03306,45.403129],[7.032316,45.403835],[7.032085,45.404328],[7.031497,45.404677],[7.031066,45.40484],[7.030525,45.404744],[7.030172,45.404816],[7.029263,45.405462],[7.02901,45.405936],[7.027973,45.40638],[7.027701,45.406746],[7.027845,45.407546],[7.027747,45.407956],[7.027982,45.408602],[7.027573,45.409444],[7.027708,45.410013],[7.029113,45.411226],[7.029704,45.412432],[7.030276,45.413157],[7.032307,45.414367],[7.03303,45.41524],[7.033521,45.415557],[7.034087,45.416548],[7.034793,45.417054],[7.035072,45.417402],[7.035133,45.417914],[7.03534,45.418245],[7.036274,45.419193],[7.036922,45.420149],[7.03759,45.420679],[7.03734,45.420703],[7.034971,45.419093],[7.032818,45.418712],[7.032128,45.417805],[7.03197,45.417205],[7.03179,45.417006],[7.031343,45.416948],[7.030754,45.417172],[7.030377,45.418148],[7.029666,45.418758],[7.029723,45.41903],[7.030166,45.419348],[7.029785,45.41934],[7.029112,45.419058],[7.02897,45.418747],[7.028771,45.41871],[7.028685,45.418855],[7.028775,45.420227],[7.027421,45.420954],[7.027506,45.421172],[7.028766,45.422191],[7.028711,45.422511],[7.027956,45.423021],[7.026964,45.423428],[7.026092,45.423389],[7.024798,45.423708],[7.023613,45.423595],[7.023061,45.423806],[7.022807,45.424222],[7.022681,45.425975],[7.022085,45.426795],[7.021162,45.428841],[7.019102,45.430395],[7.018263,45.431771],[7.017243,45.432856],[7.015196,45.433884],[7.014327,45.435044],[7.01383,45.435499],[7.013782,45.436205],[7.012558,45.43705],[7.012037,45.437171],[7.01045,45.437905],[7.010315,45.438123],[7.010477,45.438477],[7.010367,45.438587],[7.009629,45.438331],[7.008422,45.437155],[7.006731,45.436049],[7.006147,45.435288],[7.00627,45.434679],[7.006162,45.434232],[7.006028,45.434187],[7.005928,45.434246],[7.005993,45.434715],[7.005722,45.435628],[7.00625,45.436749],[7.00653,45.437082],[7.006271,45.437121],[7.005606,45.436165],[7.005085,45.435662],[7.005051,45.435042],[7.004862,45.434553],[7.003964,45.433816],[7.003279,45.433511],[7.003331,45.432772],[7.002906,45.43219],[7.002891,45.431441],[7.002264,45.43116],[7.001809,45.431293],[7.001724,45.431652],[7.0026,45.433535],[7.002,45.434182],[7.002257,45.434697],[7.002312,45.435267],[7.002927,45.43618],[7.004115,45.437002],[7.005193,45.43897],[7.005708,45.439391],[7.006265,45.440108],[7.007463,45.440825],[7.008586,45.441337],[7.009873,45.441508],[7.01162,45.441962],[7.012367,45.441929],[7.013634,45.44211],[7.015335,45.441791],[7.016583,45.44183],[7.016767,45.442007],[7.016763,45.442517],[7.01708,45.442827],[7.017587,45.442935],[7.018276,45.442745],[7.018555,45.442784],[7.019192,45.443546],[7.019797,45.444031],[7.022295,45.445409],[7.023231,45.446271],[7.024259,45.446738],[7.024031,45.446821],[7.022982,45.446423],[7.021974,45.445846],[7.0187,45.444837],[7.018515,45.444871],[7.018571,45.445022],[7.020294,45.445786],[7.022086,45.446981],[7.024982,45.448355],[7.029813,45.449862],[7.030749,45.4504],[7.033973,45.451538],[7.034514,45.451929],[7.037435,45.453148],[7.038467,45.45353],[7.039676,45.453729],[7.039807,45.453913],[7.039629,45.453969],[7.039233,45.453785],[7.038301,45.45383],[7.037217,45.453706],[7.035819,45.453442],[7.035312,45.453224],[7.035142,45.453324],[7.035199,45.453439],[7.035724,45.453527],[7.036559,45.453996],[7.036687,45.454645],[7.036347,45.454911],[7.03463,45.454933],[7.033357,45.454622],[7.031775,45.453858],[7.028665,45.452645],[7.026985,45.452443],[7.024108,45.451433],[7.023567,45.451463],[7.022988,45.451781],[7.022808,45.452262],[7.022275,45.45257],[7.021876,45.452666],[7.021233,45.452607],[7.019978,45.452994],[7.019518,45.452996],[7.017294,45.452605],[7.012672,45.450856],[7.010895,45.450435],[7.009501,45.449591],[7.006551,45.448346],[7.003255,45.44819],[6.997308,45.44739],[6.993066,45.447367],[6.987736,45.446561],[6.986446,45.446714],[6.981923,45.448151],[6.980135,45.448909],[6.980079,45.449051],[6.979899,45.449005],[6.977517,45.45001],[6.977503,45.450141],[6.977023,45.45044],[6.974904,45.451519],[6.973146,45.452991],[6.970423,45.454645],[6.969496,45.455568],[6.966362,45.459567],[6.966415,45.459701],[6.96618,45.459761],[6.965029,45.461248],[6.964307,45.462634],[6.964371,45.462793],[6.963204,45.463677],[6.961814,45.465265],[6.959692,45.467019],[6.959541,45.467306],[6.959603,45.468472],[6.959466,45.469042],[6.958165,45.469726],[6.957184,45.47069],[6.956349,45.471239],[6.955454,45.471596],[6.953683,45.471991],[6.952334,45.472909],[6.950821,45.473585],[6.94916,45.473926],[6.94868,45.474131],[6.948539,45.474536],[6.94916,45.475121],[6.94915,45.476035],[6.949303,45.476505],[6.950184,45.476916],[6.95033,45.477291],[6.949299,45.478587],[6.948003,45.479513],[6.946812,45.480095],[6.946312,45.480648],[6.945405,45.4825],[6.945049,45.484361],[6.943699,45.486487],[6.942637,45.488743],[6.941294,45.491153],[6.940626,45.491846],[6.939575,45.492557],[6.938312,45.493277],[6.937174,45.49371],[6.935336,45.495004],[6.93422,45.495612],[6.933165,45.497159],[6.932025,45.498525],[6.930992,45.50016],[6.930251,45.501792],[6.930241,45.502582],[6.930072,45.503322],[6.929199,45.504539],[6.926275,45.506971],[6.925346,45.507499],[6.924651,45.508971],[6.924234,45.509428],[6.921378,45.510935],[6.917485,45.513891],[6.91712,45.514337],[6.916388,45.51601],[6.91619,45.517232],[6.915435,45.51791],[6.914966,45.51896],[6.914465,45.519639],[6.913359,45.520475],[6.913346,45.520895],[6.913857,45.521442],[6.91394,45.521987],[6.913543,45.523115],[6.912793,45.524231],[6.912647,45.524765],[6.912736,45.526366],[6.913011,45.526864],[6.913691,45.529121],[6.914709,45.530161],[6.915035,45.530888],[6.915902,45.531597],[6.91584,45.531774],[6.915295,45.532035],[6.915173,45.532328],[6.914978,45.533043],[6.914956,45.533754],[6.914595,45.53465],[6.914602,45.535148],[6.914334,45.535671],[6.914313,45.536388],[6.914115,45.536563],[6.912982,45.536908],[6.911672,45.538032],[6.911472,45.538582],[6.911471,45.539184],[6.910832,45.540217],[6.911034,45.540637],[6.910985,45.54114],[6.910605,45.541831],[6.909823,45.542441],[6.908877,45.543541],[6.908488,45.544501],[6.907925,45.545311],[6.907369,45.5471],[6.906434,45.548444],[6.904306,45.54971],[6.90325,45.550504],[6.90159,45.55254],[6.901461,45.552916],[6.901705,45.55438],[6.900927,45.55598],[6.898039,45.558041],[6.897433,45.558262],[6.897138,45.558673],[6.896438,45.559122],[6.894802,45.559798],[6.89443,45.561136],[6.892857,45.562919],[6.892571,45.563891],[6.891457,45.564922],[6.89081,45.565917],[6.88939,45.566917],[6.88941,45.567635],[6.888694,45.569036],[6.888098,45.569697],[6.88718,45.570411],[6.886892,45.570814],[6.886581,45.571351],[6.886231,45.57275],[6.885392,45.573293],[6.885233,45.57363],[6.884332,45.57464],[6.884422,45.575474],[6.884237,45.57607],[6.883527,45.576477],[6.882925,45.577233],[6.882988,45.57816],[6.884619,45.579471],[6.884854,45.579929],[6.884565,45.579962],[6.884255,45.579441],[6.882914,45.578589],[6.882459,45.57834],[6.882257,45.578412],[6.882325,45.578553],[6.883286,45.578961],[6.883896,45.579623],[6.883845,45.581094],[6.884176,45.581953],[6.884207,45.582738],[6.88469,45.583383],[6.884893,45.583898],[6.884913,45.584576],[6.885096,45.585092],[6.885008,45.585358],[6.884419,45.586055],[6.884368,45.586302],[6.884968,45.587655],[6.884945,45.58784],[6.884392,45.588484],[6.883562,45.588707],[6.883376,45.589115],[6.88344,45.589383],[6.884055,45.589906],[6.884117,45.590197],[6.883019,45.590551],[6.882618,45.591199],[6.882499,45.592333],[6.882594,45.592788],[6.882335,45.59373],[6.882402,45.594756],[6.882589,45.595091],[6.882514,45.595579],[6.882616,45.596112],[6.882395,45.59617],[6.882198,45.596053],[6.882282,45.595202],[6.881652,45.59455],[6.881381,45.59306],[6.881017,45.592222],[6.880727,45.592131],[6.880628,45.5923],[6.881039,45.592823],[6.881117,45.593256],[6.88071,45.594317],[6.880836,45.594952],[6.881181,45.595323],[6.881203,45.59551],[6.88048,45.596357],[6.879397,45.597296],[6.876112,45.597825],[6.868661,45.599782],[6.867552,45.600326],[6.865382,45.602421],[6.864833,45.602713],[6.860981,45.603483],[6.858744,45.603575],[6.857278,45.60418],[6.854741,45.605667],[6.853472,45.605881],[6.851431,45.606001],[6.850218,45.606438],[6.848435,45.60668],[6.8449,45.607659],[6.84225,45.608019],[6.840021,45.608537],[6.839455,45.608681],[6.837346,45.609643],[6.83549,45.610825],[6.830998,45.61222],[6.827961,45.612965],[6.826639,45.612835],[6.825478,45.612985],[6.824145,45.613483],[6.821568,45.615347],[6.81713,45.616864],[6.816303,45.617036],[6.81234,45.617303],[6.807968,45.618018],[6.803651,45.619865],[6.802921,45.620357],[6.801759,45.621512],[6.801681,45.621847],[6.80066,45.622143],[6.799566,45.622908],[6.795356,45.624878],[6.79375,45.626005],[6.792817,45.626372],[6.790559,45.62685],[6.787068,45.627114],[6.786421,45.627043],[6.78522,45.626229],[6.783345,45.625684],[6.781453,45.625571],[6.780367,45.625158],[6.781025,45.624596],[6.780298,45.624139],[6.780729,45.623622],[6.780539,45.623568],[6.780304,45.623863],[6.779588,45.623556],[6.77977,45.623419],[6.780046,45.623556],[6.780539,45.623568],[6.780014,45.623305],[6.778768,45.623356],[6.778462,45.623576],[6.778249,45.623549],[6.778907,45.624576],[6.778653,45.625171],[6.779396,45.625576],[6.780204,45.62622],[6.781869,45.626839],[6.78242,45.626839],[6.782861,45.626993],[6.782888,45.627184],[6.78161,45.627357],[6.783843,45.62789],[6.785195,45.62889],[6.785633,45.629881],[6.785599,45.630008],[6.785404,45.629965],[6.784825,45.629051],[6.784606,45.628899],[6.783404,45.628749],[6.782975,45.629053],[6.783768,45.630013],[6.784075,45.630617],[6.784228,45.631175],[6.784164,45.632323],[6.785018,45.633286],[6.785475,45.634165],[6.785373,45.634679],[6.785562,45.635563],[6.785263,45.636498],[6.784663,45.637299],[6.784466,45.637942],[6.784557,45.638467],[6.784367,45.639011],[6.785042,45.639834],[6.785086,45.640484],[6.786155,45.641969],[6.78613,45.643664],[6.785848,45.645623],[6.78611,45.646393],[6.786089,45.647223],[6.786669,45.648395],[6.787795,45.649941],[6.787706,45.651328],[6.787245,45.651939],[6.786964,45.65258],[6.786952,45.653368],[6.786838,45.653575],[6.786054,45.654506],[6.78391,45.656458],[6.783141,45.657529],[6.782677,45.65864],[6.781804,45.65933],[6.781634,45.660381],[6.780686,45.661037],[6.780022,45.661914],[6.77928,45.662448],[6.779225,45.662981],[6.779046,45.663218],[6.778202,45.663727],[6.777089,45.664924],[6.775404,45.665439],[6.774329,45.666044],[6.774492,45.666207],[6.775084,45.66611],[6.77559,45.666414],[6.776028,45.666427],[6.776044,45.666533],[6.774437,45.667102],[6.773392,45.666799],[6.772109,45.667027],[6.772772,45.66708],[6.773126,45.667333],[6.773659,45.667299],[6.774889,45.667815],[6.772467,45.667586],[6.772286,45.66766],[6.772219,45.667969],[6.771673,45.668135],[6.772247,45.668133],[6.772757,45.667948],[6.77334,45.668175],[6.774199,45.668271],[6.774735,45.668592],[6.775417,45.668538],[6.774695,45.66878],[6.774236,45.6686],[6.771821,45.668797],[6.771819,45.668902],[6.772973,45.668953],[6.774166,45.669244],[6.772417,45.669299],[6.771629,45.669587],[6.771621,45.669681],[6.774336,45.669722],[6.774401,45.669817],[6.773435,45.670066],[6.771742,45.670108],[6.770955,45.670361],[6.77033,45.670172],[6.76916,45.670798],[6.767795,45.67107],[6.765321,45.671083],[6.764798,45.671257],[6.763565,45.671048],[6.76249,45.671242],[6.760802,45.67123],[6.759818,45.671009],[6.759164,45.670499],[6.75891,45.670462],[6.757486,45.671206],[6.757557,45.671677],[6.757311,45.672209],[6.756411,45.672924],[6.755333,45.673267],[6.754536,45.673846],[6.753792,45.674138],[6.751605,45.67421],[6.749879,45.675448],[6.748491,45.675685],[6.747361,45.676117],[6.746122,45.677219],[6.743213,45.678376],[6.739955,45.681164],[6.739383,45.682104],[6.737746,45.683097],[6.737187,45.684576],[6.736714,45.685148],[6.735541,45.685752],[6.733857,45.685905],[6.733265,45.686298],[6.732772,45.687964],[6.733081,45.688991],[6.732625,45.690797],[6.732323,45.692729],[6.731949,45.693324],[6.730926,45.693316],[6.726499,45.694024],[6.723527,45.693901],[6.722578,45.694265],[6.722112,45.694608],[6.722055,45.694913],[6.722479,45.695186],[6.723275,45.69531],[6.724137,45.695174],[6.725461,45.695783],[6.726745,45.696104],[6.726748,45.696277],[6.726384,45.696353],[6.725337,45.696127],[6.723474,45.696093],[6.722733,45.695829],[6.722547,45.695902],[6.722663,45.69607],[6.725032,45.697109],[6.725334,45.697801],[6.725196,45.698045],[6.724734,45.698035],[6.723732,45.697397],[6.722518,45.697707],[6.722091,45.697634],[6.721477,45.697263],[6.719938,45.697403],[6.719509,45.697323],[6.718411,45.695843],[6.717393,45.695687],[6.716676,45.695875],[6.716408,45.695739],[6.716333,45.695446],[6.716657,45.694746],[6.716507,45.694519],[6.716119,45.694322],[6.714789,45.694467],[6.712641,45.693902],[6.704787,45.692977],[6.701967,45.692174],[6.701371,45.692114],[6.700502,45.692229],[6.697623,45.693439],[6.696788,45.693676],[6.695244,45.693891],[6.694394,45.69386],[6.693762,45.693696],[6.692748,45.69316],[6.692515,45.692849],[6.692386,45.691956],[6.691851,45.691588],[6.689759,45.6912],[6.687676,45.691456],[6.686849,45.691048],[6.685072,45.691193],[6.684041,45.691562],[6.682513,45.690872],[6.681841,45.690157],[6.681249,45.690025],[6.680642,45.690109],[6.680227,45.690328],[6.680005,45.690619],[6.679986,45.690956],[6.680542,45.691617],[6.681838,45.692635],[6.682758,45.69403],[6.682665,45.694246],[6.682371,45.69419],[6.681502,45.69336],[6.679701,45.69296],[6.679145,45.692235],[6.677219,45.691173],[6.674949,45.690876],[6.673236,45.69121],[6.672627,45.691824],[6.671474,45.692466],[6.670785,45.692623],[6.670145,45.692972],[6.667736,45.693522],[6.666544,45.693554],[6.665562,45.693825],[6.664991,45.694556],[6.664942,45.69494],[6.66518,45.69538],[6.665033,45.695655],[6.663761,45.6963],[6.66292,45.696289],[6.661828,45.696023],[6.660528,45.695427],[6.6595,45.694415],[6.657761,45.693206],[6.656175,45.692324],[6.654639,45.691717],[6.653663,45.691091],[6.653646,45.691223],[6.655476,45.692568],[6.656823,45.693835],[6.657616,45.69422],[6.657984,45.695601],[6.6576,45.695936],[6.657059,45.695933],[6.656759,45.695685],[6.656822,45.69492],[6.656676,45.694613],[6.656097,45.694415],[6.655544,45.694587],[6.655414,45.694937],[6.656358,45.697248],[6.65632,45.697873],[6.656129,45.698181],[6.655385,45.698796],[6.655084,45.699542],[6.654073,45.699851],[6.653041,45.700355],[6.650423,45.700212],[6.650126,45.700339],[6.649492,45.700965],[6.64885,45.701074],[6.648282,45.700912],[6.647499,45.700369],[6.645814,45.699762],[6.645415,45.69991],[6.644827,45.700596],[6.644323,45.700756],[6.643941,45.700728],[6.642076,45.700182],[6.640337,45.699381],[6.638482,45.698005],[6.637656,45.696914],[6.636718,45.696401],[6.636142,45.695811],[6.635187,45.695244],[6.633882,45.694907],[6.633138,45.695075],[6.633023,45.695476],[6.633765,45.696849],[6.633902,45.69728],[6.63383,45.697891],[6.634177,45.698316],[6.634204,45.69858],[6.634165,45.699088],[6.633851,45.699572],[6.63378,45.701754],[6.633452,45.703082],[6.633608,45.703694],[6.63347,45.704173],[6.633587,45.704484],[6.633566,45.705367],[6.633152,45.706938],[6.632974,45.706985],[6.632892,45.706866],[6.633134,45.706134],[6.633029,45.705368],[6.632493,45.70456],[6.632412,45.70411],[6.632123,45.703694],[6.632253,45.70288],[6.632018,45.701637],[6.631633,45.700927],[6.630909,45.700185],[6.630696,45.700175],[6.631449,45.701856],[6.630896,45.704557],[6.630679,45.705006],[6.630961,45.705515],[6.630863,45.706016],[6.631178,45.707355],[6.630987,45.707511],[6.630824,45.707421],[6.630754,45.706926],[6.630017,45.705589],[6.629471,45.704974],[6.629393,45.704256],[6.629514,45.703106],[6.629412,45.702778],[6.628463,45.701599],[6.628221,45.701065],[6.627512,45.700647],[6.626455,45.699717],[6.625804,45.699385],[6.623523,45.698984],[6.621995,45.698455],[6.621036,45.698441],[6.620397,45.697949],[6.618995,45.697287],[6.616955,45.69684],[6.616685,45.696949],[6.618795,45.697724],[6.620102,45.698594],[6.619942,45.698626],[6.619324,45.698249],[6.618632,45.698059],[6.617349,45.697949],[6.616168,45.698087],[6.615258,45.697643],[6.614435,45.69692],[6.614269,45.696901],[6.614177,45.697053],[6.614504,45.697404],[6.614671,45.698148],[6.614929,45.698429],[6.61778,45.699282],[6.618415,45.699721],[6.619115,45.700781],[6.62145,45.701222],[6.62323,45.702181],[6.624359,45.703882],[6.624643,45.705216],[6.624387,45.705221],[6.624314,45.704758],[6.623992,45.704245],[6.623338,45.703777],[6.622855,45.703637],[6.621615,45.703752],[6.620958,45.703462],[6.620576,45.703619],[6.61969,45.705487],[6.619103,45.706016],[6.618207,45.706255],[6.616677,45.706401],[6.614691,45.70643],[6.613035,45.707119],[6.612537,45.707019],[6.611926,45.707129],[6.61133,45.7068],[6.610993,45.706754],[6.609463,45.707039],[6.608744,45.707355],[6.607101,45.706976],[6.60597,45.707299],[6.60535,45.707299],[6.604824,45.707536],[6.603265,45.707248],[6.602655,45.706964],[6.600971,45.706566],[6.597244,45.707059],[6.595418,45.707031],[6.593635,45.707203],[6.59305,45.707528],[6.591949,45.707882],[6.591546,45.708606],[6.589325,45.710131],[6.589332,45.710267],[6.589483,45.71029],[6.589804,45.710147],[6.589981,45.709905],[6.590197,45.709945],[6.590069,45.71024],[6.589318,45.711075],[6.587492,45.711429],[6.586479,45.711807],[6.584312,45.711948],[6.582232,45.71295],[6.579716,45.713244],[6.578399,45.714137],[6.576687,45.714507],[6.576272,45.715041],[6.576232,45.716017],[6.576052,45.716726],[6.575378,45.717752],[6.574027,45.718903],[6.573529,45.719017],[6.573146,45.719485],[6.572207,45.720057],[6.566116,45.719662],[6.565528,45.719747],[6.564059,45.719539],[6.562641,45.719692],[6.557856,45.721523],[6.552503,45.724854],[6.551657,45.725268],[6.550206,45.725671],[6.547673,45.725943],[6.545916,45.72676],[6.546188,45.726935],[6.54769,45.727029],[6.549408,45.727352],[6.550659,45.726852],[6.553903,45.727025],[6.553804,45.727172],[6.552281,45.727587],[6.551204,45.727714],[6.551122,45.727822],[6.55125,45.727906],[6.554733,45.72761],[6.555835,45.727216],[6.556012,45.727267],[6.555967,45.727398],[6.554021,45.728271],[6.551486,45.728656],[6.550434,45.728655],[6.549971,45.729063],[6.550071,45.729213],[6.550713,45.728854],[6.55336,45.728959],[6.555002,45.72927],[6.556393,45.72919],[6.56224,45.729513],[6.562238,45.729647],[6.562082,45.729704],[6.560553,45.729725],[6.557053,45.730241],[6.554989,45.730315],[6.552686,45.731352],[6.552021,45.731945],[6.551546,45.732184],[6.550041,45.731966],[6.548786,45.732087],[6.546075,45.731652],[6.544549,45.731766],[6.543164,45.731362],[6.541619,45.731702],[6.540597,45.73209],[6.540537,45.732208],[6.54075,45.732287],[6.541564,45.731925],[6.542856,45.731753],[6.545741,45.732944],[6.547739,45.733563],[6.548324,45.733634],[6.549842,45.733386],[6.550506,45.733679],[6.55105,45.734209],[6.551376,45.734288],[6.552381,45.733973],[6.556336,45.733798],[6.55791,45.733018],[6.559482,45.732975],[6.56063,45.732572],[6.561086,45.73267],[6.562457,45.733851],[6.564024,45.734668],[6.564872,45.736713],[6.565673,45.737591],[6.566038,45.738225],[6.568132,45.73922],[6.568952,45.740294],[6.569932,45.741078],[6.570827,45.742754],[6.57087,45.743109],[6.571497,45.743445],[6.573,45.745076],[6.574136,45.746],[6.574289,45.746384],[6.57492,45.746807],[6.575657,45.748385],[6.57627,45.749202],[6.576755,45.750518],[6.576731,45.750931],[6.577017,45.751228],[6.577651,45.751471],[6.577824,45.751846],[6.57766,45.751901],[6.577436,45.751601],[6.576756,45.751529],[6.576111,45.751072],[6.575831,45.750552],[6.575052,45.750044],[6.574798,45.749636],[6.572793,45.747943],[6.571965,45.747514],[6.570304,45.745227],[6.569421,45.744602],[6.569014,45.744518],[6.567995,45.7446],[6.566542,45.743715],[6.564129,45.742631],[6.56372,45.742675],[6.563262,45.743222],[6.562814,45.743355],[6.561692,45.743034],[6.560762,45.742919],[6.55997,45.742371],[6.559326,45.742094],[6.558363,45.742012],[6.557759,45.741749],[6.556379,45.741569],[6.556357,45.741701],[6.557481,45.742209],[6.557996,45.742849],[6.558223,45.743657],[6.559199,45.744006],[6.559333,45.744199],[6.558759,45.743996],[6.557928,45.743969],[6.556392,45.743229],[6.554842,45.742971],[6.553124,45.743156],[6.551795,45.742917],[6.5508,45.743158],[6.549265,45.744454],[6.549247,45.744779],[6.549559,45.745267],[6.549153,45.746135],[6.548926,45.747069],[6.548516,45.747343],[6.547789,45.747514],[6.54754,45.747781],[6.547477,45.748144],[6.547705,45.74868],[6.547276,45.750567],[6.546343,45.753138],[6.545907,45.753794],[6.545903,45.75434],[6.545582,45.754802],[6.544986,45.755198],[6.542485,45.75608],[6.541181,45.756357],[6.539398,45.757245],[6.536008,45.758405],[6.535303,45.758949],[6.53435,45.759412],[6.534378,45.759509],[6.53419,45.759545],[6.533629,45.760222],[6.533393,45.761138],[6.533364,45.762188],[6.533482,45.762783],[6.533725,45.763153],[6.533923,45.763225],[6.533834,45.763346],[6.533903,45.763698],[6.533416,45.76507],[6.532638,45.766078],[6.532242,45.766961],[6.531828,45.768247],[6.531832,45.768567],[6.532159,45.769258],[6.533119,45.770284],[6.534519,45.770975],[6.536422,45.772309],[6.536268,45.773239],[6.535529,45.77402],[6.535542,45.774974],[6.535871,45.775738],[6.53649,45.776477],[6.53699,45.777958],[6.537866,45.779099],[6.539356,45.779835],[6.54138,45.780492],[6.542173,45.780634],[6.543302,45.780495],[6.543813,45.781302],[6.54436,45.78164],[6.546409,45.781791],[6.547339,45.781665],[6.548089,45.781375],[6.549631,45.780218],[6.550113,45.780055],[6.551124,45.780241],[6.552871,45.779845],[6.553843,45.779903],[6.55545,45.779672],[6.55751,45.778671],[6.559282,45.778135],[6.559634,45.778247],[6.559905,45.778571],[6.559902,45.778896],[6.559583,45.779488],[6.558167,45.780484],[6.557586,45.781229],[6.554196,45.78268],[6.551952,45.784066],[6.550543,45.785201],[6.548785,45.785836],[6.547285,45.786675],[6.547002,45.787246],[6.546933,45.788699],[6.54675,45.789051],[6.545433,45.78987],[6.544895,45.790388],[6.544324,45.791753],[6.543239,45.792899],[6.543044,45.793377],[6.542685,45.793706],[6.541594,45.795319],[6.540915,45.795943],[6.540912,45.796589],[6.541514,45.797405],[6.542283,45.797717],[6.544876,45.800034],[6.54663,45.801125],[6.549125,45.8034],[6.549644,45.803695],[6.550355,45.803858],[6.550472,45.804016],[6.55043,45.804203],[6.550076,45.804383],[6.54917,45.804353],[6.548526,45.804671],[6.547828,45.804745],[6.547257,45.805271],[6.546794,45.805363],[6.540721,45.80434],[6.53916,45.804599],[6.538192,45.805053],[6.537089,45.805034],[6.53513,45.804367],[6.532341,45.804629],[6.530842,45.804549],[6.530205,45.805074],[6.529202,45.805651],[6.528553,45.805841],[6.527161,45.806566],[6.525504,45.807052],[6.524851,45.8075],[6.523962,45.808427],[6.523153,45.808835],[6.521834,45.809108],[6.521556,45.809516],[6.521279,45.809438],[6.520707,45.808827],[6.520619,45.808606],[6.520698,45.808265],[6.520458,45.808204],[6.519951,45.808857],[6.520102,45.809593],[6.519854,45.809735],[6.517344,45.807978],[6.516884,45.807945],[6.515858,45.8092],[6.515987,45.809898],[6.515502,45.810418],[6.515422,45.810663],[6.51569,45.811375],[6.516546,45.81255],[6.518247,45.814026],[6.521521,45.815865],[6.52241,45.816242],[6.523511,45.816515],[6.523374,45.8167],[6.522884,45.816694],[6.519798,45.815766],[6.518129,45.814944],[6.517186,45.814729],[6.514938,45.813834],[6.513987,45.813373],[6.513558,45.812864],[6.51333,45.812895],[6.513367,45.813071],[6.514088,45.813827],[6.515605,45.815098],[6.515996,45.815733],[6.516551,45.816367],[6.517287,45.816911],[6.517338,45.81712],[6.517152,45.817261],[6.516572,45.817194],[6.516299,45.81701],[6.516318,45.816633],[6.516152,45.816632],[6.516116,45.817247],[6.516697,45.817655],[6.516542,45.817725],[6.516188,45.817539],[6.516096,45.817666],[6.516455,45.817787],[6.516452,45.817889],[6.516006,45.817737],[6.515891,45.817814],[6.516461,45.81806],[6.516113,45.819002],[6.516318,45.819558],[6.516232,45.819842],[6.514975,45.820613],[6.514408,45.821485],[6.51396,45.82184],[6.513233,45.822268],[6.512522,45.822428],[6.511853,45.822816],[6.511864,45.823111],[6.512733,45.823633],[6.512832,45.82381],[6.512199,45.824106],[6.511684,45.824849],[6.510896,45.825287],[6.509978,45.826457],[6.509965,45.82664],[6.510266,45.827146],[6.510209,45.827906],[6.510057,45.828259],[6.510169,45.828648],[6.509999,45.829478],[6.509169,45.830422],[6.509003,45.830819],[6.508411,45.83132],[6.50879,45.831756],[6.508437,45.83241],[6.508943,45.832838],[6.508542,45.833451],[6.508657,45.834014],[6.508938,45.83427],[6.508482,45.834576],[6.508421,45.834788],[6.508485,45.835257],[6.508694,45.835582],[6.508606,45.836195],[6.508851,45.836572],[6.508202,45.836836],[6.508101,45.838125],[6.507839,45.838703],[6.507898,45.839007],[6.508212,45.839303],[6.507689,45.83974],[6.506936,45.839925],[6.506737,45.840105],[6.506395,45.841092],[6.506511,45.841724],[6.506434,45.842288],[6.505778,45.843452],[6.505614,45.844501],[6.504816,45.845845],[6.504723,45.846487],[6.504494,45.847017],[6.504308,45.847219],[6.503445,45.847614],[6.503147,45.849042],[6.501221,45.851322],[6.500451,45.852447],[6.500031,45.853807],[6.50012,45.854045],[6.500498,45.854368],[6.500485,45.854655],[6.499944,45.855009],[6.4991,45.855983],[6.497417,45.858804],[6.496565,45.859441],[6.49643,45.860152],[6.496507,45.860782],[6.496734,45.861274],[6.496261,45.861307],[6.495795,45.860712],[6.495617,45.860687],[6.495468,45.86158],[6.494868,45.861929],[6.49495,45.862665],[6.494392,45.862709],[6.493787,45.862469],[6.493412,45.862603],[6.493328,45.862913],[6.493104,45.863076],[6.492591,45.863933],[6.492579,45.864178],[6.492736,45.864309],[6.494011,45.863991],[6.494737,45.864265],[6.495336,45.864265],[6.495459,45.864425],[6.495379,45.864589],[6.494687,45.864972],[6.494421,45.864968],[6.493936,45.865318],[6.492937,45.86668],[6.491826,45.866733],[6.491028,45.867354],[6.490757,45.867296],[6.489966,45.866487],[6.489169,45.866243],[6.488544,45.866333],[6.487543,45.866893],[6.486623,45.866899],[6.487493,45.867289],[6.488118,45.86735],[6.488958,45.867759],[6.489547,45.868317],[6.489492,45.868503],[6.489022,45.868213],[6.487918,45.868059],[6.487372,45.86843],[6.486165,45.868866],[6.484952,45.868902],[6.48415,45.86846],[6.483773,45.868414],[6.483484,45.868532],[6.483375,45.868885],[6.483214,45.868992],[6.481785,45.869129],[6.481888,45.86927],[6.482464,45.869288],[6.48325,45.869515],[6.483803,45.870139],[6.485635,45.870525],[6.486239,45.871102],[6.48652,45.871063],[6.486656,45.870734],[6.486913,45.870563],[6.487546,45.870582],[6.487467,45.870753],[6.486855,45.871068],[6.48666,45.871575],[6.486452,45.871712],[6.485213,45.871812],[6.484666,45.871457],[6.483092,45.871111],[6.482186,45.870773],[6.480536,45.871167],[6.480514,45.871397],[6.481124,45.871381],[6.481229,45.871523],[6.480237,45.871857],[6.477625,45.871668],[6.476688,45.871816],[6.476099,45.872157],[6.475588,45.871947],[6.47502,45.871891],[6.47494,45.871538],[6.474788,45.871454],[6.474672,45.871507],[6.474661,45.871944],[6.474487,45.872007],[6.474255,45.871604],[6.474075,45.871539],[6.473955,45.871636],[6.47425,45.872233],[6.474138,45.872321],[6.472937,45.871685],[6.471315,45.871126],[6.469589,45.8709],[6.469216,45.871013],[6.468461,45.871519],[6.466953,45.871605],[6.465528,45.871971],[6.461208,45.873934],[6.460662,45.874045],[6.460019,45.87359],[6.46036,45.87358],[6.460786,45.874031],[6.461208,45.873934],[6.465528,45.871971],[6.466953,45.871605],[6.468461,45.871519],[6.469216,45.871013],[6.469589,45.8709],[6.471315,45.871126],[6.472937,45.871685],[6.474138,45.872321],[6.47425,45.872233],[6.473955,45.871636],[6.474075,45.871539],[6.474255,45.871604],[6.474487,45.872007],[6.474661,45.871944],[6.474672,45.871507],[6.474788,45.871454],[6.47494,45.871538],[6.47502,45.871891],[6.475588,45.871947],[6.476099,45.872157],[6.476688,45.871816],[6.477625,45.871668],[6.480237,45.871857],[6.481229,45.871523],[6.481124,45.871381],[6.480514,45.871397],[6.480536,45.871167],[6.482186,45.870773],[6.483092,45.871111],[6.484666,45.871457],[6.485213,45.871812],[6.486452,45.871712],[6.48666,45.871575],[6.486855,45.871068],[6.487467,45.870753],[6.487546,45.870582],[6.486913,45.870563],[6.486656,45.870734],[6.48652,45.871063],[6.486239,45.871102],[6.485635,45.870525],[6.483803,45.870139],[6.48325,45.869515],[6.482464,45.869288],[6.481888,45.86927],[6.481785,45.869129],[6.483214,45.868992],[6.483375,45.868885],[6.483484,45.868532],[6.483773,45.868414],[6.48415,45.86846],[6.484952,45.868902],[6.486165,45.868866],[6.487372,45.86843],[6.487918,45.868059],[6.489022,45.868213],[6.489492,45.868503],[6.489547,45.868317],[6.488958,45.867759],[6.488118,45.86735],[6.487493,45.867289],[6.486623,45.866899],[6.487543,45.866893],[6.488544,45.866333],[6.489169,45.866243],[6.489966,45.866487],[6.490757,45.867296],[6.491028,45.867354],[6.491826,45.866733],[6.492937,45.86668],[6.493936,45.865318],[6.494421,45.864968],[6.494687,45.864972],[6.495379,45.864589],[6.495459,45.864425],[6.495336,45.864265],[6.494737,45.864265],[6.494011,45.863991],[6.492736,45.864309],[6.492579,45.864178],[6.492591,45.863933],[6.493104,45.863076],[6.493328,45.862913],[6.493412,45.862603],[6.493787,45.862469],[6.494392,45.862709],[6.49495,45.862665],[6.494868,45.861929],[6.495468,45.86158],[6.495617,45.860687],[6.495795,45.860712],[6.496261,45.861307],[6.496734,45.861274],[6.496507,45.860782],[6.496512,45.859542],[6.496848,45.859131],[6.497417,45.858804],[6.499407,45.855576],[6.500011,45.854946],[6.500485,45.854655],[6.500498,45.854368],[6.50012,45.854045],[6.500031,45.853807],[6.500451,45.852447],[6.501221,45.851322],[6.503147,45.849042],[6.503445,45.847614],[6.504308,45.847219],[6.504494,45.847017],[6.504723,45.846487],[6.504816,45.845845],[6.505614,45.844501],[6.505778,45.843452],[6.506434,45.842288],[6.506511,45.841724],[6.506395,45.841092],[6.506737,45.840105],[6.506936,45.839925],[6.507689,45.83974],[6.508212,45.839303],[6.507898,45.839007],[6.507839,45.838703],[6.508101,45.838125],[6.508202,45.836836],[6.508851,45.836572],[6.508606,45.836195],[6.508694,45.835582],[6.508485,45.835257],[6.508421,45.834788],[6.508482,45.834576],[6.508938,45.83427],[6.508657,45.834014],[6.508542,45.833451],[6.508943,45.832838],[6.508437,45.83241],[6.50879,45.831756],[6.508411,45.83132],[6.509003,45.830819],[6.509169,45.830422],[6.509999,45.829478],[6.510169,45.828648],[6.510057,45.828259],[6.510209,45.827906],[6.510266,45.827146],[6.509965,45.82664],[6.509978,45.826457],[6.510896,45.825287],[6.511684,45.824849],[6.512199,45.824106],[6.512832,45.82381],[6.512733,45.823633],[6.511864,45.823111],[6.511853,45.822816],[6.512522,45.822428],[6.513233,45.822268],[6.51429,45.821601],[6.514975,45.820613],[6.516075,45.820012],[6.516328,45.819634],[6.51667,45.819562],[6.517365,45.818809],[6.516284,45.81857],[6.516443,45.818025],[6.515891,45.817814],[6.516006,45.817737],[6.516452,45.817889],[6.516455,45.817787],[6.516096,45.817666],[6.516188,45.817539],[6.516542,45.817725],[6.516697,45.817655],[6.516116,45.817247],[6.516187,45.81661],[6.516361,45.816697],[6.516299,45.81701],[6.516572,45.817194],[6.517152,45.817261],[6.517303,45.817181],[6.517331,45.816971],[6.516973,45.816592],[6.516551,45.816367],[6.515605,45.815098],[6.514088,45.813827],[6.513367,45.813071],[6.51333,45.812895],[6.513558,45.812864],[6.513987,45.813373],[6.514938,45.813834],[6.517186,45.814729],[6.518129,45.814944],[6.519798,45.815766],[6.522884,45.816694],[6.523374,45.8167],[6.523511,45.816515],[6.52241,45.816242],[6.521521,45.815865],[6.518247,45.814026],[6.516546,45.81255],[6.51569,45.811375],[6.515422,45.810663],[6.515502,45.810418],[6.515987,45.809898],[6.515858,45.8092],[6.516884,45.807945],[6.517344,45.807978],[6.519854,45.809735],[6.520102,45.809593],[6.519951,45.808857],[6.520458,45.808204],[6.520698,45.808265],[6.520619,45.808606],[6.520707,45.808827],[6.521279,45.809438],[6.521556,45.809516],[6.521834,45.809108],[6.523153,45.808835],[6.523962,45.808427],[6.524851,45.8075],[6.525504,45.807052],[6.527161,45.806566],[6.528553,45.805841],[6.529202,45.805651],[6.530205,45.805074],[6.530842,45.804549],[6.532341,45.804629],[6.53513,45.804367],[6.537089,45.805034],[6.538192,45.805053],[6.53916,45.804599],[6.540721,45.80434],[6.546794,45.805363],[6.547257,45.805271],[6.547828,45.804745],[6.548526,45.804671],[6.54917,45.804353],[6.550076,45.804383],[6.55043,45.804203],[6.550472,45.804016],[6.550355,45.803858],[6.549644,45.803695],[6.549125,45.8034],[6.54663,45.801125],[6.544876,45.800034],[6.542283,45.797717],[6.541514,45.797405],[6.540912,45.796589],[6.540915,45.795943],[6.541594,45.795319],[6.542685,45.793706],[6.543044,45.793377],[6.543239,45.792899],[6.544324,45.791753],[6.544895,45.790388],[6.545433,45.78987],[6.54675,45.789051],[6.546933,45.788699],[6.547002,45.787246],[6.547285,45.786675],[6.548785,45.785836],[6.550543,45.785201],[6.551952,45.784066],[6.554196,45.78268],[6.557586,45.781229],[6.558167,45.780484],[6.559583,45.779488],[6.559902,45.778896],[6.559905,45.778571],[6.559634,45.778247],[6.559282,45.778135],[6.55751,45.778671],[6.55545,45.779672],[6.553843,45.779903],[6.552871,45.779845],[6.551124,45.780241],[6.550113,45.780055],[6.549631,45.780218],[6.548089,45.781375],[6.547339,45.781665],[6.546409,45.781791],[6.54436,45.78164],[6.543813,45.781302],[6.543302,45.780495],[6.542173,45.780634],[6.54138,45.780492],[6.539356,45.779835],[6.537866,45.779099],[6.53699,45.777958],[6.53649,45.776477],[6.535871,45.775738],[6.535542,45.774974],[6.535529,45.77402],[6.536268,45.773239],[6.536422,45.772309],[6.534519,45.770975],[6.533119,45.770284],[6.532159,45.769258],[6.531832,45.768567],[6.531828,45.768247],[6.532242,45.766961],[6.532638,45.766078],[6.533416,45.76507],[6.533903,45.763698],[6.533867,45.763384],[6.53364,45.763288],[6.533725,45.763153],[6.533436,45.762664],[6.533364,45.762188],[6.533393,45.761138],[6.533629,45.760222],[6.53419,45.759545],[6.534177,45.759411],[6.535303,45.758949],[6.536008,45.758405],[6.539084,45.757362],[6.539308,45.75713],[6.539694,45.757048],[6.540817,45.756417],[6.542485,45.75608],[6.544986,45.755198],[6.545582,45.754802],[6.545903,45.75434],[6.545907,45.753794],[6.546343,45.753138],[6.547276,45.750567],[6.547705,45.74868],[6.547477,45.748144],[6.54754,45.747781],[6.547789,45.747514],[6.548516,45.747343],[6.548926,45.747069],[6.549153,45.746135],[6.549559,45.745267],[6.549247,45.744779],[6.549265,45.744454],[6.5508,45.743158],[6.551795,45.742917],[6.553124,45.743156],[6.554842,45.742971],[6.556392,45.743229],[6.557928,45.743969],[6.558759,45.743996],[6.559333,45.744199],[6.559199,45.744006],[6.558223,45.743657],[6.557996,45.742849],[6.557481,45.742209],[6.556357,45.741701],[6.556379,45.741569],[6.557759,45.741749],[6.558363,45.742012],[6.559326,45.742094],[6.55997,45.742371],[6.560762,45.742919],[6.561692,45.743034],[6.562814,45.743355],[6.563262,45.743222],[6.56372,45.742675],[6.564129,45.742631],[6.566542,45.743715],[6.567995,45.7446],[6.569014,45.744518],[6.569421,45.744602],[6.570304,45.745227],[6.571965,45.747514],[6.572793,45.747943],[6.574798,45.749636],[6.575052,45.750044],[6.575831,45.750552],[6.576111,45.751072],[6.576756,45.751529],[6.577515,45.751632],[6.57766,45.751901],[6.57782,45.751779],[6.577651,45.751471],[6.577017,45.751228],[6.576731,45.750931],[6.576755,45.750518],[6.57627,45.749202],[6.575657,45.748385],[6.57492,45.746807],[6.574289,45.746384],[6.574136,45.746],[6.573,45.745076],[6.571497,45.743445],[6.57087,45.743109],[6.570827,45.742754],[6.569932,45.741078],[6.568952,45.740294],[6.568132,45.73922],[6.566038,45.738225],[6.565673,45.737591],[6.564872,45.736713],[6.564024,45.734668],[6.562457,45.733851],[6.561086,45.73267],[6.56063,45.732572],[6.559482,45.732975],[6.55791,45.733018],[6.556336,45.733798],[6.552381,45.733973],[6.551376,45.734288],[6.55105,45.734209],[6.550506,45.733679],[6.549842,45.733386],[6.548324,45.733634],[6.547739,45.733563],[6.545741,45.732944],[6.542856,45.731753],[6.541564,45.731925],[6.54075,45.732287],[6.540537,45.732208],[6.540597,45.73209],[6.541619,45.731702],[6.543164,45.731362],[6.544549,45.731766],[6.546075,45.731652],[6.548786,45.732087],[6.550041,45.731966],[6.551546,45.732184],[6.552021,45.731945],[6.552686,45.731352],[6.554989,45.730315],[6.557053,45.730241],[6.560553,45.729725],[6.562082,45.729704],[6.562238,45.729647],[6.56224,45.729513],[6.556393,45.72919],[6.555002,45.72927],[6.55336,45.728959],[6.550713,45.728854],[6.550071,45.729213],[6.549971,45.729063],[6.550434,45.728655],[6.551486,45.728656],[6.554021,45.728271],[6.555967,45.727398],[6.556012,45.727267],[6.555835,45.727216],[6.554733,45.72761],[6.55125,45.727906],[6.551122,45.727822],[6.551204,45.727714],[6.552281,45.727587],[6.553804,45.727172],[6.553903,45.727025],[6.550659,45.726852],[6.549408,45.727352],[6.54769,45.727029],[6.545912,45.726938],[6.545788,45.726792],[6.547673,45.725943],[6.550206,45.725671],[6.551657,45.725268],[6.552503,45.724854],[6.557856,45.721523],[6.562641,45.719692],[6.563591,45.719543],[6.565502,45.719588],[6.571618,45.720014],[6.572625,45.71975],[6.573146,45.719485],[6.573434,45.719085],[6.57418,45.718676],[6.575378,45.717752],[6.576052,45.716726],[6.576232,45.716017],[6.576272,45.715041],[6.576687,45.714507],[6.578399,45.714137],[6.579716,45.713244],[6.582232,45.71295],[6.584312,45.711948],[6.586479,45.711807],[6.587492,45.711429],[6.589318,45.711075],[6.590069,45.71024],[6.590197,45.709945],[6.589981,45.709905],[6.589804,45.710147],[6.589483,45.71029],[6.589332,45.710267],[6.589325,45.710131],[6.591546,45.708606],[6.591949,45.707882],[6.59305,45.707528],[6.593635,45.707203],[6.595418,45.707031],[6.597244,45.707059],[6.600971,45.706566],[6.602655,45.706964],[6.603265,45.707248],[6.604824,45.707536],[6.60535,45.707299],[6.60597,45.707299],[6.607101,45.706976],[6.608744,45.707355],[6.609463,45.707039],[6.610993,45.706754],[6.61133,45.7068],[6.611926,45.707129],[6.612537,45.707019],[6.613035,45.707119],[6.614691,45.70643],[6.616677,45.706401],[6.618207,45.706255],[6.619103,45.706016],[6.61969,45.705487],[6.620576,45.703619],[6.620958,45.703462],[6.621615,45.703752],[6.622855,45.703637],[6.623338,45.703777],[6.623992,45.704245],[6.624314,45.704758],[6.624387,45.705221],[6.624643,45.705216],[6.624359,45.703882],[6.62323,45.702181],[6.62145,45.701222],[6.619115,45.700781],[6.618415,45.699721],[6.61778,45.699282],[6.614929,45.698429],[6.614671,45.698148],[6.614504,45.697404],[6.614177,45.697053],[6.614269,45.696901],[6.614435,45.69692],[6.615258,45.697643],[6.616168,45.698087],[6.617349,45.697949],[6.618632,45.698059],[6.619324,45.698249],[6.619942,45.698626],[6.620102,45.698594],[6.618795,45.697724],[6.616685,45.696949],[6.616955,45.69684],[6.618995,45.697287],[6.620397,45.697949],[6.621036,45.698441],[6.621995,45.698455],[6.623523,45.698984],[6.625804,45.699385],[6.626455,45.699717],[6.627512,45.700647],[6.628221,45.701065],[6.628463,45.701599],[6.629412,45.702778],[6.629514,45.703106],[6.629393,45.704256],[6.629471,45.704974],[6.630017,45.705589],[6.630754,45.706926],[6.630824,45.707421],[6.630987,45.707511],[6.631178,45.707355],[6.630863,45.706016],[6.630961,45.705515],[6.630679,45.705006],[6.630896,45.704557],[6.631449,45.701856],[6.630696,45.700175],[6.630909,45.700185],[6.631633,45.700927],[6.632018,45.701637],[6.632253,45.70288],[6.632123,45.703694],[6.632412,45.70411],[6.632493,45.70456],[6.633029,45.705368],[6.633134,45.706134],[6.632892,45.706866],[6.632974,45.706985],[6.633152,45.706938],[6.633566,45.705367],[6.633587,45.704484],[6.63347,45.704173],[6.633608,45.703694],[6.633452,45.703082],[6.63378,45.701754],[6.633851,45.699572],[6.634165,45.699088],[6.634204,45.69858],[6.634177,45.698316],[6.63383,45.697891],[6.633902,45.69728],[6.633765,45.696849],[6.633023,45.695476],[6.633138,45.695075],[6.633882,45.694907],[6.635187,45.695244],[6.636142,45.695811],[6.636718,45.696401],[6.637656,45.696914],[6.638482,45.698005],[6.640337,45.699381],[6.642076,45.700182],[6.643941,45.700728],[6.644323,45.700756],[6.644827,45.700596],[6.645415,45.69991],[6.645814,45.699762],[6.647499,45.700369],[6.648282,45.700912],[6.64885,45.701074],[6.649492,45.700965],[6.650126,45.700339],[6.650423,45.700212],[6.653041,45.700355],[6.654073,45.699851],[6.655084,45.699542],[6.655385,45.698796],[6.656129,45.698181],[6.65632,45.697873],[6.656358,45.697248],[6.655414,45.694937],[6.655544,45.694587],[6.656097,45.694415],[6.656676,45.694613],[6.656822,45.69492],[6.656759,45.695685],[6.657059,45.695933],[6.6576,45.695936],[6.657984,45.695601],[6.657616,45.69422],[6.656823,45.693835],[6.655476,45.692568],[6.653646,45.691223],[6.653663,45.691091],[6.654639,45.691717],[6.656175,45.692324],[6.657761,45.693206],[6.6595,45.694415],[6.660528,45.695427],[6.661828,45.696023],[6.66292,45.696289],[6.663761,45.6963],[6.665033,45.695655],[6.66518,45.69538],[6.664942,45.69494],[6.664991,45.694556],[6.665562,45.693825],[6.666544,45.693554],[6.667736,45.693522],[6.670145,45.692972],[6.670785,45.692623],[6.671474,45.692466],[6.672627,45.691824],[6.673236,45.69121],[6.674949,45.690876],[6.677219,45.691173],[6.679145,45.692235],[6.679701,45.69296],[6.681502,45.69336],[6.682371,45.69419],[6.682665,45.694246],[6.682758,45.69403],[6.681838,45.692635],[6.680542,45.691617],[6.679986,45.690956],[6.680005,45.690619],[6.680227,45.690328],[6.680642,45.690109],[6.681249,45.690025],[6.681841,45.690157],[6.682513,45.690872],[6.684041,45.691562],[6.685072,45.691193],[6.686849,45.691048],[6.687676,45.691456],[6.689759,45.6912],[6.691851,45.691588],[6.692386,45.691956],[6.692515,45.692849],[6.692748,45.69316],[6.693762,45.693696],[6.694394,45.69386],[6.695244,45.693891],[6.696788,45.693676],[6.697623,45.693439],[6.700502,45.692229],[6.701371,45.692114],[6.701967,45.692174],[6.704787,45.692977],[6.712641,45.693902],[6.714789,45.694467],[6.716119,45.694322],[6.716507,45.694519],[6.716657,45.694746],[6.716333,45.695446],[6.716408,45.695739],[6.716676,45.695875],[6.717393,45.695687],[6.718411,45.695843],[6.719509,45.697323],[6.719938,45.697403],[6.721477,45.697263],[6.722091,45.697634],[6.722518,45.697707],[6.723732,45.697397],[6.724734,45.698035],[6.72514,45.69807],[6.725334,45.697801],[6.725084,45.697152],[6.722663,45.69607],[6.722547,45.695902],[6.722733,45.695829],[6.723474,45.696093],[6.725337,45.696127],[6.726384,45.696353],[6.726748,45.696277],[6.726745,45.696104],[6.725461,45.695783],[6.724137,45.695174],[6.723275,45.69531],[6.722479,45.695186],[6.722055,45.694913],[6.722112,45.694608],[6.722578,45.694265],[6.723527,45.693901],[6.726499,45.694024],[6.730926,45.693316],[6.731949,45.693324],[6.732323,45.692729],[6.732625,45.690797],[6.733081,45.688991],[6.732772,45.687964],[6.733265,45.686298],[6.733857,45.685905],[6.735541,45.685752],[6.736714,45.685148],[6.737187,45.684576],[6.737746,45.683097],[6.739383,45.682104],[6.739955,45.681164],[6.743213,45.678376],[6.746122,45.677219],[6.747361,45.676117],[6.748491,45.675685],[6.749879,45.675448],[6.751605,45.67421],[6.753792,45.674138],[6.754536,45.673846],[6.755333,45.673267],[6.756411,45.672924],[6.757311,45.672209],[6.757557,45.671677],[6.757486,45.671206],[6.75891,45.670462],[6.759164,45.670499],[6.759818,45.671009],[6.760802,45.67123],[6.76249,45.671242],[6.763565,45.671048],[6.764798,45.671257],[6.765321,45.671083],[6.767795,45.67107],[6.76916,45.670798],[6.77033,45.670172],[6.770955,45.670361],[6.771742,45.670108],[6.773435,45.670066],[6.774401,45.669817],[6.774336,45.669722],[6.771621,45.669681],[6.771629,45.669587],[6.772417,45.669299],[6.774166,45.669244],[6.772973,45.668953],[6.771819,45.668902],[6.771821,45.668797],[6.774236,45.6686],[6.774695,45.66878],[6.775417,45.668538],[6.774735,45.668592],[6.774199,45.668271],[6.77334,45.668175],[6.772757,45.667948],[6.772247,45.668133],[6.771673,45.668135],[6.772219,45.667969],[6.772286,45.66766],[6.772467,45.667586],[6.774889,45.667815],[6.773659,45.667299],[6.773126,45.667333],[6.772772,45.66708],[6.772109,45.667027],[6.773392,45.666799],[6.774437,45.667102],[6.776044,45.666533],[6.776028,45.666427],[6.77559,45.666414],[6.775084,45.66611],[6.774492,45.666207],[6.774329,45.666044],[6.775404,45.665439],[6.777089,45.664924],[6.778202,45.663727],[6.779046,45.663218],[6.779225,45.662981],[6.77928,45.662448],[6.780022,45.661914],[6.780686,45.661037],[6.781634,45.660381],[6.781804,45.65933],[6.782677,45.65864],[6.783141,45.657529],[6.78391,45.656458],[6.786054,45.654506],[6.786838,45.653575],[6.786952,45.653368],[6.786964,45.65258],[6.787245,45.651939],[6.787706,45.651328],[6.787795,45.649941],[6.786669,45.648395],[6.786089,45.647223],[6.78611,45.646393],[6.785848,45.645623],[6.78613,45.643664],[6.786155,45.641969],[6.785086,45.640484],[6.785042,45.639834],[6.784367,45.639011],[6.784557,45.638467],[6.784466,45.637942],[6.784663,45.637299],[6.785263,45.636498],[6.785562,45.635563],[6.785373,45.634679],[6.785475,45.634165],[6.785018,45.633286],[6.784164,45.632323],[6.784228,45.631175],[6.784075,45.630617],[6.783768,45.630013],[6.782975,45.629053],[6.783404,45.628749],[6.784606,45.628899],[6.784825,45.629051],[6.785404,45.629965],[6.785599,45.630008],[6.785633,45.629881],[6.785195,45.62889],[6.783843,45.62789],[6.78161,45.627357],[6.782888,45.627184],[6.782861,45.626993],[6.78242,45.626839],[6.781869,45.626839],[6.780204,45.62622],[6.779396,45.625576],[6.778653,45.625171],[6.778907,45.624576],[6.778516,45.623847],[6.778218,45.623616],[6.778167,45.623411],[6.778276,45.623299],[6.778563,45.623341],[6.778572,45.623756],[6.780367,45.625158],[6.781453,45.625571],[6.783345,45.625684],[6.784969,45.626151],[6.785385,45.626293],[6.786304,45.627016],[6.787068,45.627114],[6.790559,45.62685],[6.793307,45.626232],[6.794094,45.625736],[6.79445,45.625223],[6.794952,45.625086],[6.797569,45.623811],[6.797414,45.624067],[6.797536,45.624284],[6.79871,45.624213],[6.799825,45.623874],[6.800271,45.623586],[6.800595,45.623106],[6.801407,45.623412],[6.802228,45.623449],[6.803362,45.623166],[6.803873,45.623347],[6.804717,45.623315],[6.805174,45.623425],[6.806356,45.623278],[6.807449,45.623748],[6.808951,45.623964],[6.808004,45.624382],[6.808069,45.624609],[6.811638,45.625229],[6.811513,45.625429],[6.809605,45.626156],[6.80906,45.626508],[6.809064,45.626734],[6.811879,45.626877],[6.812362,45.626772],[6.813021,45.626095],[6.813049,45.625827],[6.812689,45.625365],[6.812749,45.625202],[6.813473,45.624376],[6.814256,45.623959],[6.814608,45.623301],[6.815272,45.622542],[6.816277,45.622209],[6.816945,45.621484],[6.817604,45.62109],[6.819421,45.620659],[6.821854,45.619371],[6.823149,45.618912],[6.823207,45.619042],[6.822516,45.619292],[6.819121,45.621979],[6.818834,45.622655],[6.817737,45.623562],[6.817404,45.6245],[6.817286,45.625676],[6.816707,45.626308],[6.815828,45.626977],[6.816036,45.627038],[6.81801,45.625942],[6.818274,45.625236],[6.819472,45.623764],[6.820752,45.622961],[6.821328,45.622197],[6.82244,45.621822],[6.823304,45.621144],[6.825463,45.620313],[6.82548,45.620462],[6.824004,45.621098],[6.822815,45.622085],[6.821355,45.623883],[6.821068,45.624467],[6.820882,45.626147],[6.820227,45.627025],[6.82029,45.627909],[6.81998,45.628728],[6.820264,45.628617],[6.820874,45.627211],[6.821442,45.626828],[6.821747,45.626389],[6.821853,45.625534],[6.822295,45.624434],[6.82306,45.623804],[6.825594,45.622808],[6.8261,45.622773],[6.827127,45.623026],[6.828244,45.622772],[6.828369,45.622876],[6.827349,45.623159],[6.825988,45.623119],[6.825493,45.623233],[6.824762,45.623623],[6.823837,45.624378],[6.823942,45.62497],[6.823426,45.626237],[6.823639,45.626701],[6.823465,45.628586],[6.823325,45.628819],[6.822604,45.629328],[6.822494,45.629641],[6.822663,45.629743],[6.822941,45.629225],[6.823749,45.628826],[6.824304,45.627454],[6.824364,45.626955],[6.825126,45.625841],[6.826109,45.62514],[6.827067,45.624808],[6.828086,45.625176],[6.830028,45.62509],[6.83057,45.625397],[6.831126,45.625532],[6.831441,45.625438],[6.83175,45.625032],[6.831989,45.625078],[6.831607,45.625576],[6.831279,45.625725],[6.829675,45.625627],[6.828917,45.625753],[6.827944,45.625645],[6.827396,45.625801],[6.826988,45.626304],[6.826926,45.626876],[6.826668,45.627354],[6.826772,45.628115],[6.826895,45.628194],[6.827078,45.628062],[6.82695,45.627483],[6.827515,45.627061],[6.827766,45.626516],[6.828054,45.626326],[6.830293,45.627056],[6.831802,45.626795],[6.833205,45.626289],[6.833707,45.625809],[6.834701,45.625641],[6.835891,45.624364],[6.836697,45.624182],[6.837181,45.623803],[6.837618,45.623662],[6.838212,45.622926],[6.839478,45.622412],[6.841485,45.620931],[6.843866,45.620177],[6.844982,45.619644],[6.845148,45.619764],[6.842102,45.621125],[6.84155,45.621622],[6.84087,45.622009],[6.840426,45.623054],[6.838946,45.624249],[6.838785,45.624545],[6.838773,45.625175],[6.838489,45.625544],[6.837712,45.626116],[6.83684,45.626535],[6.836011,45.627521],[6.835011,45.628056],[6.834974,45.628192],[6.835171,45.628202],[6.836103,45.627715],[6.836454,45.627317],[6.837896,45.626671],[6.838572,45.626099],[6.839806,45.625573],[6.840213,45.62496],[6.841315,45.624315],[6.842085,45.623453],[6.842747,45.623198],[6.843607,45.623111],[6.844834,45.622604],[6.845447,45.622154],[6.846362,45.621734],[6.850347,45.621808],[6.851384,45.621535],[6.852451,45.62142],[6.854084,45.621488],[6.854917,45.621714],[6.856447,45.621395],[6.857136,45.621455],[6.85778,45.621196],[6.859741,45.621005],[6.859788,45.621103],[6.859668,45.621171],[6.857752,45.621433],[6.857002,45.621945],[6.856119,45.621972],[6.85527,45.622406],[6.852884,45.622631],[6.851643,45.623052],[6.850816,45.623175],[6.850742,45.623296],[6.85096,45.623347],[6.853312,45.622847],[6.855311,45.623064],[6.85699,45.622946],[6.85818,45.6226],[6.859914,45.622731],[6.861225,45.623275],[6.86481,45.623917],[6.865187,45.624033],[6.865261,45.624172],[6.865074,45.624236],[6.864367,45.624001],[6.862648,45.624143],[6.860471,45.623997],[6.858299,45.624014],[6.858169,45.624178],[6.857638,45.624222],[6.856798,45.62489],[6.855162,45.625632],[6.852397,45.625812],[6.851359,45.626092],[6.850562,45.626658],[6.849911,45.626901],[6.849477,45.627347],[6.848758,45.62776],[6.84811,45.628835],[6.84672,45.630003],[6.846628,45.630209],[6.848053,45.631808],[6.848924,45.632501],[6.849094,45.63297],[6.849203,45.634344],[6.850081,45.634916],[6.850528,45.63591],[6.849362,45.637038],[6.848652,45.637436],[6.848091,45.637628],[6.847142,45.637694],[6.846875,45.637839],[6.846699,45.638104],[6.846667,45.638625],[6.846407,45.639281],[6.845391,45.640223],[6.844291,45.641702],[6.845545,45.642197],[6.847103,45.64322],[6.84763,45.643728],[6.8478,45.644174],[6.848104,45.644484],[6.850149,45.645709],[6.851946,45.647035],[6.852198,45.647729],[6.852957,45.649021],[6.854151,45.649583],[6.854996,45.649788],[6.856379,45.65052],[6.857182,45.651723],[6.85793,45.652432],[6.858334,45.653214],[6.859541,45.654163],[6.859796,45.654779],[6.86102,45.655436],[6.861341,45.656141],[6.861615,45.656411],[6.862624,45.656859],[6.863132,45.657281],[6.864386,45.659068],[6.865788,45.659693],[6.868009,45.661425],[6.868928,45.661871],[6.869319,45.66233],[6.869804,45.662428],[6.870537,45.662273],[6.870728,45.662343],[6.870402,45.663208],[6.870538,45.663952],[6.8713,45.665027],[6.871486,45.665798],[6.871901,45.66643],[6.872327,45.667583],[6.872265,45.668315],[6.872724,45.668779],[6.87248,45.669349],[6.872938,45.670105],[6.873401,45.67062],[6.87373,45.670601],[6.873722,45.670345],[6.873165,45.669626],[6.873203,45.669432],[6.873481,45.66948],[6.881495,45.676632],[6.882653,45.678926],[6.88332,45.6797],[6.884531,45.680106],[6.884661,45.680321],[6.88458,45.680886],[6.884671,45.681146],[6.88527,45.682086],[6.887589,45.684927],[6.887829,45.685512],[6.8886,45.686644],[6.888783,45.687531],[6.888637,45.687957],[6.888683,45.688401],[6.889606,45.69002],[6.890013,45.690258],[6.891157,45.690357],[6.891549,45.690788],[6.891579,45.691025],[6.89136,45.691158],[6.890424,45.690916],[6.889151,45.690887],[6.88948,45.691131],[6.89076,45.691584],[6.890214,45.691622],[6.890124,45.691805],[6.890761,45.69276],[6.891983,45.693478],[6.893169,45.693497],[6.894292,45.693927],[6.895258,45.693984],[6.896954,45.694697],[6.898522,45.69515],[6.898823,45.695365],[6.899506,45.696261],[6.901309,45.697377],[6.902209,45.698158],[6.903035,45.698415],[6.904455,45.699324],[6.905776,45.699767],[6.906938,45.700522],[6.907037,45.700737],[6.90652,45.701023],[6.906604,45.70158],[6.906428,45.701932],[6.907819,45.702853],[6.911601,45.704553],[6.911745,45.704708],[6.911535,45.704978],[6.91161,45.705224],[6.912478,45.705766],[6.912806,45.706149],[6.912634,45.70672],[6.912285,45.707028],[6.912061,45.707505],[6.911205,45.708046],[6.910541,45.708244],[6.910547,45.708335],[6.91149,45.708115],[6.912621,45.707639],[6.913472,45.707102],[6.914341,45.70707],[6.914729,45.706839],[6.914942,45.706915],[6.914818,45.707131],[6.914232,45.707236],[6.913852,45.70745],[6.91327,45.708128],[6.9125,45.708509],[6.911652,45.709193],[6.909302,45.709428],[6.909263,45.709598],[6.909442,45.709685],[6.911445,45.709612],[6.912679,45.710061],[6.915961,45.709113],[6.917288,45.709144],[6.917951,45.708632],[6.917992,45.708138],[6.918337,45.707716],[6.918294,45.707445],[6.92024,45.707325],[6.920806,45.706738],[6.921,45.706842],[6.920972,45.707252],[6.921073,45.707408],[6.922834,45.707776],[6.923124,45.707677],[6.922982,45.707476],[6.923042,45.707367],[6.923535,45.707241],[6.925447,45.707624],[6.925658,45.707588],[6.925887,45.707342],[6.926444,45.707556],[6.92698,45.707576],[6.929549,45.70761],[6.931324,45.707435],[6.933817,45.707538],[6.933877,45.707621],[6.933709,45.707666],[6.93165,45.707806],[6.930195,45.708669],[6.929255,45.70882],[6.93046,45.708946],[6.931962,45.708851],[6.933514,45.708443],[6.932866,45.709003],[6.932167,45.709308],[6.930296,45.709798],[6.931641,45.709579],[6.93304,45.70969],[6.934285,45.709378],[6.933739,45.709719],[6.932665,45.709989],[6.932325,45.710313],[6.931073,45.710513],[6.930954,45.710725],[6.932035,45.711347],[6.934327,45.712022],[6.935282,45.71268],[6.937578,45.713505],[6.936833,45.713117],[6.936262,45.712236],[6.936415,45.712043],[6.936712,45.712069],[6.937506,45.712912],[6.939665,45.714067],[6.940165,45.714489],[6.940353,45.714998],[6.941262,45.715517],[6.94129,45.715357],[6.940789,45.714927],[6.940452,45.714261],[6.939576,45.713199],[6.939546,45.713074],[6.939696,45.713058],[6.940348,45.713572],[6.941457,45.713953],[6.94171,45.714609],[6.942425,45.715755],[6.942547,45.715686],[6.942306,45.714991],[6.942496,45.714517],[6.942365,45.714125],[6.942793,45.713372],[6.943363,45.713112],[6.944214,45.713811],[6.945076,45.713387],[6.944723,45.712506],[6.944899,45.712163],[6.945514,45.712071],[6.946847,45.711464],[6.947775,45.711576],[6.948247,45.711854],[6.948714,45.711264],[6.948664,45.710718],[6.94887,45.710432],[6.949731,45.709635],[6.950993,45.708818],[6.951439,45.7083]]}},{"type":"Feature","properties":{"kind":"stop","index":0,"name":"Saint Charles · Val Cenis","time":"","detail":"Group morning departure"},"geometry":{"type":"Point","coordinates":[6.8850567,45.2849656]}},{"type":"Feature","properties":{"kind":"stop","index":1,"name":"Col de l’Iseran approach","time":"","detail":"Roadbook waypoint"},"geometry":{"type":"Point","coordinates":[7.0387658,45.3969199]}},{"type":"Feature","properties":{"kind":"stop","index":2,"name":"Col de l’Iseran","time":"","detail":"High pass"},"geometry":{"type":"Point","coordinates":[7.030626,45.417126]}},{"type":"Feature","properties":{"kind":"stop","index":3,"name":"Intermarché Bourg-Saint-Maurice","time":"","detail":"Fuel"},"geometry":{"type":"Point","coordinates":[6.779659,45.623635]}},{"type":"Feature","properties":{"kind":"stop","index":4,"name":"Cormet de Roselend","time":"","detail":"Roadbook waypoint"},"geometry":{"type":"Point","coordinates":[6.6906235,45.691339]}},{"type":"Feature","properties":{"kind":"stop","index":5,"name":"Le Chalet Savoyard · Col des Aravis","time":"13:14","detail":"Lunch and rendezvous"},"geometry":{"type":"Point","coordinates":[6.4634548,45.872759]}},{"type":"Feature","properties":{"kind":"stop","index":6,"name":"Les Saisies","time":"15:57","detail":"Scenic leg"},"geometry":{"type":"Point","coordinates":[6.541775,45.756431]}},{"type":"Feature","properties":{"kind":"stop","index":7,"name":"Le Chalet de Roselend","time":"16:42","detail":"Coffee and photo stop"},"geometry":{"type":"Point","coordinates":[6.6348689,45.695036]}},{"type":"Feature","properties":{"kind":"stop","index":8,"name":"Hospice du Petit-Saint-Bernard","time":"","detail":"France–Italy crossing"},"geometry":{"type":"Point","coordinates":[6.8756012,45.6714524]}},{"type":"Feature","properties":{"kind":"stop","index":9,"name":"Chalet Eden · La Thuile","time":"18:50","detail":"Dinner 20:30"},"geometry":{"type":"Point","coordinates":[6.9511927,45.7081906]}}]}
