{"type":"FeatureCollection","properties":{"id":"thursday-loop","distanceMetres":341466.3,"durationSeconds":21221.5,"generatedBy":"OSRM using OpenStreetMap data","stopGeometryIndexes":[0,227,520,538,975,1149,1261,1345,1516,1539,1781,2084,2221,2245]},"features":[{"type":"Feature","properties":{"kind":"route","color":"#396b67"},"geometry":{"type":"LineString","coordinates":[[6.951439,45.7083],[6.950993,45.708818],[6.949731,45.709635],[6.949251,45.710131],[6.949503,45.711885],[6.949373,45.712525],[6.948953,45.714203],[6.948321,45.715655],[6.948267,45.716417],[6.947967,45.717088],[6.947467,45.717672],[6.947697,45.717812],[6.94721,45.71862],[6.947671,45.720314],[6.947337,45.722078],[6.947719,45.722483],[6.951638,45.725527],[6.953669,45.726915],[6.954992,45.728052],[6.957406,45.728704],[6.958037,45.729033],[6.957943,45.729171],[6.957204,45.728868],[6.955874,45.728853],[6.956282,45.729062],[6.957179,45.729223],[6.957873,45.729657],[6.958576,45.730283],[6.959476,45.731376],[6.959612,45.73195],[6.960069,45.73261],[6.960129,45.733117],[6.960584,45.734134],[6.961464,45.735647],[6.961302,45.735782],[6.961101,45.735754],[6.960868,45.73517],[6.960667,45.735005],[6.959714,45.735176],[6.959804,45.735882],[6.960204,45.736616],[6.95999,45.737131],[6.960031,45.737464],[6.961863,45.739038],[6.963151,45.739606],[6.963848,45.74113],[6.96524,45.742619],[6.966038,45.74313],[6.966801,45.74341],[6.967478,45.743912],[6.967915,45.745088],[6.969022,45.746617],[6.971098,45.747983],[6.971868,45.748715],[6.972245,45.749643],[6.972707,45.750039],[6.973847,45.750454],[6.977014,45.752346],[6.978618,45.753718],[6.979433,45.754194],[6.979964,45.754845],[6.982535,45.755943],[6.982853,45.756538],[6.98389,45.757158],[6.983965,45.757436],[6.983319,45.758867],[6.982368,45.759268],[6.98176,45.760368],[6.981958,45.760387],[6.982209,45.759788],[6.982671,45.759405],[6.984617,45.759271],[6.983071,45.759545],[6.982603,45.759833],[6.982337,45.760651],[6.981676,45.761401],[6.981769,45.761506],[6.981908,45.761451],[6.982032,45.761183],[6.982739,45.760652],[6.983014,45.760147],[6.984242,45.759737],[6.984673,45.759729],[6.983692,45.760003],[6.983327,45.760452],[6.983279,45.760795],[6.982947,45.760962],[6.982719,45.761331],[6.982205,45.761706],[6.982401,45.761746],[6.983084,45.76111],[6.983624,45.760933],[6.983799,45.760577],[6.983977,45.760549],[6.98388,45.760903],[6.983322,45.761215],[6.982772,45.761886],[6.982926,45.761947],[6.983533,45.761305],[6.984107,45.761103],[6.984339,45.760709],[6.984515,45.760716],[6.983364,45.762202],[6.983141,45.76285],[6.983351,45.763938],[6.983256,45.765626],[6.983007,45.766229],[6.98308,45.766289],[6.984904,45.764684],[6.986514,45.763939],[6.989012,45.763485],[6.990007,45.762609],[6.990598,45.762371],[6.991248,45.762382],[6.992695,45.762802],[6.994951,45.762675],[6.997329,45.763495],[6.998336,45.763591],[6.9998,45.763194],[7.001506,45.76249],[7.003347,45.762503],[7.004706,45.762326],[7.007858,45.76141],[7.00986,45.761555],[7.011235,45.761447],[7.014862,45.760695],[7.0172,45.760388],[7.020635,45.760688],[7.023156,45.760288],[7.026142,45.760189],[7.028655,45.760336],[7.030401,45.759737],[7.030592,45.759436],[7.03114,45.759463],[7.035534,45.758359],[7.036395,45.757857],[7.038613,45.756022],[7.043641,45.753813],[7.04384,45.753494],[7.044369,45.753485],[7.050624,45.750685],[7.050757,45.750535],[7.050792,45.750071],[7.050596,45.747353],[7.051006,45.746542],[7.051922,45.746044],[7.055194,45.745377],[7.057967,45.744539],[7.059554,45.74362],[7.06037,45.742953],[7.061026,45.742184],[7.061481,45.74144],[7.062366,45.739376],[7.062997,45.738455],[7.063887,45.73762],[7.065244,45.736878],[7.067186,45.73635],[7.069239,45.736289],[7.071221,45.736676],[7.075984,45.738151],[7.078886,45.738514],[7.080023,45.738529],[7.082148,45.73832],[7.084315,45.737871],[7.085635,45.737361],[7.087791,45.736403],[7.090023,45.734636],[7.097319,45.726054],[7.098655,45.724956],[7.100364,45.72415],[7.107569,45.722185],[7.112231,45.720705],[7.115278,45.719402],[7.117413,45.718323],[7.119323,45.717274],[7.123141,45.714684],[7.132013,45.706901],[7.134461,45.705378],[7.137476,45.704209],[7.148774,45.700582],[7.153984,45.699074],[7.158054,45.698237],[7.16558,45.697641],[7.189902,45.698129],[7.192098,45.697909],[7.193954,45.697554],[7.200208,45.695528],[7.202531,45.694936],[7.204977,45.694561],[7.20731,45.694378],[7.209467,45.694396],[7.21106,45.694546],[7.214075,45.695083],[7.21754,45.696165],[7.238754,45.706065],[7.241153,45.706802],[7.241642,45.706731],[7.242188,45.706441],[7.242651,45.706514],[7.243518,45.707129],[7.244616,45.708491],[7.247566,45.711043],[7.248251,45.711171],[7.250839,45.711078],[7.251949,45.711614],[7.254691,45.711784],[7.255491,45.711971],[7.255983,45.712353],[7.256251,45.713206],[7.256536,45.713569],[7.261947,45.717936],[7.262687,45.718416],[7.263753,45.719486],[7.265677,45.721078],[7.267705,45.721862],[7.270594,45.723653],[7.271685,45.723955],[7.274242,45.724183],[7.275219,45.724496],[7.283129,45.729239],[7.283974,45.729351],[7.284291,45.729602],[7.284875,45.729741],[7.287886,45.729586],[7.288595,45.72981],[7.28929,45.730313],[7.294976,45.732064],[7.299082,45.73269],[7.303138,45.733235],[7.303043,45.733677],[7.30399,45.736452],[7.304369,45.736937],[7.307416,45.738375],[7.310076,45.738833],[7.311035,45.738806],[7.31063,45.739462],[7.310529,45.739908],[7.310906,45.74029],[7.312345,45.741224],[7.313168,45.74154],[7.314389,45.741453],[7.314356,45.741741],[7.315,45.74239],[7.315902,45.742751],[7.316323,45.74345],[7.317744,45.7443],[7.319467,45.744697],[7.321978,45.744747],[7.322188,45.744806],[7.322306,45.745342],[7.321349,45.74693],[7.321163,45.747056],[7.31998,45.747184],[7.318951,45.746942],[7.318101,45.747166],[7.317023,45.746954],[7.316827,45.747049],[7.316816,45.747233],[7.316999,45.747361],[7.319167,45.748549],[7.319352,45.748927],[7.319032,45.749754],[7.318558,45.750234],[7.31878,45.750622],[7.317743,45.75192],[7.317784,45.752772],[7.317529,45.753371],[7.317713,45.753832],[7.317326,45.754378],[7.316934,45.756437],[7.315533,45.758858],[7.314909,45.761457],[7.314635,45.762103],[7.312067,45.76462],[7.311591,45.766174],[7.308629,45.770691],[7.307843,45.772558],[7.307662,45.773287],[7.307133,45.773552],[7.306847,45.773453],[7.306734,45.773234],[7.307327,45.771801],[7.307674,45.770487],[7.30756,45.770227],[7.307143,45.770156],[7.306879,45.770378],[7.307012,45.771159],[7.306659,45.771687],[7.305355,45.772121],[7.30413,45.772006],[7.303246,45.77225],[7.302717,45.772672],[7.302194,45.773591],[7.301606,45.774082],[7.301612,45.774645],[7.301464,45.774853],[7.29967,45.775247],[7.29892,45.776688],[7.297518,45.777329],[7.297649,45.77752],[7.298196,45.777799],[7.298258,45.77793],[7.298155,45.778058],[7.297537,45.778309],[7.295934,45.778425],[7.295437,45.778748],[7.295006,45.779886],[7.295478,45.780976],[7.296005,45.781241],[7.297199,45.78107],[7.297614,45.781145],[7.297959,45.781448],[7.297975,45.781747],[7.29748,45.782822],[7.296178,45.783898],[7.294875,45.787936],[7.293003,45.790831],[7.292603,45.791108],[7.291992,45.791236],[7.288776,45.790762],[7.287791,45.790849],[7.286332,45.791327],[7.284875,45.791164],[7.284631,45.791413],[7.284895,45.791749],[7.286093,45.79241],[7.287361,45.792721],[7.287535,45.79292],[7.28755,45.793168],[7.28732,45.793416],[7.2833,45.795904],[7.280887,45.796661],[7.278858,45.797831],[7.275017,45.799125],[7.273931,45.799929],[7.272592,45.800682],[7.270425,45.80124],[7.269042,45.8018],[7.261115,45.803348],[7.257188,45.804309],[7.255693,45.804854],[7.252602,45.806499],[7.250517,45.807396],[7.248994,45.80784],[7.246819,45.807782],[7.245657,45.807932],[7.239864,45.810298],[7.239444,45.810529],[7.238812,45.811167],[7.237791,45.812972],[7.237855,45.815775],[7.23751,45.816509],[7.236484,45.817097],[7.231957,45.81896],[7.230085,45.819285],[7.229851,45.820572],[7.229141,45.821213],[7.229347,45.821324],[7.230137,45.820965],[7.230436,45.821001],[7.230404,45.821183],[7.229997,45.821341],[7.222988,45.822508],[7.219204,45.824698],[7.218623,45.824837],[7.21636,45.824637],[7.214788,45.825012],[7.213042,45.824474],[7.210727,45.824225],[7.209205,45.82389],[7.2081,45.823955],[7.20458,45.823053],[7.203543,45.823037],[7.202185,45.822752],[7.199953,45.822679],[7.198873,45.822333],[7.197325,45.822124],[7.193771,45.822219],[7.193154,45.822406],[7.190915,45.822675],[7.189756,45.82303],[7.187767,45.824083],[7.18781,45.824213],[7.187557,45.824666],[7.187639,45.825472],[7.187508,45.827007],[7.187592,45.827087],[7.187755,45.827011],[7.187656,45.826374],[7.187939,45.825488],[7.187946,45.824959],[7.188143,45.824544],[7.188364,45.824593],[7.188072,45.824968],[7.188324,45.827775],[7.187898,45.829886],[7.18779,45.831934],[7.18654,45.832982],[7.185714,45.833469],[7.184798,45.83452],[7.184975,45.834531],[7.185966,45.833507],[7.187352,45.833058],[7.18748,45.833186],[7.186742,45.833351],[7.186154,45.833683],[7.183624,45.837386],[7.183108,45.837818],[7.182463,45.838804],[7.181748,45.839365],[7.180523,45.840727],[7.180147,45.841567],[7.179917,45.842696],[7.179594,45.842916],[7.1788,45.843119],[7.177624,45.843784],[7.176315,45.845106],[7.175929,45.84566],[7.175635,45.845667],[7.175262,45.845343],[7.175282,45.84521],[7.176886,45.843698],[7.177039,45.843005],[7.17813,45.841067],[7.178044,45.840822],[7.177837,45.840923],[7.177823,45.841335],[7.176191,45.842964],[7.174134,45.844325],[7.172314,45.84509],[7.170431,45.846124],[7.168774,45.84655],[7.167207,45.847307],[7.165307,45.84743],[7.164803,45.847776],[7.161432,45.849034],[7.160424,45.849824],[7.158962,45.850291],[7.157326,45.850542],[7.156766,45.850737],[7.155315,45.851617],[7.153833,45.85214],[7.15345,45.852521],[7.15263,45.852488],[7.152394,45.852668],[7.152408,45.853209],[7.15217,45.853543],[7.150443,45.854471],[7.150717,45.855044],[7.151341,45.855714],[7.151241,45.855862],[7.150515,45.85613],[7.150512,45.856302],[7.151475,45.856559],[7.15298,45.856548],[7.154023,45.857034],[7.154774,45.857059],[7.154784,45.857194],[7.153669,45.85718],[7.152925,45.856883],[7.151667,45.857074],[7.150091,45.857132],[7.14884,45.856984],[7.147806,45.857015],[7.145695,45.856549],[7.144881,45.855759],[7.144596,45.855299],[7.144402,45.855336],[7.144905,45.856132],[7.14521,45.856919],[7.146674,45.857716],[7.151956,45.858519],[7.153187,45.85854],[7.154247,45.859194],[7.154567,45.85971],[7.154876,45.859942],[7.155457,45.860954],[7.155916,45.861358],[7.156268,45.861428],[7.157185,45.861223],[7.157848,45.860553],[7.158118,45.860438],[7.158741,45.860837],[7.158749,45.861158],[7.159025,45.861713],[7.159371,45.861725],[7.16009,45.861196],[7.160458,45.861299],[7.160855,45.861948],[7.160823,45.862504],[7.160229,45.863071],[7.15948,45.863138],[7.159383,45.863876],[7.159147,45.864227],[7.159256,45.865149],[7.159139,45.865371],[7.158309,45.86551],[7.157309,45.864385],[7.156227,45.86405],[7.155819,45.863823],[7.155626,45.863545],[7.155441,45.863536],[7.155352,45.863629],[7.155433,45.863898],[7.155682,45.864302],[7.155126,45.864461],[7.154322,45.864296],[7.154191,45.864734],[7.15363,45.86539],[7.151417,45.866595],[7.151642,45.866887],[7.15151,45.867375],[7.151986,45.867853],[7.152929,45.867746],[7.153919,45.86802],[7.154078,45.868306],[7.153783,45.869243],[7.156578,45.869179],[7.156913,45.869493],[7.156883,45.870309],[7.157451,45.870546],[7.157981,45.870599],[7.158492,45.870447],[7.16136,45.868943],[7.161497,45.868781],[7.161537,45.86816],[7.161682,45.86792],[7.162401,45.867561],[7.16322,45.867395],[7.16392,45.867082],[7.164853,45.867338],[7.165278,45.868022],[7.165273,45.868656],[7.165683,45.869059],[7.166169,45.869226],[7.167149,45.869281],[7.16857,45.869593],[7.169909,45.869352],[7.170598,45.868974],[7.171035,45.868919],[7.172252,45.869385],[7.173096,45.86937],[7.173998,45.869833],[7.175648,45.870158],[7.176407,45.870646],[7.177116,45.870813],[7.178069,45.871722],[7.178376,45.871736],[7.17837,45.871568],[7.177641,45.870809],[7.17702,45.870388],[7.177135,45.870304],[7.179406,45.871823],[7.179527,45.872099],[7.17903,45.872697],[7.179173,45.873079],[7.179088,45.873764],[7.179339,45.874297],[7.179105,45.874648],[7.179317,45.87505],[7.179303,45.875601],[7.179974,45.876199],[7.180043,45.87673],[7.18021,45.876769],[7.180178,45.876201],[7.179872,45.875608],[7.180093,45.875175],[7.180072,45.874575],[7.1806,45.873956],[7.180851,45.873917],[7.180921,45.874364],[7.181204,45.874801],[7.181589,45.875901],[7.183047,45.877642],[7.182912,45.878469],[7.182436,45.879533],[7.18253,45.879705],[7.183169,45.880044],[7.182587,45.880476],[7.183999,45.880729],[7.184373,45.881675],[7.185332,45.882619],[7.185443,45.882958],[7.185282,45.884349],[7.18545,45.884856],[7.188168,45.886216],[7.188109,45.886315],[7.187078,45.886233],[7.187793,45.886631],[7.18873,45.887473],[7.188807,45.888105],[7.188689,45.88947],[7.186898,45.891642],[7.186438,45.893056],[7.186455,45.894634],[7.187244,45.897401],[7.187603,45.898156],[7.188557,45.89861],[7.190017,45.898994],[7.191105,45.898825],[7.191501,45.898515],[7.193432,45.897998],[7.194565,45.898221],[7.195247,45.898588],[7.19561,45.898969],[7.195713,45.899368],[7.195696,45.9008],[7.195897,45.90132],[7.196335,45.901897],[7.196665,45.902219],[7.197868,45.902882],[7.199771,45.903541],[7.200245,45.9039],[7.200575,45.904365],[7.200953,45.905639],[7.201042,45.906705],[7.200913,45.908105],[7.201087,45.910188],[7.201716,45.912468],[7.20154,45.915904],[7.201934,45.917283],[7.201521,45.91873],[7.201492,45.920096],[7.201207,45.921354],[7.201355,45.923792],[7.201621,45.924326],[7.203535,45.926336],[7.203923,45.927232],[7.204233,45.928448],[7.205566,45.929981],[7.206023,45.931215],[7.206573,45.931994],[7.207559,45.933953],[7.207846,45.935218],[7.208562,45.937146],[7.20845,45.939985],[7.209209,45.941666],[7.208818,45.943502],[7.208817,45.94423],[7.209011,45.945123],[7.209604,45.946505],[7.209586,45.947764],[7.20975,45.948828],[7.209249,45.951561],[7.209341,45.952631],[7.209776,45.954246],[7.209788,45.955339],[7.20961,45.956099],[7.208838,45.957919],[7.20867,45.959055],[7.208821,45.960242],[7.209591,45.962374],[7.209461,45.963856],[7.209608,45.965679],[7.208968,45.967654],[7.20877,45.970601],[7.207328,45.973076],[7.206514,45.973596],[7.204821,45.974055],[7.204333,45.974304],[7.203415,45.97519],[7.202433,45.975906],[7.200195,45.978145],[7.199077,45.978912],[7.19762,45.979674],[7.19723,45.980177],[7.196999,45.981236],[7.196613,45.981681],[7.195339,45.982324],[7.194149,45.983155],[7.191249,45.984576],[7.189928,45.986356],[7.188743,45.987229],[7.187838,45.988245],[7.187134,45.988679],[7.185906,45.990077],[7.184035,45.990965],[7.183979,45.991261],[7.184311,45.992304],[7.183632,45.993474],[7.179757,45.995269],[7.177761,45.995999],[7.17772,45.996164],[7.178443,45.996936],[7.178451,45.997278],[7.178312,45.997533],[7.176923,45.998299],[7.175121,46.001343],[7.17358,46.003257],[7.172021,46.004233],[7.171145,46.00518],[7.170184,46.005809],[7.16986,46.00621],[7.169754,46.0067],[7.169922,46.007135],[7.171234,46.007893],[7.171491,46.008393],[7.171347,46.008839],[7.169975,46.010372],[7.169649,46.01055],[7.169375,46.010368],[7.170057,46.009833],[7.170254,46.009446],[7.169873,46.008053],[7.16959,46.007925],[7.169369,46.008126],[7.169461,46.008648],[7.169372,46.00905],[7.168887,46.00975],[7.167903,46.011895],[7.167115,46.012479],[7.165948,46.01294],[7.16476,46.014704],[7.163515,46.015597],[7.162616,46.016024],[7.161075,46.016304],[7.161016,46.01656],[7.1617,46.017023],[7.161702,46.017267],[7.160889,46.017345],[7.159714,46.017784],[7.15922,46.018123],[7.156848,46.018745],[7.155692,46.019528],[7.153589,46.020514],[7.152602,46.021182],[7.150797,46.023563],[7.150638,46.025091],[7.150286,46.026211],[7.150398,46.027284],[7.150043,46.027734],[7.149197,46.027823],[7.148779,46.027588],[7.148558,46.027223],[7.148559,46.026485],[7.148933,46.024708],[7.148795,46.023736],[7.148568,46.023338],[7.1481,46.023026],[7.147501,46.022938],[7.146863,46.023134],[7.146576,46.023446],[7.146572,46.024005],[7.147274,46.024958],[7.147507,46.025714],[7.147381,46.026871],[7.147522,46.02871],[7.147328,46.030778],[7.147473,46.032631],[7.146953,46.034786],[7.147203,46.036665],[7.146938,46.038407],[7.146989,46.038839],[7.147202,46.039174],[7.147043,46.039507],[7.147029,46.039966],[7.147337,46.040972],[7.148495,46.042987],[7.148789,46.044081],[7.148706,46.045261],[7.147981,46.047056],[7.147822,46.048072],[7.148092,46.049198],[7.149221,46.050872],[7.149555,46.051678],[7.149672,46.05265],[7.149622,46.053894],[7.149825,46.055425],[7.149688,46.056613],[7.148658,46.058765],[7.148307,46.059819],[7.148304,46.061449],[7.148482,46.062003],[7.149284,46.063101],[7.150147,46.063779],[7.151455,46.064527],[7.152452,46.065385],[7.152758,46.06594],[7.153114,46.067342],[7.15413,46.068402],[7.154184,46.068725],[7.153921,46.069287],[7.153888,46.070023],[7.154893,46.072177],[7.154013,46.073312],[7.153978,46.074652],[7.15405,46.074945],[7.154971,46.075897],[7.154993,46.076685],[7.152947,46.079134],[7.149767,46.07933],[7.146045,46.07909],[7.145469,46.079175],[7.144362,46.078938],[7.143507,46.078478],[7.142874,46.078294],[7.141285,46.078084],[7.138107,46.07799],[7.134084,46.078204],[7.130616,46.079233],[7.128945,46.079419],[7.127882,46.079252],[7.12579,46.078399],[7.124574,46.078284],[7.123736,46.078416],[7.11978,46.079573],[7.117531,46.07986],[7.115421,46.0804],[7.113189,46.080589],[7.110518,46.081193],[7.107652,46.08135],[7.104788,46.081877],[7.096051,46.082303],[7.09456,46.082102],[7.092041,46.081104],[7.090997,46.080843],[7.087976,46.080906],[7.087022,46.080754],[7.086093,46.080244],[7.084943,46.078941],[7.083961,46.078515],[7.080368,46.078396],[7.078147,46.077809],[7.075415,46.077484],[7.074333,46.077011],[7.072453,46.075683],[7.071355,46.075322],[7.06781,46.074783],[7.066928,46.074387],[7.065505,46.073472],[7.064709,46.073169],[7.058773,46.072623],[7.056734,46.073213],[7.054434,46.073481],[7.053329,46.073804],[7.052595,46.074225],[7.052193,46.074629],[7.051867,46.075094],[7.051661,46.075713],[7.051659,46.076228],[7.051879,46.076862],[7.053454,46.079032],[7.053635,46.079449],[7.053561,46.081185],[7.052957,46.082452],[7.052949,46.083062],[7.053197,46.08349],[7.054264,46.084463],[7.054413,46.086202],[7.055249,46.08769],[7.055623,46.087962],[7.055762,46.088244],[7.056366,46.088641],[7.05774,46.089092],[7.058769,46.089062],[7.062353,46.088404],[7.063643,46.088361],[7.065969,46.088568],[7.067959,46.089043],[7.075504,46.092427],[7.077221,46.093623],[7.080039,46.096336],[7.081563,46.097313],[7.088434,46.099789],[7.090782,46.100868],[7.092669,46.10206],[7.094232,46.103374],[7.095549,46.104871],[7.096561,46.10652],[7.097122,46.107926],[7.097435,46.109367],[7.097453,46.111436],[7.096908,46.113544],[7.097083,46.114166],[7.097541,46.114661],[7.104123,46.117336],[7.107296,46.118925],[7.110358,46.120674],[7.150744,46.146604],[7.156165,46.149972],[7.159309,46.151728],[7.16276,46.153423],[7.166026,46.154761],[7.169262,46.15583],[7.174266,46.157018],[7.184227,46.15859],[7.189603,46.159636],[7.194582,46.161018],[7.199039,46.16283],[7.201363,46.16406],[7.203924,46.165621],[7.217944,46.175053],[7.223678,46.178626],[7.229488,46.181786],[7.240702,46.187282],[7.244844,46.189637],[7.249155,46.192613],[7.257241,46.199175],[7.260555,46.201629],[7.263378,46.203434],[7.26573,46.204764],[7.271059,46.207289],[7.27571,46.209028],[7.279915,46.210285],[7.284255,46.211301],[7.288883,46.212095],[7.292383,46.212508],[7.29629,46.212784],[7.312547,46.21321],[7.316573,46.213584],[7.320702,46.214204],[7.326157,46.2154],[7.338563,46.218805],[7.34394,46.220114],[7.349823,46.221297],[7.360149,46.223083],[7.364052,46.224014],[7.367578,46.225303],[7.370612,46.226855],[7.372053,46.227777],[7.379107,46.233067],[7.38175,46.234889],[7.38503,46.23682],[7.388381,46.238434],[7.392468,46.239997],[7.396823,46.241254],[7.401352,46.242226],[7.41274,46.244195],[7.41814,46.245289],[7.423787,46.246811],[7.428613,46.24846],[7.433658,46.250578],[7.437987,46.252772],[7.441646,46.254953],[7.452947,46.262366],[7.455868,46.263906],[7.459075,46.26523],[7.462274,46.266247],[7.48148,46.271568],[7.492668,46.274457],[7.496459,46.275281],[7.508837,46.277572],[7.512412,46.278417],[7.514531,46.278492],[7.515285,46.27869],[7.515415,46.278887],[7.514972,46.279275],[7.513217,46.280129],[7.513412,46.280624],[7.514025,46.281038],[7.518551,46.2825],[7.519181,46.282521],[7.520029,46.282256],[7.520558,46.282242],[7.524349,46.283261],[7.531678,46.284434],[7.533921,46.284068],[7.534874,46.284052],[7.536795,46.284693],[7.538113,46.284733],[7.539388,46.284544],[7.539767,46.284747],[7.541044,46.28497],[7.539824,46.286277],[7.540197,46.286977],[7.540664,46.287415],[7.541495,46.287803],[7.541805,46.288359],[7.541687,46.288772],[7.541922,46.289106],[7.541356,46.289719],[7.541922,46.289106],[7.541687,46.288772],[7.541814,46.28839],[7.541495,46.287803],[7.540858,46.287512],[7.540069,46.286832],[7.539824,46.286277],[7.541044,46.28497],[7.541619,46.285187],[7.542052,46.285518],[7.542284,46.285874],[7.542511,46.286652],[7.54326,46.287234],[7.544016,46.288273],[7.544516,46.289351],[7.544997,46.291556],[7.545301,46.292155],[7.545903,46.292836],[7.547276,46.293551],[7.549352,46.29617],[7.550418,46.296778],[7.553166,46.297616],[7.565413,46.302798],[7.566357,46.303541],[7.56757,46.305699],[7.568124,46.306186],[7.568592,46.306401],[7.581504,46.309767],[7.582116,46.310265],[7.585504,46.311807],[7.586431,46.312099],[7.587345,46.312167],[7.589566,46.31197],[7.592113,46.312135],[7.594612,46.31204],[7.596189,46.312311],[7.598336,46.313085],[7.602203,46.314048],[7.604089,46.314199],[7.60804,46.314882],[7.616075,46.315927],[7.61874,46.316419],[7.621216,46.316554],[7.627959,46.315442],[7.629592,46.314773],[7.632509,46.313193],[7.633946,46.312721],[7.635145,46.312572],[7.63793,46.312549],[7.639345,46.312218],[7.639575,46.312116],[7.639515,46.311994],[7.639624,46.311903],[7.641475,46.311698],[7.643252,46.310921],[7.646157,46.310708],[7.647336,46.310495],[7.649933,46.309418],[7.650865,46.308915],[7.650956,46.308732],[7.651147,46.308783],[7.651117,46.308932],[7.651378,46.309138],[7.651804,46.309205],[7.654695,46.308395],[7.66493,46.306051],[7.668557,46.305464],[7.671964,46.305176],[7.675782,46.305151],[7.679819,46.305464],[7.683472,46.306028],[7.69814,46.308718],[7.701063,46.309077],[7.706096,46.309364],[7.709919,46.309289],[7.71361,46.308994],[7.729165,46.306917],[7.734929,46.3058],[7.737778,46.304961],[7.737995,46.304814],[7.737962,46.304595],[7.738126,46.304527],[7.738271,46.304669],[7.74168,46.305592],[7.747511,46.306108],[7.751093,46.306557],[7.753706,46.305848],[7.754294,46.306164],[7.75741,46.307129],[7.759279,46.307462],[7.761354,46.307616],[7.764155,46.307461],[7.777877,46.305681],[7.785532,46.305215],[7.794767,46.305443],[7.813479,46.306311],[7.826896,46.307604],[7.830637,46.307476],[7.841809,46.306112],[7.848493,46.305088],[7.851448,46.304346],[7.859108,46.301865],[7.860192,46.301361],[7.860958,46.300817],[7.861567,46.300143],[7.861997,46.299317],[7.862301,46.296302],[7.862726,46.295164],[7.863411,46.294102],[7.872288,46.281298],[7.873079,46.280515],[7.874123,46.279772],[7.875257,46.279189],[7.87767,46.278457],[7.889304,46.276651],[7.893406,46.276564],[7.898564,46.276957],[7.902981,46.277706],[7.905147,46.278285],[7.907158,46.279036],[7.908945,46.279984],[7.91061,46.281136],[7.912645,46.283018],[7.922769,46.294125],[7.92513,46.295997],[7.927474,46.297204],[7.932731,46.298988],[7.934282,46.29972],[7.937506,46.301571],[7.938965,46.302163],[7.940729,46.302648],[7.94342,46.30298],[7.946251,46.302894],[7.947852,46.302711],[7.950876,46.301977],[7.952634,46.301796],[7.953636,46.301834],[7.955767,46.30229],[7.963724,46.304804],[7.964432,46.305119],[7.964901,46.305567],[7.965063,46.306513],[7.965464,46.306803],[7.965233,46.307384],[7.966461,46.31037],[7.967122,46.311355],[7.968036,46.312217],[7.969496,46.313131],[7.970627,46.313555],[7.975236,46.314462],[7.976738,46.314901],[7.977767,46.315635],[7.97886,46.317137],[7.979526,46.31755],[7.981175,46.318104],[7.9838,46.319901],[7.988911,46.320475],[7.991289,46.320861],[8.0023,46.324365],[8.004479,46.324803],[8.008508,46.325301],[8.010111,46.325835],[8.011309,46.326634],[8.01208,46.327689],[8.012228,46.328357],[8.012247,46.330328],[8.012515,46.331991],[8.0129,46.333194],[8.013456,46.334035],[8.014239,46.334798],[8.014455,46.334811],[8.014451,46.334961],[8.015365,46.335604],[8.017283,46.337431],[8.018266,46.337913],[8.020702,46.338675],[8.021336,46.339049],[8.023446,46.340812],[8.023779,46.340635],[8.023446,46.340812],[8.025365,46.34243],[8.026126,46.343757],[8.026852,46.344512],[8.027913,46.345136],[8.031571,46.346554],[8.032357,46.347129],[8.033804,46.348696],[8.036416,46.349909],[8.037777,46.351162],[8.03971,46.352252],[8.041256,46.353568],[8.044048,46.354622],[8.045293,46.355449],[8.046889,46.356912],[8.049074,46.357666],[8.050248,46.358578],[8.050959,46.359536],[8.052964,46.36035],[8.053177,46.360621],[8.053338,46.361449],[8.054208,46.36205],[8.059362,46.364021],[8.060496,46.364988],[8.063698,46.366162],[8.065048,46.366933],[8.066091,46.367303],[8.067258,46.367468],[8.067892,46.367732],[8.068178,46.367998],[8.068683,46.369109],[8.06904,46.369393],[8.069839,46.36956],[8.071194,46.369351],[8.071975,46.369446],[8.072459,46.369667],[8.073882,46.370719],[8.075323,46.371136],[8.076389,46.371643],[8.077199,46.371629],[8.07917,46.370862],[8.079727,46.370772],[8.081177,46.371359],[8.082363,46.371552],[8.083599,46.372054],[8.085049,46.372848],[8.086832,46.373574],[8.088299,46.374563],[8.089668,46.375228],[8.089839,46.375525],[8.089893,46.377367],[8.091108,46.378751],[8.091434,46.378917],[8.093311,46.378988],[8.094614,46.378675],[8.096124,46.377188],[8.096379,46.376433],[8.096658,46.376239],[8.099977,46.37651],[8.099944,46.376687],[8.098589,46.376712],[8.097116,46.376965],[8.096998,46.377077],[8.098861,46.377345],[8.100074,46.377883],[8.101401,46.378283],[8.101956,46.378572],[8.104593,46.380613],[8.106466,46.381048],[8.107733,46.381602],[8.110155,46.38335],[8.110815,46.384282],[8.1126,46.385942],[8.114386,46.387108],[8.115202,46.387402],[8.116991,46.387658],[8.118385,46.388009],[8.121591,46.389556],[8.12198,46.390075],[8.121899,46.390535],[8.121282,46.391212],[8.121324,46.391489],[8.121525,46.391706],[8.123025,46.392159],[8.124192,46.39277],[8.125632,46.393193],[8.125976,46.393415],[8.12642,46.393958],[8.128968,46.395759],[8.130584,46.396275],[8.131954,46.396894],[8.132162,46.396869],[8.132207,46.397011],[8.134509,46.398625],[8.136949,46.399977],[8.137529,46.401214],[8.138377,46.401846],[8.138554,46.402345],[8.137067,46.403819],[8.136973,46.404045],[8.137732,46.403579],[8.138951,46.403544],[8.140001,46.402935],[8.141596,46.403357],[8.142097,46.403932],[8.142725,46.404176],[8.144688,46.405429],[8.146045,46.407014],[8.147308,46.408237],[8.148829,46.408984],[8.14992,46.410081],[8.150892,46.410598],[8.152871,46.411558],[8.154004,46.412412],[8.15626,46.412983],[8.157692,46.413672],[8.159112,46.414747],[8.159703,46.415486],[8.16301,46.41705],[8.164197,46.417745],[8.165831,46.418969],[8.167924,46.419831],[8.16891,46.420564],[8.170333,46.422253],[8.172121,46.42344],[8.174207,46.425191],[8.174907,46.426062],[8.177476,46.427406],[8.179051,46.4287],[8.179555,46.429369],[8.181418,46.430797],[8.182204,46.431049],[8.183595,46.431753],[8.184711,46.432698],[8.185856,46.433336],[8.18716,46.433716],[8.187776,46.43435],[8.189203,46.435179],[8.190193,46.435477],[8.191688,46.435469],[8.192371,46.435639],[8.193924,46.436707],[8.195913,46.437451],[8.20014,46.439681],[8.201202,46.440496],[8.202537,46.441809],[8.202725,46.442299],[8.202768,46.44334],[8.203247,46.444132],[8.203646,46.44453],[8.204827,46.445135],[8.206457,46.446502],[8.208307,46.44854],[8.210382,46.450463],[8.210782,46.450959],[8.211109,46.451834],[8.212352,46.453087],[8.213635,46.453704],[8.214292,46.453875],[8.215303,46.453929],[8.216895,46.454629],[8.217017,46.45486],[8.216896,46.456142],[8.217103,46.456456],[8.217969,46.456766],[8.224545,46.457196],[8.226881,46.458027],[8.229567,46.459557],[8.231405,46.461052],[8.232205,46.462131],[8.232479,46.462645],[8.233212,46.465009],[8.233933,46.465897],[8.235255,46.466547],[8.238126,46.467129],[8.238921,46.467409],[8.24203,46.469529],[8.243113,46.469922],[8.244778,46.470782],[8.246983,46.472501],[8.248168,46.473237],[8.250583,46.475128],[8.251852,46.476689],[8.252454,46.477232],[8.254662,46.478386],[8.256403,46.479676],[8.262372,46.486271],[8.262347,46.486465],[8.261841,46.486718],[8.261882,46.486873],[8.262327,46.486952],[8.263025,46.487341],[8.264073,46.487363],[8.264772,46.487213],[8.265759,46.487273],[8.26852,46.487794],[8.272232,46.488729],[8.274764,46.489823],[8.276844,46.491042],[8.277707,46.491683],[8.278588,46.492603],[8.280437,46.495694],[8.281045,46.495987],[8.28438,46.496652],[8.285434,46.497154],[8.286328,46.497985],[8.287567,46.50014],[8.288211,46.500577],[8.290314,46.501044],[8.292268,46.500916],[8.294777,46.501879],[8.29567,46.502487],[8.296649,46.504003],[8.297777,46.504898],[8.300657,46.50585],[8.305002,46.506485],[8.307236,46.507801],[8.308644,46.508344],[8.309984,46.508621],[8.310967,46.509699],[8.311894,46.510415],[8.318756,46.513747],[8.319782,46.513995],[8.32076,46.514043],[8.323703,46.513651],[8.325201,46.514482],[8.325293,46.514665],[8.325257,46.515609],[8.325386,46.515868],[8.327562,46.517553],[8.328886,46.519649],[8.329337,46.521043],[8.329498,46.5226],[8.329748,46.523133],[8.330315,46.523732],[8.334378,46.525777],[8.337161,46.52745],[8.339454,46.528344],[8.342994,46.531649],[8.343851,46.532807],[8.345702,46.533235],[8.34722,46.534207],[8.348773,46.534462],[8.349483,46.535075],[8.349684,46.536061],[8.349974,46.536416],[8.351249,46.536905],[8.35393,46.538251],[8.355204,46.538653],[8.356517,46.539246],[8.358403,46.540791],[8.359642,46.54134],[8.359484,46.541442],[8.358403,46.541067],[8.355737,46.540511],[8.355148,46.540521],[8.353425,46.539369],[8.351525,46.538654],[8.35026,46.538324],[8.350115,46.538395],[8.351286,46.53892],[8.352895,46.539983],[8.35355,46.540757],[8.354325,46.54147],[8.354853,46.541778],[8.355307,46.542322],[8.357661,46.543043],[8.357874,46.543659],[8.357776,46.543808],[8.356707,46.543866],[8.355872,46.544526],[8.355059,46.544283],[8.35493,46.544402],[8.355253,46.544714],[8.356217,46.545248],[8.357367,46.545425],[8.358477,46.546053],[8.358646,46.546328],[8.3587,46.546932],[8.36037,46.548389],[8.360406,46.54884],[8.359712,46.54994],[8.358709,46.551942],[8.355938,46.555147],[8.355735,46.556619],[8.355537,46.556563],[8.355477,46.555442],[8.355235,46.555441],[8.355264,46.55665],[8.35512,46.55728],[8.355205,46.557557],[8.355703,46.557914],[8.356519,46.557514],[8.356713,46.55758],[8.35593,46.558206],[8.356167,46.558997],[8.358083,46.560355],[8.359326,46.560737],[8.359911,46.561321],[8.361536,46.562257],[8.362137,46.562461],[8.362766,46.562263],[8.363022,46.562076],[8.36306,46.561883],[8.36141,46.560757],[8.35941,46.560349],[8.358405,46.560072],[8.358299,46.559927],[8.358495,46.559867],[8.359381,46.560201],[8.361494,46.560267],[8.363775,46.561378],[8.366285,46.561824],[8.368239,46.562743],[8.368607,46.562724],[8.36854,46.562555],[8.367991,46.562397],[8.366141,46.561318],[8.364167,46.561001],[8.365417,46.560972],[8.366739,46.561167],[8.368937,46.561898],[8.369804,46.562508],[8.371359,46.563258],[8.374925,46.56398],[8.376041,46.564016],[8.378917,46.56471],[8.38096,46.565596],[8.382463,46.566915],[8.383689,46.567425],[8.386121,46.568867],[8.38955,46.570162],[8.392332,46.570472],[8.39678,46.570503],[8.396801,46.570761],[8.396626,46.571022],[8.395623,46.571606],[8.393054,46.572067],[8.392155,46.572387],[8.391151,46.572416],[8.389161,46.572809],[8.389226,46.572945],[8.391218,46.572721],[8.392235,46.572801],[8.39478,46.572686],[8.395532,46.572517],[8.395727,46.572649],[8.395518,46.572799],[8.394273,46.572847],[8.390325,46.573446],[8.389418,46.574],[8.388558,46.574294],[8.388275,46.57465],[8.388003,46.575396],[8.386613,46.576267],[8.386606,46.576407],[8.386822,46.576434],[8.38855,46.575701],[8.3892,46.574977],[8.389906,46.574727],[8.390549,46.574292],[8.390731,46.574369],[8.389567,46.575295],[8.389197,46.575988],[8.388049,46.576833],[8.388194,46.576929],[8.388451,46.576789],[8.388793,46.576488],[8.389645,46.576177],[8.391108,46.575182],[8.392077,46.574899],[8.392714,46.57484],[8.392897,46.574968],[8.391624,46.575323],[8.390845,46.575962],[8.390827,46.576143],[8.391077,46.576178],[8.392069,46.575579],[8.392871,46.575405],[8.395299,46.575471],[8.396842,46.575182],[8.399042,46.575264],[8.401724,46.574563],[8.403981,46.574525],[8.404299,46.574386],[8.40484,46.573772],[8.405625,46.573244],[8.406437,46.572985],[8.408415,46.572643],[8.409625,46.571877],[8.410617,46.5717],[8.412002,46.571946],[8.413725,46.572059],[8.414545,46.572278],[8.415086,46.572595],[8.415846,46.573394],[8.416631,46.573769],[8.418013,46.5741],[8.418926,46.574466],[8.419575,46.575096],[8.420505,46.575464],[8.421094,46.576005],[8.423651,46.577551],[8.424868,46.578535],[8.424862,46.579057],[8.425143,46.579495],[8.42587,46.579852],[8.426131,46.580235],[8.426401,46.580224],[8.426287,46.579917],[8.425732,46.579557],[8.425858,46.57945],[8.427042,46.580351],[8.426652,46.580913],[8.42748,46.581708],[8.427152,46.582633],[8.427231,46.58292],[8.4284,46.583512],[8.428789,46.584382],[8.430034,46.585492],[8.430373,46.586162],[8.431255,46.587239],[8.432823,46.588064],[8.436402,46.587239],[8.43787,46.587312],[8.439957,46.587779],[8.442222,46.588001],[8.445523,46.58921],[8.45112,46.590705],[8.453497,46.591559],[8.453715,46.591718],[8.455352,46.594167],[8.45606,46.594627],[8.457172,46.594835],[8.457622,46.594735],[8.459201,46.59382],[8.461184,46.593005],[8.462016,46.592484],[8.463545,46.592387],[8.464541,46.59208],[8.466506,46.591961],[8.471089,46.591359],[8.472232,46.591007],[8.472499,46.590414],[8.473746,46.589806],[8.475574,46.589289],[8.477086,46.58904],[8.478518,46.589175],[8.47893,46.589257],[8.479974,46.589887],[8.480394,46.58981],[8.480387,46.589558],[8.479683,46.588791],[8.477779,46.587773],[8.477736,46.587619],[8.477877,46.587541],[8.480582,46.587112],[8.482505,46.587405],[8.484103,46.588013],[8.486032,46.589269],[8.486119,46.589465],[8.48571,46.589837],[8.485789,46.590028],[8.486399,46.590027],[8.487084,46.589839],[8.487161,46.58955],[8.486179,46.588063],[8.484689,46.586767],[8.48476,46.586633],[8.487128,46.587826],[8.488978,46.589337],[8.488964,46.589507],[8.488311,46.590151],[8.48822,46.590992],[8.48791,46.59149],[8.488119,46.592503],[8.488256,46.592556],[8.488408,46.591572],[8.488844,46.591219],[8.489196,46.590544],[8.490154,46.589671],[8.489934,46.588706],[8.489971,46.588226],[8.489398,46.587769],[8.489587,46.587644],[8.490578,46.588274],[8.490902,46.588618],[8.49069,46.589067],[8.490941,46.589977],[8.49086,46.590811],[8.491243,46.591641],[8.491445,46.591631],[8.49136,46.591142],[8.49178,46.590489],[8.491862,46.589953],[8.492408,46.589506],[8.492664,46.589563],[8.492753,46.590251],[8.493255,46.590673],[8.494013,46.590816],[8.494613,46.59068],[8.494606,46.590825],[8.493942,46.590989],[8.493665,46.591258],[8.49369,46.591891],[8.493998,46.592652],[8.494625,46.592891],[8.496905,46.594427],[8.497643,46.595494],[8.498322,46.595488],[8.499522,46.595881],[8.500192,46.596525],[8.501203,46.597041],[8.501579,46.597451],[8.50227,46.598929],[8.505182,46.600728],[8.506281,46.600978],[8.509139,46.601224],[8.515184,46.602688],[8.536681,46.610804],[8.537685,46.610951],[8.539535,46.610651],[8.540408,46.610707],[8.54613,46.61258],[8.548528,46.61315],[8.550509,46.613917],[8.553689,46.614823],[8.55583,46.615138],[8.557874,46.615879],[8.560464,46.616095],[8.56377,46.617787],[8.564394,46.617963],[8.565111,46.617986],[8.566277,46.61769],[8.566465,46.617605],[8.566448,46.617496],[8.565381,46.6172],[8.563535,46.617106],[8.563165,46.616842],[8.563201,46.616473],[8.563483,46.616282],[8.563849,46.616234],[8.565892,46.616794],[8.56729,46.616647],[8.568717,46.616685],[8.569208,46.616525],[8.570932,46.615494],[8.5711,46.615096],[8.570961,46.614259],[8.571847,46.61361],[8.572003,46.613361],[8.571974,46.613061],[8.571143,46.611564],[8.571305,46.611215],[8.571953,46.610697],[8.572024,46.610286],[8.571731,46.609945],[8.569787,46.608934],[8.568158,46.607872],[8.56593,46.60584],[8.565537,46.604441],[8.564349,46.602759],[8.563063,46.599749],[8.563006,46.599159],[8.563206,46.597444],[8.562334,46.596019],[8.562382,46.595054],[8.562081,46.594193],[8.562141,46.593972],[8.562779,46.593231],[8.56283,46.592754],[8.562695,46.592284],[8.561852,46.591482],[8.560782,46.591092],[8.560337,46.591097],[8.560121,46.59132],[8.560213,46.591522],[8.561536,46.59226],[8.561436,46.592568],[8.560955,46.592605],[8.559464,46.591573],[8.558057,46.590911],[8.557655,46.590395],[8.557688,46.589481],[8.557092,46.588645],[8.556902,46.587859],[8.557105,46.586784],[8.557646,46.585895],[8.557444,46.584742],[8.557572,46.584034],[8.557948,46.583486],[8.558942,46.582518],[8.559161,46.58211],[8.559179,46.58148],[8.558762,46.57986],[8.558795,46.578916],[8.559003,46.578323],[8.560258,46.576192],[8.560802,46.574272],[8.560888,46.573557],[8.560823,46.571918],[8.560946,46.570125],[8.560437,46.567602],[8.560714,46.565561],[8.560664,46.564957],[8.560109,46.563745],[8.558841,46.562204],[8.558659,46.561696],[8.558704,46.561056],[8.559015,46.560483],[8.559516,46.560023],[8.561693,46.559063],[8.562848,46.558265],[8.563715,46.558017],[8.565168,46.558044],[8.566503,46.557471],[8.56706,46.556999],[8.567381,46.556527],[8.567359,46.556116],[8.566968,46.555437],[8.567395,46.554827],[8.569146,46.554143],[8.571618,46.552794],[8.572733,46.550909],[8.572731,46.5506],[8.570214,46.549963],[8.569689,46.549619],[8.569232,46.549074],[8.569097,46.549139],[8.569277,46.549713],[8.568983,46.549805],[8.568742,46.549648],[8.568906,46.54925],[8.568752,46.548757],[8.568604,46.548788],[8.568396,46.549398],[8.568016,46.549339],[8.568422,46.548585],[8.568259,46.548554],[8.568074,46.548899],[8.567822,46.548859],[8.568196,46.548417],[8.568071,46.548349],[8.567911,46.548524],[8.567784,46.548499],[8.567962,46.547945],[8.569114,46.547554],[8.569879,46.546403],[8.569728,46.546385],[8.569271,46.546985],[8.568725,46.54737],[8.567094,46.547598],[8.566773,46.548222],[8.566688,46.548142],[8.566836,46.547328],[8.567974,46.547],[8.568591,46.545937],[8.568444,46.54589],[8.568012,46.546374],[8.567758,46.546487],[8.567212,46.546456],[8.566657,46.546208],[8.567309,46.546203],[8.567833,46.545957],[8.567767,46.54586],[8.567365,46.546075],[8.56724,46.54603],[8.567686,46.545494],[8.568048,46.545304],[8.569181,46.54522],[8.570976,46.544506],[8.570859,46.5444],[8.568856,46.544857],[8.569432,46.54465],[8.569895,46.544298],[8.570762,46.544116],[8.570698,46.544025],[8.569243,46.544086],[8.570905,46.543722],[8.57083,46.543627],[8.570126,46.543812],[8.569991,46.543746],[8.572301,46.542619],[8.572221,46.542479],[8.571479,46.542845],[8.571285,46.542804],[8.572158,46.542335],[8.571551,46.542565],[8.571455,46.542539],[8.571511,46.542456],[8.572742,46.542059],[8.57321,46.541546],[8.573666,46.541435],[8.574109,46.541155],[8.578102,46.540738],[8.579153,46.540455],[8.579785,46.540048],[8.580053,46.53899],[8.57931,46.538323],[8.579009,46.537617],[8.579142,46.537207],[8.579711,46.536564],[8.57991,46.536081],[8.579943,46.535019],[8.580802,46.533394],[8.58075,46.532518],[8.580885,46.532535],[8.581171,46.533273],[8.581156,46.53368],[8.581324,46.533646],[8.581427,46.53265],[8.581002,46.53197],[8.581351,46.531992],[8.582045,46.5333],[8.582961,46.533434],[8.584533,46.534069],[8.584583,46.534231],[8.584467,46.534379],[8.583613,46.534637],[8.58358,46.534848],[8.583735,46.535065],[8.584956,46.535433],[8.585229,46.534996],[8.585305,46.534584],[8.585142,46.533453],[8.584899,46.532893],[8.584438,46.532338],[8.583209,46.531483],[8.579512,46.529443],[8.579405,46.529283],[8.579491,46.529112],[8.579934,46.529097],[8.580821,46.5298],[8.581699,46.530136],[8.585541,46.530599],[8.589363,46.531539],[8.590684,46.532042],[8.592212,46.532883],[8.593103,46.533146],[8.595076,46.533355],[8.597861,46.533196],[8.599866,46.533356],[8.600074,46.533179],[8.599902,46.532953],[8.598746,46.532822],[8.594588,46.531763],[8.593408,46.531325],[8.592547,46.530815],[8.5919,46.530257],[8.590813,46.52865],[8.589871,46.527801],[8.58834,46.527142],[8.586409,46.526889],[8.586194,46.526738],[8.586186,46.526545],[8.586577,46.526364],[8.589784,46.526635],[8.595167,46.528249],[8.596552,46.528385],[8.597229,46.528267],[8.597985,46.52795],[8.599787,46.526075],[8.601228,46.52533],[8.602329,46.52508],[8.603479,46.524992],[8.60637,46.52509],[8.606206,46.525255],[8.604543,46.525134],[8.602676,46.525213],[8.600843,46.525643],[8.600549,46.525598],[8.600337,46.525397],[8.601327,46.525034],[8.602791,46.524799],[8.602913,46.524615],[8.602556,46.524501],[8.601691,46.524758],[8.5984,46.525303],[8.595866,46.525],[8.594672,46.525016],[8.591941,46.523917],[8.589735,46.523942],[8.588048,46.523511],[8.583841,46.522777],[8.582944,46.522434],[8.581517,46.522402],[8.580647,46.522103],[8.579701,46.522021],[8.577406,46.521146],[8.576835,46.521143],[8.575811,46.521366],[8.57496,46.521359],[8.571462,46.52078],[8.569554,46.520077],[8.56713,46.519695],[8.565981,46.519655],[8.564581,46.519293],[8.563126,46.519428],[8.560772,46.518346],[8.55906,46.517873],[8.557773,46.517171],[8.555305,46.517135],[8.55296,46.516635],[8.550318,46.516394],[8.549214,46.516047],[8.547846,46.515364],[8.546159,46.514922],[8.544763,46.514125],[8.541644,46.513458],[8.539823,46.513371],[8.537481,46.512197],[8.535325,46.511678],[8.534209,46.511185],[8.530979,46.510952],[8.528827,46.509984],[8.526332,46.509257],[8.523668,46.509019],[8.517232,46.506406],[8.513344,46.505592],[8.507097,46.502862],[8.50358,46.500854],[8.503321,46.500391],[8.503011,46.498835],[8.502495,46.498303],[8.501847,46.497933],[8.500565,46.497445],[8.498294,46.497257],[8.494316,46.495635],[8.492636,46.494578],[8.491705,46.493709],[8.490646,46.493107],[8.489587,46.492004],[8.489023,46.491633],[8.481359,46.489339],[8.478294,46.487774],[8.475885,46.487207],[8.473863,46.485863],[8.470415,46.484884],[8.469854,46.484476],[8.46893,46.483343],[8.468351,46.482997],[8.467455,46.482817],[8.465785,46.482825],[8.464922,46.482589],[8.463267,46.481357],[8.460993,46.480583],[8.459317,46.478915],[8.456773,46.478121],[8.454574,46.476879],[8.452716,46.476275],[8.451429,46.475255],[8.450271,46.474664],[8.44987,46.47418],[8.449694,46.474195],[8.449647,46.474339],[8.449946,46.475035],[8.450416,46.475472],[8.450317,46.475614],[8.44853,46.474758],[8.446905,46.473776],[8.445652,46.473488],[8.442361,46.473672],[8.439602,46.473407],[8.435492,46.473419],[8.432839,46.473884],[8.43121,46.473959],[8.429006,46.474416],[8.427926,46.474481],[8.426316,46.474269],[8.425709,46.474028],[8.425506,46.473622],[8.425779,46.472867],[8.425572,46.472766],[8.424289,46.47412],[8.423618,46.475096],[8.423576,46.475514],[8.423886,46.475843],[8.426994,46.47639],[8.430095,46.476309],[8.432289,46.476484],[8.432461,46.476648],[8.431318,46.476727],[8.42974,46.477216],[8.427402,46.477648],[8.424652,46.477715],[8.421314,46.478853],[8.420122,46.479007],[8.418838,46.478936],[8.417706,46.478641],[8.415099,46.478636],[8.413463,46.478111],[8.412443,46.477533],[8.411043,46.477444],[8.41032,46.47758],[8.409595,46.478235],[8.409128,46.478426],[8.408055,46.4785],[8.406429,46.47886],[8.40566,46.478844],[8.405015,46.47868],[8.402646,46.477567],[8.402266,46.477254],[8.401895,46.476708],[8.401672,46.476656],[8.401124,46.477617],[8.401178,46.478162],[8.402269,46.479146],[8.403171,46.479385],[8.403249,46.479531],[8.403001,46.479592],[8.401431,46.479389],[8.401072,46.479137],[8.400661,46.478594],[8.400439,46.478661],[8.400477,46.478985],[8.400592,46.479374],[8.400883,46.479688],[8.402572,46.480266],[8.402616,46.480403],[8.40247,46.480462],[8.39983,46.480139],[8.399138,46.479931],[8.398817,46.479519],[8.398525,46.478107],[8.398141,46.477785],[8.397562,46.477611],[8.396432,46.477534],[8.394365,46.478124],[8.392046,46.478117],[8.390941,46.478032],[8.388111,46.477181],[8.387525,46.477109],[8.387064,46.477247],[8.386794,46.477483],[8.386748,46.478168],[8.386839,46.479322],[8.386118,46.480254],[8.385974,46.480693],[8.387261,46.482349],[8.387148,46.482492],[8.385411,46.481182],[8.383972,46.479186],[8.381215,46.477256],[8.380234,46.476336],[8.380201,46.475984],[8.380367,46.475393],[8.381323,46.473544],[8.381627,46.473224],[8.382421,46.472899],[8.382435,46.472731],[8.38083,46.473076],[8.379412,46.474785],[8.378326,46.475704],[8.378271,46.476615],[8.379154,46.478502],[8.37932,46.47907],[8.379117,46.479178],[8.378929,46.478723],[8.377981,46.477583],[8.377727,46.477641],[8.378044,46.478484],[8.377885,46.478623],[8.376974,46.477211],[8.37672,46.477327],[8.376746,46.477768],[8.377046,46.478137],[8.376989,46.478238],[8.376759,46.478198],[8.376222,46.477556],[8.376315,46.476842],[8.376236,46.475686],[8.375914,46.474372],[8.376299,46.473728],[8.37602,46.473777],[8.375802,46.474058],[8.37546,46.475475],[8.374965,46.476353],[8.374897,46.476714],[8.374695,46.476766],[8.374606,46.476674],[8.374792,46.476221],[8.374698,46.474507],[8.374833,46.473452],[8.374728,46.473242],[8.372646,46.47201],[8.371345,46.471778],[8.370582,46.471993],[8.370218,46.472144],[8.370203,46.472262],[8.371479,46.472508],[8.371929,46.472806],[8.372149,46.473147],[8.372257,46.473411],[8.372148,46.475109],[8.371356,46.475828],[8.370266,46.476218],[8.368603,46.477651],[8.3685,46.478225],[8.367761,46.478739],[8.367731,46.479146],[8.367289,46.479656],[8.367128,46.480168],[8.366824,46.480521],[8.366638,46.48242],[8.365629,46.483222],[8.365166,46.483867],[8.365147,46.484406],[8.364883,46.484947],[8.364035,46.485655],[8.363029,46.486844],[8.361339,46.488044],[8.360039,46.488694],[8.359642,46.488738],[8.358493,46.488409],[8.357345,46.487681],[8.356629,46.48812],[8.354963,46.488714],[8.354333,46.489323],[8.353328,46.489847],[8.352835,46.490422],[8.352154,46.490726],[8.351083,46.491492],[8.35045,46.492347],[8.349629,46.492814],[8.349125,46.493302],[8.347877,46.494153],[8.347203,46.495223],[8.344018,46.497498],[8.340694,46.499622],[8.339223,46.50018],[8.337594,46.500604],[8.335586,46.500697],[8.333998,46.500392],[8.331484,46.499227],[8.329912,46.498954],[8.329772,46.499187],[8.330062,46.49965],[8.331248,46.500338],[8.331043,46.500639],[8.330888,46.500691],[8.330253,46.500465],[8.329666,46.500487],[8.328864,46.500717],[8.325851,46.500858],[8.325159,46.501046],[8.323904,46.501934],[8.323271,46.502552],[8.322077,46.503208],[8.321395,46.504827],[8.321391,46.505344],[8.320638,46.50573],[8.32013,46.506206],[8.31994,46.506218],[8.319871,46.506072],[8.320604,46.505348],[8.320712,46.505051],[8.320578,46.504707],[8.319828,46.503872],[8.320076,46.503243],[8.320013,46.502698],[8.320486,46.501617],[8.320253,46.501396],[8.320033,46.501516],[8.320002,46.501948],[8.319647,46.502481],[8.318706,46.503486],[8.317602,46.503565],[8.316718,46.504182],[8.315446,46.504568],[8.310229,46.505403],[8.306905,46.506901],[8.306692,46.506761],[8.306905,46.506901],[8.306287,46.507204],[8.304804,46.506419],[8.300657,46.50585],[8.298377,46.505149],[8.296997,46.504372],[8.296649,46.504003],[8.295886,46.502715],[8.294777,46.501879],[8.292268,46.500916],[8.290314,46.501044],[8.288029,46.500491],[8.287443,46.499983],[8.286328,46.497985],[8.285434,46.497154],[8.28438,46.496652],[8.281045,46.495987],[8.280437,46.495694],[8.278588,46.492603],[8.277707,46.491683],[8.276844,46.491042],[8.274764,46.489823],[8.272232,46.488729],[8.26852,46.487794]]}},{"type":"Feature","properties":{"kind":"stop","index":0,"name":"Chalet Eden · La Thuile","time":"09:00","detail":"Depart hotel"},"geometry":{"type":"Point","coordinates":[6.9511927,45.7081906]}},{"type":"Feature","properties":{"kind":"stop","index":1,"name":"ENI Aosta","time":"","detail":"Fuel"},"geometry":{"type":"Point","coordinates":[7.2990344,45.732847]}},{"type":"Feature","properties":{"kind":"stop","index":2,"name":"Saint-Rhémy viewpoint","time":"","detail":"Great St Bernard approach"},"geometry":{"type":"Point","coordinates":[7.1573899,45.8706294]}},{"type":"Feature","properties":{"kind":"stop","index":3,"name":"Great St Bernard Hospice","time":"10:48","detail":"Photo stop and border crossing"},"geometry":{"type":"Point","coordinates":[7.1705651,45.8689158]}},{"type":"Feature","properties":{"kind":"stop","index":4,"name":"Lac de Géronde","time":"12:33","detail":"Flexible lunch and swim"},"geometry":{"type":"Point","coordinates":[7.5409741,46.2873758]}},{"type":"Feature","properties":{"kind":"stop","index":5,"name":"Restaurant Z’Matt","time":"","detail":"Alternative lunch"},"geometry":{"type":"Point","coordinates":[8.023908,46.340697]}},{"type":"Feature","properties":{"kind":"stop","index":6,"name":"Hängebrücke Fürgangen","time":"","detail":"Suspension bridge"},"geometry":{"type":"Point","coordinates":[8.1509586,46.410532]}},{"type":"Feature","properties":{"kind":"stop","index":7,"name":"Hotel Landhaus","time":"15:14","detail":"Optional check-in"},"geometry":{"type":"Point","coordinates":[8.268457,46.4879271]}},{"type":"Feature","properties":{"kind":"stop","index":8,"name":"Belvedere Furka","time":"15:40","detail":"Glacier viewpoint"},"geometry":{"type":"Point","coordinates":[8.38835,46.576739]}},{"type":"Feature","properties":{"kind":"stop","index":9,"name":"Furka photo point","time":"","detail":"Roadbook waypoint"},"geometry":{"type":"Point","coordinates":[8.4093321,46.5716026]}},{"type":"Feature","properties":{"kind":"stop","index":10,"name":"Parcheggio Tremola","time":"","detail":"Historic Gotthard road"},"geometry":{"type":"Point","coordinates":[8.5686232,46.5496678]}},{"type":"Feature","properties":{"kind":"stop","index":11,"name":"Nufenenpass","time":"","detail":"Final pass loop"},"geometry":{"type":"Point","coordinates":[8.3864176,46.47819]}},{"type":"Feature","properties":{"kind":"stop","index":12,"name":"Agrola Ulrichen","time":"","detail":"Fuel"},"geometry":{"type":"Point","coordinates":[8.3066168,46.5068152]}},{"type":"Feature","properties":{"kind":"stop","index":13,"name":"Hotel Landhaus","time":"18:26","detail":"Dinner 20:15"},"geometry":{"type":"Point","coordinates":[8.268457,46.4879271]}}]}
