<?xml version="1.0" encoding="UTF-8"?>
<gpx version="1.1" creator="Fondue Tour 2026" xmlns="http://www.topografix.com/GPX/1/1" xmlns:xsi="http://www.w3.org/2001/XMLSchema-instance" xsi:schemaLocation="http://www.topografix.com/GPX/1/1 http://www.topografix.com/GPX/1/1/gpx.xsd">
  <metadata><name>Thu 10 · La Thuile to the Furka–Tremola loop · from Parcheggio Tremola</name><desc>Fondue Tour 2026 roadbook route. Verify live pass status before departure.</desc></metadata>
  <rte>
    <name>Thu 10 · La Thuile to the Furka–Tremola loop · from Parcheggio Tremola stops</name>
    <rtept lat="46.5496678" lon="8.5686232"><name>Parcheggio Tremola</name></rtept>
    <rtept lat="46.47819" lon="8.3864176"><name>Nufenenpass</name></rtept>
    <rtept lat="46.5068152" lon="8.3066168"><name>Agrola Ulrichen</name></rtept>
    <rtept lat="46.4879271" lon="8.268457"><name>Hotel Landhaus</name></rtept>
  </rte>
  <trk>
    <name>Thu 10 · La Thuile to the Furka–Tremola loop · from Parcheggio Tremola</name>
    <trkseg>
      <trkpt lat="46.549648" lon="8.568742" />
      <trkpt lat="46.54925" lon="8.568906" />
      <trkpt lat="46.548757" lon="8.568752" />
      <trkpt lat="46.548788" lon="8.568604" />
      <trkpt lat="46.549398" lon="8.568396" />
      <trkpt lat="46.549339" lon="8.568016" />
      <trkpt lat="46.548585" lon="8.568422" />
      <trkpt lat="46.548554" lon="8.568259" />
      <trkpt lat="46.548899" lon="8.568074" />
      <trkpt lat="46.548859" lon="8.567822" />
      <trkpt lat="46.548417" lon="8.568196" />
      <trkpt lat="46.548349" lon="8.568071" />
      <trkpt lat="46.548524" lon="8.567911" />
      <trkpt lat="46.548499" lon="8.567784" />
      <trkpt lat="46.547945" lon="8.567962" />
      <trkpt lat="46.547554" lon="8.569114" />
      <trkpt lat="46.546403" lon="8.569879" />
      <trkpt lat="46.546385" lon="8.569728" />
      <trkpt lat="46.546985" lon="8.569271" />
      <trkpt lat="46.54737" lon="8.568725" />
      <trkpt lat="46.547598" lon="8.567094" />
      <trkpt lat="46.548222" lon="8.566773" />
      <trkpt lat="46.548142" lon="8.566688" />
      <trkpt lat="46.547328" lon="8.566836" />
      <trkpt lat="46.547" lon="8.567974" />
      <trkpt lat="46.545937" lon="8.568591" />
      <trkpt lat="46.54589" lon="8.568444" />
      <trkpt lat="46.546374" lon="8.568012" />
      <trkpt lat="46.546487" lon="8.567758" />
      <trkpt lat="46.546456" lon="8.567212" />
      <trkpt lat="46.546208" lon="8.566657" />
      <trkpt lat="46.546203" lon="8.567309" />
      <trkpt lat="46.545957" lon="8.567833" />
      <trkpt lat="46.54586" lon="8.567767" />
      <trkpt lat="46.546075" lon="8.567365" />
      <trkpt lat="46.54603" lon="8.56724" />
      <trkpt lat="46.545494" lon="8.567686" />
      <trkpt lat="46.545304" lon="8.568048" />
      <trkpt lat="46.54522" lon="8.569181" />
      <trkpt lat="46.544506" lon="8.570976" />
      <trkpt lat="46.5444" lon="8.570859" />
      <trkpt lat="46.544857" lon="8.568856" />
      <trkpt lat="46.54465" lon="8.569432" />
      <trkpt lat="46.544298" lon="8.569895" />
      <trkpt lat="46.544116" lon="8.570762" />
      <trkpt lat="46.544025" lon="8.570698" />
      <trkpt lat="46.544086" lon="8.569243" />
      <trkpt lat="46.543722" lon="8.570905" />
      <trkpt lat="46.543627" lon="8.57083" />
      <trkpt lat="46.543812" lon="8.570126" />
      <trkpt lat="46.543746" lon="8.569991" />
      <trkpt lat="46.542619" lon="8.572301" />
      <trkpt lat="46.542479" lon="8.572221" />
      <trkpt lat="46.542845" lon="8.571479" />
      <trkpt lat="46.542804" lon="8.571285" />
      <trkpt lat="46.542335" lon="8.572158" />
      <trkpt lat="46.542565" lon="8.571551" />
      <trkpt lat="46.542539" lon="8.571455" />
      <trkpt lat="46.542456" lon="8.571511" />
      <trkpt lat="46.542059" lon="8.572742" />
      <trkpt lat="46.541546" lon="8.57321" />
      <trkpt lat="46.541435" lon="8.573666" />
      <trkpt lat="46.541155" lon="8.574109" />
      <trkpt lat="46.540738" lon="8.578102" />
      <trkpt lat="46.540455" lon="8.579153" />
      <trkpt lat="46.540048" lon="8.579785" />
      <trkpt lat="46.53899" lon="8.580053" />
      <trkpt lat="46.538323" lon="8.57931" />
      <trkpt lat="46.537617" lon="8.579009" />
      <trkpt lat="46.537207" lon="8.579142" />
      <trkpt lat="46.536564" lon="8.579711" />
      <trkpt lat="46.536081" lon="8.57991" />
      <trkpt lat="46.535019" lon="8.579943" />
      <trkpt lat="46.533394" lon="8.580802" />
      <trkpt lat="46.532518" lon="8.58075" />
      <trkpt lat="46.532535" lon="8.580885" />
      <trkpt lat="46.533273" lon="8.581171" />
      <trkpt lat="46.53368" lon="8.581156" />
      <trkpt lat="46.533646" lon="8.581324" />
      <trkpt lat="46.53265" lon="8.581427" />
      <trkpt lat="46.53197" lon="8.581002" />
      <trkpt lat="46.531992" lon="8.581351" />
      <trkpt lat="46.5333" lon="8.582045" />
      <trkpt lat="46.533434" lon="8.582961" />
      <trkpt lat="46.534069" lon="8.584533" />
      <trkpt lat="46.534231" lon="8.584583" />
      <trkpt lat="46.534379" lon="8.584467" />
      <trkpt lat="46.534637" lon="8.583613" />
      <trkpt lat="46.534848" lon="8.58358" />
      <trkpt lat="46.535065" lon="8.583735" />
      <trkpt lat="46.535433" lon="8.584956" />
      <trkpt lat="46.534996" lon="8.585229" />
      <trkpt lat="46.534584" lon="8.585305" />
      <trkpt lat="46.533453" lon="8.585142" />
      <trkpt lat="46.532893" lon="8.584899" />
      <trkpt lat="46.532338" lon="8.584438" />
      <trkpt lat="46.531483" lon="8.583209" />
      <trkpt lat="46.529443" lon="8.579512" />
      <trkpt lat="46.529283" lon="8.579405" />
      <trkpt lat="46.529112" lon="8.579491" />
      <trkpt lat="46.529097" lon="8.579934" />
      <trkpt lat="46.5298" lon="8.580821" />
      <trkpt lat="46.530136" lon="8.581699" />
      <trkpt lat="46.530599" lon="8.585541" />
      <trkpt lat="46.531539" lon="8.589363" />
      <trkpt lat="46.532042" lon="8.590684" />
      <trkpt lat="46.532883" lon="8.592212" />
      <trkpt lat="46.533146" lon="8.593103" />
      <trkpt lat="46.533355" lon="8.595076" />
      <trkpt lat="46.533196" lon="8.597861" />
      <trkpt lat="46.533356" lon="8.599866" />
      <trkpt lat="46.533179" lon="8.600074" />
      <trkpt lat="46.532953" lon="8.599902" />
      <trkpt lat="46.532822" lon="8.598746" />
      <trkpt lat="46.531763" lon="8.594588" />
      <trkpt lat="46.531325" lon="8.593408" />
      <trkpt lat="46.530815" lon="8.592547" />
      <trkpt lat="46.530257" lon="8.5919" />
      <trkpt lat="46.52865" lon="8.590813" />
      <trkpt lat="46.527801" lon="8.589871" />
      <trkpt lat="46.527142" lon="8.58834" />
      <trkpt lat="46.526889" lon="8.586409" />
      <trkpt lat="46.526738" lon="8.586194" />
      <trkpt lat="46.526545" lon="8.586186" />
      <trkpt lat="46.526364" lon="8.586577" />
      <trkpt lat="46.526635" lon="8.589784" />
      <trkpt lat="46.528249" lon="8.595167" />
      <trkpt lat="46.528385" lon="8.596552" />
      <trkpt lat="46.528267" lon="8.597229" />
      <trkpt lat="46.52795" lon="8.597985" />
      <trkpt lat="46.526075" lon="8.599787" />
      <trkpt lat="46.52533" lon="8.601228" />
      <trkpt lat="46.52508" lon="8.602329" />
      <trkpt lat="46.524992" lon="8.603479" />
      <trkpt lat="46.52509" lon="8.60637" />
      <trkpt lat="46.525255" lon="8.606206" />
      <trkpt lat="46.525134" lon="8.604543" />
      <trkpt lat="46.525213" lon="8.602676" />
      <trkpt lat="46.525643" lon="8.600843" />
      <trkpt lat="46.525598" lon="8.600549" />
      <trkpt lat="46.525397" lon="8.600337" />
      <trkpt lat="46.525034" lon="8.601327" />
      <trkpt lat="46.524799" lon="8.602791" />
      <trkpt lat="46.524615" lon="8.602913" />
      <trkpt lat="46.524501" lon="8.602556" />
      <trkpt lat="46.524758" lon="8.601691" />
      <trkpt lat="46.525303" lon="8.5984" />
      <trkpt lat="46.525" lon="8.595866" />
      <trkpt lat="46.525016" lon="8.594672" />
      <trkpt lat="46.523917" lon="8.591941" />
      <trkpt lat="46.523942" lon="8.589735" />
      <trkpt lat="46.523511" lon="8.588048" />
      <trkpt lat="46.522777" lon="8.583841" />
      <trkpt lat="46.522434" lon="8.582944" />
      <trkpt lat="46.522402" lon="8.581517" />
      <trkpt lat="46.522103" lon="8.580647" />
      <trkpt lat="46.522021" lon="8.579701" />
      <trkpt lat="46.521146" lon="8.577406" />
      <trkpt lat="46.521143" lon="8.576835" />
      <trkpt lat="46.521366" lon="8.575811" />
      <trkpt lat="46.521359" lon="8.57496" />
      <trkpt lat="46.52078" lon="8.571462" />
      <trkpt lat="46.520077" lon="8.569554" />
      <trkpt lat="46.519695" lon="8.56713" />
      <trkpt lat="46.519655" lon="8.565981" />
      <trkpt lat="46.519293" lon="8.564581" />
      <trkpt lat="46.519428" lon="8.563126" />
      <trkpt lat="46.518346" lon="8.560772" />
      <trkpt lat="46.517873" lon="8.55906" />
      <trkpt lat="46.517171" lon="8.557773" />
      <trkpt lat="46.517135" lon="8.555305" />
      <trkpt lat="46.516635" lon="8.55296" />
      <trkpt lat="46.516394" lon="8.550318" />
      <trkpt lat="46.516047" lon="8.549214" />
      <trkpt lat="46.515364" lon="8.547846" />
      <trkpt lat="46.514922" lon="8.546159" />
      <trkpt lat="46.514125" lon="8.544763" />
      <trkpt lat="46.513458" lon="8.541644" />
      <trkpt lat="46.513371" lon="8.539823" />
      <trkpt lat="46.512197" lon="8.537481" />
      <trkpt lat="46.511678" lon="8.535325" />
      <trkpt lat="46.511185" lon="8.534209" />
      <trkpt lat="46.510952" lon="8.530979" />
      <trkpt lat="46.509984" lon="8.528827" />
      <trkpt lat="46.509257" lon="8.526332" />
      <trkpt lat="46.509019" lon="8.523668" />
      <trkpt lat="46.506406" lon="8.517232" />
      <trkpt lat="46.505592" lon="8.513344" />
      <trkpt lat="46.502862" lon="8.507097" />
      <trkpt lat="46.500854" lon="8.50358" />
      <trkpt lat="46.500391" lon="8.503321" />
      <trkpt lat="46.498835" lon="8.503011" />
      <trkpt lat="46.498303" lon="8.502495" />
      <trkpt lat="46.497933" lon="8.501847" />
      <trkpt lat="46.497445" lon="8.500565" />
      <trkpt lat="46.497257" lon="8.498294" />
      <trkpt lat="46.495635" lon="8.494316" />
      <trkpt lat="46.494578" lon="8.492636" />
      <trkpt lat="46.493709" lon="8.491705" />
      <trkpt lat="46.493107" lon="8.490646" />
      <trkpt lat="46.492004" lon="8.489587" />
      <trkpt lat="46.491633" lon="8.489023" />
      <trkpt lat="46.489339" lon="8.481359" />
      <trkpt lat="46.487774" lon="8.478294" />
      <trkpt lat="46.487207" lon="8.475885" />
      <trkpt lat="46.485863" lon="8.473863" />
      <trkpt lat="46.484884" lon="8.470415" />
      <trkpt lat="46.484476" lon="8.469854" />
      <trkpt lat="46.483343" lon="8.46893" />
      <trkpt lat="46.482997" lon="8.468351" />
      <trkpt lat="46.482817" lon="8.467455" />
      <trkpt lat="46.482825" lon="8.465785" />
      <trkpt lat="46.482589" lon="8.464922" />
      <trkpt lat="46.481357" lon="8.463267" />
      <trkpt lat="46.480583" lon="8.460993" />
      <trkpt lat="46.478915" lon="8.459317" />
      <trkpt lat="46.478121" lon="8.456773" />
      <trkpt lat="46.476879" lon="8.454574" />
      <trkpt lat="46.476275" lon="8.452716" />
      <trkpt lat="46.475255" lon="8.451429" />
      <trkpt lat="46.474664" lon="8.450271" />
      <trkpt lat="46.47418" lon="8.44987" />
      <trkpt lat="46.474195" lon="8.449694" />
      <trkpt lat="46.474339" lon="8.449647" />
      <trkpt lat="46.475035" lon="8.449946" />
      <trkpt lat="46.475472" lon="8.450416" />
      <trkpt lat="46.475614" lon="8.450317" />
      <trkpt lat="46.474758" lon="8.44853" />
      <trkpt lat="46.473776" lon="8.446905" />
      <trkpt lat="46.473488" lon="8.445652" />
      <trkpt lat="46.473672" lon="8.442361" />
      <trkpt lat="46.473407" lon="8.439602" />
      <trkpt lat="46.473419" lon="8.435492" />
      <trkpt lat="46.473884" lon="8.432839" />
      <trkpt lat="46.473959" lon="8.43121" />
      <trkpt lat="46.474416" lon="8.429006" />
      <trkpt lat="46.474481" lon="8.427926" />
      <trkpt lat="46.474269" lon="8.426316" />
      <trkpt lat="46.474028" lon="8.425709" />
      <trkpt lat="46.473622" lon="8.425506" />
      <trkpt lat="46.472867" lon="8.425779" />
      <trkpt lat="46.472766" lon="8.425572" />
      <trkpt lat="46.47412" lon="8.424289" />
      <trkpt lat="46.475096" lon="8.423618" />
      <trkpt lat="46.475514" lon="8.423576" />
      <trkpt lat="46.475843" lon="8.423886" />
      <trkpt lat="46.47639" lon="8.426994" />
      <trkpt lat="46.476309" lon="8.430095" />
      <trkpt lat="46.476484" lon="8.432289" />
      <trkpt lat="46.476648" lon="8.432461" />
      <trkpt lat="46.476727" lon="8.431318" />
      <trkpt lat="46.477216" lon="8.42974" />
      <trkpt lat="46.477648" lon="8.427402" />
      <trkpt lat="46.477715" lon="8.424652" />
      <trkpt lat="46.478853" lon="8.421314" />
      <trkpt lat="46.479007" lon="8.420122" />
      <trkpt lat="46.478936" lon="8.418838" />
      <trkpt lat="46.478641" lon="8.417706" />
      <trkpt lat="46.478636" lon="8.415099" />
      <trkpt lat="46.478111" lon="8.413463" />
      <trkpt lat="46.477533" lon="8.412443" />
      <trkpt lat="46.477444" lon="8.411043" />
      <trkpt lat="46.47758" lon="8.41032" />
      <trkpt lat="46.478235" lon="8.409595" />
      <trkpt lat="46.478426" lon="8.409128" />
      <trkpt lat="46.4785" lon="8.408055" />
      <trkpt lat="46.47886" lon="8.406429" />
      <trkpt lat="46.478844" lon="8.40566" />
      <trkpt lat="46.47868" lon="8.405015" />
      <trkpt lat="46.477567" lon="8.402646" />
      <trkpt lat="46.477254" lon="8.402266" />
      <trkpt lat="46.476708" lon="8.401895" />
      <trkpt lat="46.476656" lon="8.401672" />
      <trkpt lat="46.477617" lon="8.401124" />
      <trkpt lat="46.478162" lon="8.401178" />
      <trkpt lat="46.479146" lon="8.402269" />
      <trkpt lat="46.479385" lon="8.403171" />
      <trkpt lat="46.479531" lon="8.403249" />
      <trkpt lat="46.479592" lon="8.403001" />
      <trkpt lat="46.479389" lon="8.401431" />
      <trkpt lat="46.479137" lon="8.401072" />
      <trkpt lat="46.478594" lon="8.400661" />
      <trkpt lat="46.478661" lon="8.400439" />
      <trkpt lat="46.478985" lon="8.400477" />
      <trkpt lat="46.479374" lon="8.400592" />
      <trkpt lat="46.479688" lon="8.400883" />
      <trkpt lat="46.480266" lon="8.402572" />
      <trkpt lat="46.480403" lon="8.402616" />
      <trkpt lat="46.480462" lon="8.40247" />
      <trkpt lat="46.480139" lon="8.39983" />
      <trkpt lat="46.479931" lon="8.399138" />
      <trkpt lat="46.479519" lon="8.398817" />
      <trkpt lat="46.478107" lon="8.398525" />
      <trkpt lat="46.477785" lon="8.398141" />
      <trkpt lat="46.477611" lon="8.397562" />
      <trkpt lat="46.477534" lon="8.396432" />
      <trkpt lat="46.478124" lon="8.394365" />
      <trkpt lat="46.478117" lon="8.392046" />
      <trkpt lat="46.478032" lon="8.390941" />
      <trkpt lat="46.477181" lon="8.388111" />
      <trkpt lat="46.477109" lon="8.387525" />
      <trkpt lat="46.477247" lon="8.387064" />
      <trkpt lat="46.477483" lon="8.386794" />
      <trkpt lat="46.478168" lon="8.386748" />
      <trkpt lat="46.479322" lon="8.386839" />
      <trkpt lat="46.480254" lon="8.386118" />
      <trkpt lat="46.480693" lon="8.385974" />
      <trkpt lat="46.482349" lon="8.387261" />
      <trkpt lat="46.482492" lon="8.387148" />
      <trkpt lat="46.481182" lon="8.385411" />
      <trkpt lat="46.479186" lon="8.383972" />
      <trkpt lat="46.477256" lon="8.381215" />
      <trkpt lat="46.476336" lon="8.380234" />
      <trkpt lat="46.475984" lon="8.380201" />
      <trkpt lat="46.475393" lon="8.380367" />
      <trkpt lat="46.473544" lon="8.381323" />
      <trkpt lat="46.473224" lon="8.381627" />
      <trkpt lat="46.472899" lon="8.382421" />
      <trkpt lat="46.472731" lon="8.382435" />
      <trkpt lat="46.473076" lon="8.38083" />
      <trkpt lat="46.474785" lon="8.379412" />
      <trkpt lat="46.475704" lon="8.378326" />
      <trkpt lat="46.476615" lon="8.378271" />
      <trkpt lat="46.478502" lon="8.379154" />
      <trkpt lat="46.47907" lon="8.37932" />
      <trkpt lat="46.479178" lon="8.379117" />
      <trkpt lat="46.478723" lon="8.378929" />
      <trkpt lat="46.477583" lon="8.377981" />
      <trkpt lat="46.477641" lon="8.377727" />
      <trkpt lat="46.478484" lon="8.378044" />
      <trkpt lat="46.478623" lon="8.377885" />
      <trkpt lat="46.477211" lon="8.376974" />
      <trkpt lat="46.477327" lon="8.37672" />
      <trkpt lat="46.477768" lon="8.376746" />
      <trkpt lat="46.478137" lon="8.377046" />
      <trkpt lat="46.478238" lon="8.376989" />
      <trkpt lat="46.478198" lon="8.376759" />
      <trkpt lat="46.477556" lon="8.376222" />
      <trkpt lat="46.476842" lon="8.376315" />
      <trkpt lat="46.475686" lon="8.376236" />
      <trkpt lat="46.474372" lon="8.375914" />
      <trkpt lat="46.473728" lon="8.376299" />
      <trkpt lat="46.473777" lon="8.37602" />
      <trkpt lat="46.474058" lon="8.375802" />
      <trkpt lat="46.475475" lon="8.37546" />
      <trkpt lat="46.476353" lon="8.374965" />
      <trkpt lat="46.476714" lon="8.374897" />
      <trkpt lat="46.476766" lon="8.374695" />
      <trkpt lat="46.476674" lon="8.374606" />
      <trkpt lat="46.476221" lon="8.374792" />
      <trkpt lat="46.474507" lon="8.374698" />
      <trkpt lat="46.473452" lon="8.374833" />
      <trkpt lat="46.473242" lon="8.374728" />
      <trkpt lat="46.47201" lon="8.372646" />
      <trkpt lat="46.471778" lon="8.371345" />
      <trkpt lat="46.471993" lon="8.370582" />
      <trkpt lat="46.472144" lon="8.370218" />
      <trkpt lat="46.472262" lon="8.370203" />
      <trkpt lat="46.472508" lon="8.371479" />
      <trkpt lat="46.472806" lon="8.371929" />
      <trkpt lat="46.473147" lon="8.372149" />
      <trkpt lat="46.473411" lon="8.372257" />
      <trkpt lat="46.475109" lon="8.372148" />
      <trkpt lat="46.475828" lon="8.371356" />
      <trkpt lat="46.476218" lon="8.370266" />
      <trkpt lat="46.477651" lon="8.368603" />
      <trkpt lat="46.478225" lon="8.3685" />
      <trkpt lat="46.478739" lon="8.367761" />
      <trkpt lat="46.479146" lon="8.367731" />
      <trkpt lat="46.479656" lon="8.367289" />
      <trkpt lat="46.480168" lon="8.367128" />
      <trkpt lat="46.480521" lon="8.366824" />
      <trkpt lat="46.48242" lon="8.366638" />
      <trkpt lat="46.483222" lon="8.365629" />
      <trkpt lat="46.483867" lon="8.365166" />
      <trkpt lat="46.484406" lon="8.365147" />
      <trkpt lat="46.484947" lon="8.364883" />
      <trkpt lat="46.485655" lon="8.364035" />
      <trkpt lat="46.486844" lon="8.363029" />
      <trkpt lat="46.488044" lon="8.361339" />
      <trkpt lat="46.488694" lon="8.360039" />
      <trkpt lat="46.488738" lon="8.359642" />
      <trkpt lat="46.488409" lon="8.358493" />
      <trkpt lat="46.487681" lon="8.357345" />
      <trkpt lat="46.48812" lon="8.356629" />
      <trkpt lat="46.488714" lon="8.354963" />
      <trkpt lat="46.489323" lon="8.354333" />
      <trkpt lat="46.489847" lon="8.353328" />
      <trkpt lat="46.490422" lon="8.352835" />
      <trkpt lat="46.490726" lon="8.352154" />
      <trkpt lat="46.491492" lon="8.351083" />
      <trkpt lat="46.492347" lon="8.35045" />
      <trkpt lat="46.492814" lon="8.349629" />
      <trkpt lat="46.493302" lon="8.349125" />
      <trkpt lat="46.494153" lon="8.347877" />
      <trkpt lat="46.495223" lon="8.347203" />
      <trkpt lat="46.497498" lon="8.344018" />
      <trkpt lat="46.499622" lon="8.340694" />
      <trkpt lat="46.50018" lon="8.339223" />
      <trkpt lat="46.500604" lon="8.337594" />
      <trkpt lat="46.500697" lon="8.335586" />
      <trkpt lat="46.500392" lon="8.333998" />
      <trkpt lat="46.499227" lon="8.331484" />
      <trkpt lat="46.498954" lon="8.329912" />
      <trkpt lat="46.499187" lon="8.329772" />
      <trkpt lat="46.49965" lon="8.330062" />
      <trkpt lat="46.500338" lon="8.331248" />
      <trkpt lat="46.500639" lon="8.331043" />
      <trkpt lat="46.500691" lon="8.330888" />
      <trkpt lat="46.500465" lon="8.330253" />
      <trkpt lat="46.500487" lon="8.329666" />
      <trkpt lat="46.500717" lon="8.328864" />
      <trkpt lat="46.500858" lon="8.325851" />
      <trkpt lat="46.501046" lon="8.325159" />
      <trkpt lat="46.501934" lon="8.323904" />
      <trkpt lat="46.502552" lon="8.323271" />
      <trkpt lat="46.503208" lon="8.322077" />
      <trkpt lat="46.504827" lon="8.321395" />
      <trkpt lat="46.505344" lon="8.321391" />
      <trkpt lat="46.50573" lon="8.320638" />
      <trkpt lat="46.506206" lon="8.32013" />
      <trkpt lat="46.506218" lon="8.31994" />
      <trkpt lat="46.506072" lon="8.319871" />
      <trkpt lat="46.505348" lon="8.320604" />
      <trkpt lat="46.505051" lon="8.320712" />
      <trkpt lat="46.504707" lon="8.320578" />
      <trkpt lat="46.503872" lon="8.319828" />
      <trkpt lat="46.503243" lon="8.320076" />
      <trkpt lat="46.502698" lon="8.320013" />
      <trkpt lat="46.501617" lon="8.320486" />
      <trkpt lat="46.501396" lon="8.320253" />
      <trkpt lat="46.501516" lon="8.320033" />
      <trkpt lat="46.501948" lon="8.320002" />
      <trkpt lat="46.502481" lon="8.319647" />
      <trkpt lat="46.503486" lon="8.318706" />
      <trkpt lat="46.503565" lon="8.317602" />
      <trkpt lat="46.504182" lon="8.316718" />
      <trkpt lat="46.504568" lon="8.315446" />
      <trkpt lat="46.505403" lon="8.310229" />
      <trkpt lat="46.506901" lon="8.306905" />
      <trkpt lat="46.506761" lon="8.306692" />
      <trkpt lat="46.506901" lon="8.306905" />
      <trkpt lat="46.507204" lon="8.306287" />
      <trkpt lat="46.506419" lon="8.304804" />
      <trkpt lat="46.50585" lon="8.300657" />
      <trkpt lat="46.505149" lon="8.298377" />
      <trkpt lat="46.504372" lon="8.296997" />
      <trkpt lat="46.504003" lon="8.296649" />
      <trkpt lat="46.502715" lon="8.295886" />
      <trkpt lat="46.501879" lon="8.294777" />
      <trkpt lat="46.500916" lon="8.292268" />
      <trkpt lat="46.501044" lon="8.290314" />
      <trkpt lat="46.500491" lon="8.288029" />
      <trkpt lat="46.499983" lon="8.287443" />
      <trkpt lat="46.497985" lon="8.286328" />
      <trkpt lat="46.497154" lon="8.285434" />
      <trkpt lat="46.496652" lon="8.28438" />
      <trkpt lat="46.495987" lon="8.281045" />
      <trkpt lat="46.495694" lon="8.280437" />
      <trkpt lat="46.492603" lon="8.278588" />
      <trkpt lat="46.491683" lon="8.277707" />
      <trkpt lat="46.491042" lon="8.276844" />
      <trkpt lat="46.489823" lon="8.274764" />
      <trkpt lat="46.488729" lon="8.272232" />
      <trkpt lat="46.487794" lon="8.26852" />
    </trkseg>
  </trk>
</gpx>
