<?xml version="1.0" encoding="UTF-8"?>
<gpx version="1.1" creator="Fondue Tour 2026" xmlns="http://www.topografix.com/GPX/1/1" xmlns:xsi="http://www.w3.org/2001/XMLSchema-instance" xsi:schemaLocation="http://www.topografix.com/GPX/1/1 http://www.topografix.com/GPX/1/1/gpx.xsd">
  <metadata><name>Fri 11 · Long · Gelmerbahn to Valbella via San Bernardino · from San Bernardino village</name><desc>Fondue Tour 2026 roadbook route. Verify live pass status before departure.</desc></metadata>
  <rte>
    <name>Fri 11 · Long · Gelmerbahn to Valbella via San Bernardino · from San Bernardino village stops</name>
    <rtept lat="46.4361286" lon="9.2051555"><name>San Bernardino village</name></rtept>
    <rtept lat="46.4959" lon="9.17079"><name>San Bernardino Pass</name></rtept>
    <rtept lat="46.6626282" lon="9.5765123"><name>Albula Pass</name></rtept>
    <rtept lat="46.6896395" lon="9.5619604"><name>Migrol Lantsch/Lenz</name></rtept>
    <rtept lat="46.7445648" lon="9.5555085"><name>Hotel Waldhaus am See</name></rtept>
  </rte>
  <trk>
    <name>Fri 11 · Long · Gelmerbahn to Valbella via San Bernardino · from San Bernardino village</name>
    <trkseg>
      <trkpt lat="46.436001" lon="9.20509" />
      <trkpt lat="46.435562" lon="9.204961" />
      <trkpt lat="46.434999" lon="9.204981" />
      <trkpt lat="46.434951" lon="9.204807" />
      <trkpt lat="46.436187" lon="9.204008" />
      <trkpt lat="46.437519" lon="9.203801" />
      <trkpt lat="46.438043" lon="9.203279" />
      <trkpt lat="46.439447" lon="9.203503" />
      <trkpt lat="46.440503" lon="9.203061" />
      <trkpt lat="46.441279" lon="9.203039" />
      <trkpt lat="46.444413" lon="9.201692" />
      <trkpt lat="46.446683" lon="9.201081" />
      <trkpt lat="46.447218" lon="9.200531" />
      <trkpt lat="46.447403" lon="9.200617" />
      <trkpt lat="46.447734" lon="9.20127" />
      <trkpt lat="46.448581" lon="9.200461" />
      <trkpt lat="46.451935" lon="9.199216" />
      <trkpt lat="46.452717" lon="9.199031" />
      <trkpt lat="46.455201" lon="9.197925" />
      <trkpt lat="46.457348" lon="9.195662" />
      <trkpt lat="46.458746" lon="9.193519" />
      <trkpt lat="46.459396" lon="9.193126" />
      <trkpt lat="46.460007" lon="9.19325" />
      <trkpt lat="46.460723" lon="9.192984" />
      <trkpt lat="46.462744" lon="9.191852" />
      <trkpt lat="46.463148" lon="9.190948" />
      <trkpt lat="46.462786" lon="9.189962" />
      <trkpt lat="46.462795" lon="9.188514" />
      <trkpt lat="46.463285" lon="9.187886" />
      <trkpt lat="46.464026" lon="9.187759" />
      <trkpt lat="46.464299" lon="9.187572" />
      <trkpt lat="46.46485" lon="9.186685" />
      <trkpt lat="46.465399" lon="9.185432" />
      <trkpt lat="46.465558" lon="9.185558" />
      <trkpt lat="46.465408" lon="9.186278" />
      <trkpt lat="46.465467" lon="9.186842" />
      <trkpt lat="46.465878" lon="9.187159" />
      <trkpt lat="46.466697" lon="9.187414" />
      <trkpt lat="46.467393" lon="9.187142" />
      <trkpt lat="46.46808" lon="9.186585" />
      <trkpt lat="46.46889" lon="9.186385" />
      <trkpt lat="46.469393" lon="9.186398" />
      <trkpt lat="46.469392" lon="9.186272" />
      <trkpt lat="46.469107" lon="9.186215" />
      <trkpt lat="46.469072" lon="9.186088" />
      <trkpt lat="46.469619" lon="9.185601" />
      <trkpt lat="46.470223" lon="9.183135" />
      <trkpt lat="46.471058" lon="9.181992" />
      <trkpt lat="46.471478" lon="9.180493" />
      <trkpt lat="46.472216" lon="9.180411" />
      <trkpt lat="46.472713" lon="9.180631" />
      <trkpt lat="46.473151" lon="9.18043" />
      <trkpt lat="46.473311" lon="9.180473" />
      <trkpt lat="46.473349" lon="9.180851" />
      <trkpt lat="46.472632" lon="9.182245" />
      <trkpt lat="46.472805" lon="9.182328" />
      <trkpt lat="46.47343" lon="9.18152" />
      <trkpt lat="46.473574" lon="9.181703" />
      <trkpt lat="46.473815" lon="9.18271" />
      <trkpt lat="46.474034" lon="9.182754" />
      <trkpt lat="46.474025" lon="9.181847" />
      <trkpt lat="46.474171" lon="9.181727" />
      <trkpt lat="46.474459" lon="9.181885" />
      <trkpt lat="46.474555" lon="9.181799" />
      <trkpt lat="46.474286" lon="9.180964" />
      <trkpt lat="46.474909" lon="9.181293" />
      <trkpt lat="46.475152" lon="9.18129" />
      <trkpt lat="46.475563" lon="9.181013" />
      <trkpt lat="46.475968" lon="9.180384" />
      <trkpt lat="46.475961" lon="9.179624" />
      <trkpt lat="46.476519" lon="9.178006" />
      <trkpt lat="46.476377" lon="9.177085" />
      <trkpt lat="46.476496" lon="9.177104" />
      <trkpt lat="46.476919" lon="9.177966" />
      <trkpt lat="46.476858" lon="9.176789" />
      <trkpt lat="46.476984" lon="9.176402" />
      <trkpt lat="46.479814" lon="9.172889" />
      <trkpt lat="46.481111" lon="9.171998" />
      <trkpt lat="46.482376" lon="9.170872" />
      <trkpt lat="46.483161" lon="9.169783" />
      <trkpt lat="46.483219" lon="9.16996" />
      <trkpt lat="46.482455" lon="9.171388" />
      <trkpt lat="46.481941" lon="9.171901" />
      <trkpt lat="46.481675" lon="9.172397" />
      <trkpt lat="46.481889" lon="9.172542" />
      <trkpt lat="46.482362" lon="9.172282" />
      <trkpt lat="46.482446" lon="9.172349" />
      <trkpt lat="46.482254" lon="9.174442" />
      <trkpt lat="46.482507" lon="9.174156" />
      <trkpt lat="46.482819" lon="9.173297" />
      <trkpt lat="46.483667" lon="9.172638" />
      <trkpt lat="46.483214" lon="9.173611" />
      <trkpt lat="46.483339" lon="9.174185" />
      <trkpt lat="46.483545" lon="9.174181" />
      <trkpt lat="46.484481" lon="9.173287" />
      <trkpt lat="46.484679" lon="9.172939" />
      <trkpt lat="46.48487" lon="9.171422" />
      <trkpt lat="46.484795" lon="9.170762" />
      <trkpt lat="46.485385" lon="9.171598" />
      <trkpt lat="46.485106" lon="9.170457" />
      <trkpt lat="46.485217" lon="9.170484" />
      <trkpt lat="46.48551" lon="9.171157" />
      <trkpt lat="46.486315" lon="9.170139" />
      <trkpt lat="46.486432" lon="9.16974" />
      <trkpt lat="46.486388" lon="9.168852" />
      <trkpt lat="46.486628" lon="9.168249" />
      <trkpt lat="46.486946" lon="9.168421" />
      <trkpt lat="46.487352" lon="9.168426" />
      <trkpt lat="46.487651" lon="9.16878" />
      <trkpt lat="46.487682" lon="9.168984" />
      <trkpt lat="46.487467" lon="9.169457" />
      <trkpt lat="46.487417" lon="9.170327" />
      <trkpt lat="46.487639" lon="9.170889" />
      <trkpt lat="46.488049" lon="9.171112" />
      <trkpt lat="46.491603" lon="9.170553" />
      <trkpt lat="46.491988" lon="9.170401" />
      <trkpt lat="46.492876" lon="9.169502" />
      <trkpt lat="46.493625" lon="9.169581" />
      <trkpt lat="46.494568" lon="9.169157" />
      <trkpt lat="46.494939" lon="9.169191" />
      <trkpt lat="46.49592" lon="9.170647" />
      <trkpt lat="46.497261" lon="9.171194" />
      <trkpt lat="46.497753" lon="9.170991" />
      <trkpt lat="46.498007" lon="9.171261" />
      <trkpt lat="46.498114" lon="9.172563" />
      <trkpt lat="46.496955" lon="9.174423" />
      <trkpt lat="46.496977" lon="9.174571" />
      <trkpt lat="46.498938" lon="9.175653" />
      <trkpt lat="46.500916" lon="9.177256" />
      <trkpt lat="46.50261" lon="9.178025" />
      <trkpt lat="46.503407" lon="9.178731" />
      <trkpt lat="46.504328" lon="9.178868" />
      <trkpt lat="46.504967" lon="9.178693" />
      <trkpt lat="46.505416" lon="9.178708" />
      <trkpt lat="46.505871" lon="9.179017" />
      <trkpt lat="46.506829" lon="9.17911" />
      <trkpt lat="46.50684" lon="9.179233" />
      <trkpt lat="46.506456" lon="9.179368" />
      <trkpt lat="46.506426" lon="9.179521" />
      <trkpt lat="46.507465" lon="9.179396" />
      <trkpt lat="46.507381" lon="9.180001" />
      <trkpt lat="46.507615" lon="9.179625" />
      <trkpt lat="46.507952" lon="9.179461" />
      <trkpt lat="46.50924" lon="9.179791" />
      <trkpt lat="46.509163" lon="9.179954" />
      <trkpt lat="46.50877" lon="9.179913" />
      <trkpt lat="46.50916" lon="9.180169" />
      <trkpt lat="46.50999" lon="9.18008" />
      <trkpt lat="46.510023" lon="9.180208" />
      <trkpt lat="46.509796" lon="9.180308" />
      <trkpt lat="46.50979" lon="9.180429" />
      <trkpt lat="46.511494" lon="9.181475" />
      <trkpt lat="46.513299" lon="9.181754" />
      <trkpt lat="46.514513" lon="9.183076" />
      <trkpt lat="46.515322" lon="9.18202" />
      <trkpt lat="46.514765" lon="9.183321" />
      <trkpt lat="46.514814" lon="9.183676" />
      <trkpt lat="46.515119" lon="9.183853" />
      <trkpt lat="46.515706" lon="9.183917" />
      <trkpt lat="46.516379" lon="9.184359" />
      <trkpt lat="46.516958" lon="9.184328" />
      <trkpt lat="46.517281" lon="9.1846" />
      <trkpt lat="46.518035" lon="9.185702" />
      <trkpt lat="46.518344" lon="9.186484" />
      <trkpt lat="46.51874" lon="9.186941" />
      <trkpt lat="46.519147" lon="9.188099" />
      <trkpt lat="46.519811" lon="9.188984" />
      <trkpt lat="46.520225" lon="9.189995" />
      <trkpt lat="46.52005" lon="9.189059" />
      <trkpt lat="46.518942" lon="9.186206" />
      <trkpt lat="46.519397" lon="9.186732" />
      <trkpt lat="46.519535" lon="9.187291" />
      <trkpt lat="46.520277" lon="9.188423" />
      <trkpt lat="46.520679" lon="9.189418" />
      <trkpt lat="46.520733" lon="9.189289" />
      <trkpt lat="46.519995" lon="9.187019" />
      <trkpt lat="46.521126" lon="9.189272" />
      <trkpt lat="46.521201" lon="9.189176" />
      <trkpt lat="46.520603" lon="9.18784" />
      <trkpt lat="46.520423" lon="9.186888" />
      <trkpt lat="46.520853" lon="9.187836" />
      <trkpt lat="46.521547" lon="9.188908" />
      <trkpt lat="46.521618" lon="9.188805" />
      <trkpt lat="46.521193" lon="9.187841" />
      <trkpt lat="46.521803" lon="9.188725" />
      <trkpt lat="46.521883" lon="9.188672" />
      <trkpt lat="46.521341" lon="9.187588" />
      <trkpt lat="46.522074" lon="9.188581" />
      <trkpt lat="46.521773" lon="9.187763" />
      <trkpt lat="46.521257" lon="9.187053" />
      <trkpt lat="46.520652" lon="9.184937" />
      <trkpt lat="46.52078" lon="9.184936" />
      <trkpt lat="46.521192" lon="9.18588" />
      <trkpt lat="46.520543" lon="9.183233" />
      <trkpt lat="46.521891" lon="9.185977" />
      <trkpt lat="46.521184" lon="9.183219" />
      <trkpt lat="46.52109" lon="9.181789" />
      <trkpt lat="46.52122" lon="9.181637" />
      <trkpt lat="46.521749" lon="9.18284" />
      <trkpt lat="46.522731" lon="9.183182" />
      <trkpt lat="46.52339" lon="9.184008" />
      <trkpt lat="46.524177" lon="9.185589" />
      <trkpt lat="46.524485" lon="9.186844" />
      <trkpt lat="46.525258" lon="9.186918" />
      <trkpt lat="46.525314" lon="9.18669" />
      <trkpt lat="46.525458" lon="9.186641" />
      <trkpt lat="46.525931" lon="9.187124" />
      <trkpt lat="46.527402" lon="9.18806" />
      <trkpt lat="46.527737" lon="9.188406" />
      <trkpt lat="46.530088" lon="9.193696" />
      <trkpt lat="46.53041" lon="9.195519" />
      <trkpt lat="46.530372" lon="9.197332" />
      <trkpt lat="46.530487" lon="9.198608" />
      <trkpt lat="46.530352" lon="9.199789" />
      <trkpt lat="46.530402" lon="9.200637" />
      <trkpt lat="46.530759" lon="9.202244" />
      <trkpt lat="46.530927" lon="9.204343" />
      <trkpt lat="46.531602" lon="9.205865" />
      <trkpt lat="46.531791" lon="9.206879" />
      <trkpt lat="46.531727" lon="9.207922" />
      <trkpt lat="46.53136" lon="9.209525" />
      <trkpt lat="46.531412" lon="9.210757" />
      <trkpt lat="46.532259" lon="9.213082" />
      <trkpt lat="46.532667" lon="9.215618" />
      <trkpt lat="46.53308" lon="9.217068" />
      <trkpt lat="46.535964" lon="9.223712" />
      <trkpt lat="46.53716" lon="9.227003" />
      <trkpt lat="46.537586" lon="9.228712" />
      <trkpt lat="46.537892" lon="9.231793" />
      <trkpt lat="46.537643" lon="9.237778" />
      <trkpt lat="46.538334" lon="9.242055" />
      <trkpt lat="46.53822" lon="9.243564" />
      <trkpt lat="46.538332" lon="9.243664" />
      <trkpt lat="46.538379" lon="9.245238" />
      <trkpt lat="46.538764" lon="9.247704" />
      <trkpt lat="46.538696" lon="9.25064" />
      <trkpt lat="46.538861" lon="9.251489" />
      <trkpt lat="46.539695" lon="9.254018" />
      <trkpt lat="46.539514" lon="9.256579" />
      <trkpt lat="46.539602" lon="9.257848" />
      <trkpt lat="46.540653" lon="9.261412" />
      <trkpt lat="46.541118" lon="9.26386" />
      <trkpt lat="46.541277" lon="9.266155" />
      <trkpt lat="46.541166" lon="9.272322" />
      <trkpt lat="46.541318" lon="9.273946" />
      <trkpt lat="46.542304" lon="9.278064" />
      <trkpt lat="46.544173" lon="9.282657" />
      <trkpt lat="46.545234" lon="9.287371" />
      <trkpt lat="46.545234" lon="9.289037" />
      <trkpt lat="46.544456" lon="9.292937" />
      <trkpt lat="46.544364" lon="9.295606" />
      <trkpt lat="46.544702" lon="9.29725" />
      <trkpt lat="46.546704" lon="9.302187" />
      <trkpt lat="46.547038" lon="9.303532" />
      <trkpt lat="46.547148" lon="9.307778" />
      <trkpt lat="46.546768" lon="9.311391" />
      <trkpt lat="46.546976" lon="9.312886" />
      <trkpt lat="46.547428" lon="9.314003" />
      <trkpt lat="46.549579" lon="9.317538" />
      <trkpt lat="46.550414" lon="9.319394" />
      <trkpt lat="46.552542" lon="9.327148" />
      <trkpt lat="46.553144" lon="9.328119" />
      <trkpt lat="46.554338" lon="9.329469" />
      <trkpt lat="46.554841" lon="9.330437" />
      <trkpt lat="46.556097" lon="9.335787" />
      <trkpt lat="46.556602" lon="9.337185" />
      <trkpt lat="46.558692" lon="9.341212" />
      <trkpt lat="46.559717" lon="9.342562" />
      <trkpt lat="46.560215" lon="9.345198" />
      <trkpt lat="46.560982" lon="9.348098" />
      <trkpt lat="46.561495" lon="9.34867" />
      <trkpt lat="46.56284" lon="9.348976" />
      <trkpt lat="46.56331" lon="9.349338" />
      <trkpt lat="46.564263" lon="9.35183" />
      <trkpt lat="46.565028" lon="9.353434" />
      <trkpt lat="46.565538" lon="9.355137" />
      <trkpt lat="46.565939" lon="9.358235" />
      <trkpt lat="46.56711" lon="9.361418" />
      <trkpt lat="46.567863" lon="9.366053" />
      <trkpt lat="46.568421" lon="9.36726" />
      <trkpt lat="46.569947" lon="9.369417" />
      <trkpt lat="46.570675" lon="9.371451" />
      <trkpt lat="46.571289" lon="9.376579" />
      <trkpt lat="46.571155" lon="9.378404" />
      <trkpt lat="46.570694" lon="9.380644" />
      <trkpt lat="46.57034" lon="9.381302" />
      <trkpt lat="46.569792" lon="9.381771" />
      <trkpt lat="46.567108" lon="9.382472" />
      <trkpt lat="46.566507" lon="9.382759" />
      <trkpt lat="46.565973" lon="9.383406" />
      <trkpt lat="46.565648" lon="9.384402" />
      <trkpt lat="46.565628" lon="9.38517" />
      <trkpt lat="46.565795" lon="9.385993" />
      <trkpt lat="46.566198" lon="9.386724" />
      <trkpt lat="46.567387" lon="9.388217" />
      <trkpt lat="46.56772" lon="9.389121" />
      <trkpt lat="46.56787" lon="9.390211" />
      <trkpt lat="46.56768" lon="9.391703" />
      <trkpt lat="46.566218" lon="9.395904" />
      <trkpt lat="46.565811" lon="9.400787" />
      <trkpt lat="46.565881" lon="9.402272" />
      <trkpt lat="46.566291" lon="9.403517" />
      <trkpt lat="46.566895" lon="9.404404" />
      <trkpt lat="46.568847" lon="9.405708" />
      <trkpt lat="46.56962" lon="9.406803" />
      <trkpt lat="46.571695" lon="9.413979" />
      <trkpt lat="46.572355" lon="9.415283" />
      <trkpt lat="46.57296" lon="9.415872" />
      <trkpt lat="46.573459" lon="9.416131" />
      <trkpt lat="46.57392" lon="9.416247" />
      <trkpt lat="46.575003" lon="9.41625" />
      <trkpt lat="46.575482" lon="9.416438" />
      <trkpt lat="46.576701" lon="9.417495" />
      <trkpt lat="46.578087" lon="9.417932" />
      <trkpt lat="46.578601" lon="9.418423" />
      <trkpt lat="46.578903" lon="9.41894" />
      <trkpt lat="46.579644" lon="9.42085" />
      <trkpt lat="46.57989" lon="9.422467" />
      <trkpt lat="46.579684" lon="9.423591" />
      <trkpt lat="46.57849" lon="9.426131" />
      <trkpt lat="46.578493" lon="9.426912" />
      <trkpt lat="46.578771" lon="9.427626" />
      <trkpt lat="46.579179" lon="9.428013" />
      <trkpt lat="46.579789" lon="9.428126" />
      <trkpt lat="46.587882" lon="9.426233" />
      <trkpt lat="46.588533" lon="9.426195" />
      <trkpt lat="46.589371" lon="9.426539" />
      <trkpt lat="46.590529" lon="9.427573" />
      <trkpt lat="46.591216" lon="9.427907" />
      <trkpt lat="46.592085" lon="9.427819" />
      <trkpt lat="46.593434" lon="9.426995" />
      <trkpt lat="46.594239" lon="9.427013" />
      <trkpt lat="46.594858" lon="9.427443" />
      <trkpt lat="46.597042" lon="9.429596" />
      <trkpt lat="46.598289" lon="9.430526" />
      <trkpt lat="46.599463" lon="9.431105" />
      <trkpt lat="46.600507" lon="9.431096" />
      <trkpt lat="46.60213" lon="9.430423" />
      <trkpt lat="46.603006" lon="9.430226" />
      <trkpt lat="46.603885" lon="9.430248" />
      <trkpt lat="46.604654" lon="9.430436" />
      <trkpt lat="46.606022" lon="9.43121" />
      <trkpt lat="46.608153" lon="9.433357" />
      <trkpt lat="46.609436" lon="9.433974" />
      <trkpt lat="46.610817" lon="9.434008" />
      <trkpt lat="46.613217" lon="9.433118" />
      <trkpt lat="46.614096" lon="9.432921" />
      <trkpt lat="46.614894" lon="9.432947" />
      <trkpt lat="46.616718" lon="9.433364" />
      <trkpt lat="46.618951" lon="9.432977" />
      <trkpt lat="46.620201" lon="9.433131" />
      <trkpt lat="46.622323" lon="9.434311" />
      <trkpt lat="46.624072" lon="9.43471" />
      <trkpt lat="46.624793" lon="9.435011" />
      <trkpt lat="46.62826" lon="9.437699" />
      <trkpt lat="46.629495" lon="9.438374" />
      <trkpt lat="46.630374" lon="9.438612" />
      <trkpt lat="46.631203" lon="9.438671" />
      <trkpt lat="46.633387" lon="9.438264" />
      <trkpt lat="46.634377" lon="9.438319" />
      <trkpt lat="46.635576" lon="9.438844" />
      <trkpt lat="46.637079" lon="9.440113" />
      <trkpt lat="46.63776" lon="9.440517" />
      <trkpt lat="46.638486" lon="9.440734" />
      <trkpt lat="46.639878" lon="9.44087" />
      <trkpt lat="46.640631" lon="9.441152" />
      <trkpt lat="46.641347" lon="9.44169" />
      <trkpt lat="46.641954" lon="9.442429" />
      <trkpt lat="46.643632" lon="9.445927" />
      <trkpt lat="46.644984" lon="9.447462" />
      <trkpt lat="46.646439" lon="9.448222" />
      <trkpt lat="46.647933" lon="9.448371" />
      <trkpt lat="46.648644" lon="9.448574" />
      <trkpt lat="46.650484" lon="9.449701" />
      <trkpt lat="46.651437" lon="9.450735" />
      <trkpt lat="46.651972" lon="9.451118" />
      <trkpt lat="46.655023" lon="9.452263" />
      <trkpt lat="46.655757" lon="9.452179" />
      <trkpt lat="46.656531" lon="9.451514" />
      <trkpt lat="46.656848" lon="9.45089" />
      <trkpt lat="46.657328" lon="9.449264" />
      <trkpt lat="46.657736" lon="9.448674" />
      <trkpt lat="46.658166" lon="9.448402" />
      <trkpt lat="46.659308" lon="9.448199" />
      <trkpt lat="46.659911" lon="9.447943" />
      <trkpt lat="46.660474" lon="9.447465" />
      <trkpt lat="46.661528" lon="9.446213" />
      <trkpt lat="46.662555" lon="9.445721" />
      <trkpt lat="46.663387" lon="9.445733" />
      <trkpt lat="46.664154" lon="9.446113" />
      <trkpt lat="46.664568" lon="9.446505" />
      <trkpt lat="46.665407" lon="9.44782" />
      <trkpt lat="46.666197" lon="9.448707" />
      <trkpt lat="46.667669" lon="9.449862" />
      <trkpt lat="46.668274" lon="9.450126" />
      <trkpt lat="46.669344" lon="9.450142" />
      <trkpt lat="46.670372" lon="9.449915" />
      <trkpt lat="46.674011" lon="9.447958" />
      <trkpt lat="46.674616" lon="9.447971" />
      <trkpt lat="46.676149" lon="9.448467" />
      <trkpt lat="46.676838" lon="9.448567" />
      <trkpt lat="46.67782" lon="9.44845" />
      <trkpt lat="46.678689" lon="9.44813" />
      <trkpt lat="46.679806" lon="9.447354" />
      <trkpt lat="46.681043" lon="9.445809" />
      <trkpt lat="46.681612" lon="9.444651" />
      <trkpt lat="46.682734" lon="9.441271" />
      <trkpt lat="46.68382" lon="9.43936" />
      <trkpt lat="46.685195" lon="9.438072" />
      <trkpt lat="46.685808" lon="9.437745" />
      <trkpt lat="46.686785" lon="9.437451" />
      <trkpt lat="46.687731" lon="9.43742" />
      <trkpt lat="46.688607" lon="9.437605" />
      <trkpt lat="46.689449" lon="9.438004" />
      <trkpt lat="46.690357" lon="9.438699" />
      <trkpt lat="46.691159" lon="9.439592" />
      <trkpt lat="46.694377" lon="9.44402" />
      <trkpt lat="46.696626" lon="9.446525" />
      <trkpt lat="46.696663" lon="9.446921" />
      <trkpt lat="46.695821" lon="9.449909" />
      <trkpt lat="46.695498" lon="9.451671" />
      <trkpt lat="46.69547" lon="9.453092" />
      <trkpt lat="46.695614" lon="9.454442" />
      <trkpt lat="46.695933" lon="9.455746" />
      <trkpt lat="46.696568" lon="9.457226" />
      <trkpt lat="46.69857" lon="9.459977" />
      <trkpt lat="46.699093" lon="9.460883" />
      <trkpt lat="46.699519" lon="9.461958" />
      <trkpt lat="46.699909" lon="9.464363" />
      <trkpt lat="46.699665" lon="9.466788" />
      <trkpt lat="46.698868" lon="9.469124" />
      <trkpt lat="46.698147" lon="9.470801" />
      <trkpt lat="46.697773" lon="9.471257" />
      <trkpt lat="46.696821" lon="9.471763" />
      <trkpt lat="46.696645" lon="9.472051" />
      <trkpt lat="46.696324" lon="9.473938" />
      <trkpt lat="46.696521" lon="9.475797" />
      <trkpt lat="46.696234" lon="9.477879" />
      <trkpt lat="46.695382" lon="9.479498" />
      <trkpt lat="46.694973" lon="9.47967" />
      <trkpt lat="46.694395" lon="9.479707" />
      <trkpt lat="46.694134" lon="9.479877" />
      <trkpt lat="46.693857" lon="9.480893" />
      <trkpt lat="46.693339" lon="9.481704" />
      <trkpt lat="46.693361" lon="9.482954" />
      <trkpt lat="46.692834" lon="9.484322" />
      <trkpt lat="46.692662" lon="9.485113" />
      <trkpt lat="46.692966" lon="9.486693" />
      <trkpt lat="46.692642" lon="9.489974" />
      <trkpt lat="46.69293" lon="9.492302" />
      <trkpt lat="46.692842" lon="9.492855" />
      <trkpt lat="46.691343" lon="9.494584" />
      <trkpt lat="46.691136" lon="9.495324" />
      <trkpt lat="46.691077" lon="9.496732" />
      <trkpt lat="46.690644" lon="9.497739" />
      <trkpt lat="46.690407" lon="9.497996" />
      <trkpt lat="46.68938" lon="9.498559" />
      <trkpt lat="46.688039" lon="9.500083" />
      <trkpt lat="46.687413" lon="9.501155" />
      <trkpt lat="46.687145" lon="9.502479" />
      <trkpt lat="46.687141" lon="9.504752" />
      <trkpt lat="46.686744" lon="9.505675" />
      <trkpt lat="46.686066" lon="9.506502" />
      <trkpt lat="46.685865" lon="9.507118" />
      <trkpt lat="46.685865" lon="9.507734" />
      <trkpt lat="46.68625" lon="9.509128" />
      <trkpt lat="46.686156" lon="9.510065" />
      <trkpt lat="46.68478" lon="9.512323" />
      <trkpt lat="46.68427" lon="9.513471" />
      <trkpt lat="46.681628" lon="9.522222" />
      <trkpt lat="46.681404" lon="9.523369" />
      <trkpt lat="46.681242" lon="9.525686" />
      <trkpt lat="46.681042" lon="9.52641" />
      <trkpt lat="46.680751" lon="9.526889" />
      <trkpt lat="46.67953" lon="9.528212" />
      <trkpt lat="46.679244" lon="9.52878" />
      <trkpt lat="46.679206" lon="9.529553" />
      <trkpt lat="46.679729" lon="9.531278" />
      <trkpt lat="46.679832" lon="9.532344" />
      <trkpt lat="46.679432" lon="9.534558" />
      <trkpt lat="46.678672" lon="9.541366" />
      <trkpt lat="46.678236" lon="9.542272" />
      <trkpt lat="46.676918" lon="9.543433" />
      <trkpt lat="46.676164" lon="9.544411" />
      <trkpt lat="46.673723" lon="9.54914" />
      <trkpt lat="46.673139" lon="9.551023" />
      <trkpt lat="46.673038" lon="9.553081" />
      <trkpt lat="46.673844" lon="9.557474" />
      <trkpt lat="46.673781" lon="9.558886" />
      <trkpt lat="46.673469" lon="9.560202" />
      <trkpt lat="46.672888" lon="9.561475" />
      <trkpt lat="46.67149" lon="9.563764" />
      <trkpt lat="46.669274" lon="9.565797" />
      <trkpt lat="46.66771" lon="9.56914" />
      <trkpt lat="46.66686" lon="9.570467" />
      <trkpt lat="46.665403" lon="9.571239" />
      <trkpt lat="46.66495" lon="9.571332" />
      <trkpt lat="46.664447" lon="9.571209" />
      <trkpt lat="46.66426" lon="9.571335" />
      <trkpt lat="46.663146" lon="9.573893" />
      <trkpt lat="46.66264" lon="9.575838" />
      <trkpt lat="46.662683" lon="9.576535" />
      <trkpt lat="46.662274" lon="9.576689" />
      <trkpt lat="46.66202" lon="9.576203" />
      <trkpt lat="46.661932" lon="9.575687" />
      <trkpt lat="46.661376" lon="9.576392" />
      <trkpt lat="46.661143" lon="9.576122" />
      <trkpt lat="46.66122" lon="9.575949" />
      <trkpt lat="46.661514" lon="9.576212" />
      <trkpt lat="46.661932" lon="9.575687" />
      <trkpt lat="46.66202" lon="9.576203" />
      <trkpt lat="46.662274" lon="9.576689" />
      <trkpt lat="46.662683" lon="9.576535" />
      <trkpt lat="46.66264" lon="9.575838" />
      <trkpt lat="46.663146" lon="9.573893" />
      <trkpt lat="46.66426" lon="9.571335" />
      <trkpt lat="46.664447" lon="9.571209" />
      <trkpt lat="46.664803" lon="9.57131" />
      <trkpt lat="46.664023" lon="9.575081" />
      <trkpt lat="46.663984" lon="9.576988" />
      <trkpt lat="46.663515" lon="9.578102" />
      <trkpt lat="46.663524" lon="9.578939" />
      <trkpt lat="46.663247" lon="9.579381" />
      <trkpt lat="46.663376" lon="9.579606" />
      <trkpt lat="46.663608" lon="9.579596" />
      <trkpt lat="46.664012" lon="9.578804" />
      <trkpt lat="46.664339" lon="9.579899" />
      <trkpt lat="46.664184" lon="9.580699" />
      <trkpt lat="46.664478" lon="9.581882" />
      <trkpt lat="46.664417" lon="9.582699" />
      <trkpt lat="46.664551" lon="9.584783" />
      <trkpt lat="46.664271" lon="9.586245" />
      <trkpt lat="46.664669" lon="9.587181" />
      <trkpt lat="46.664703" lon="9.588834" />
      <trkpt lat="46.664903" lon="9.590124" />
      <trkpt lat="46.665221" lon="9.590266" />
      <trkpt lat="46.665459" lon="9.589991" />
      <trkpt lat="46.665456" lon="9.588824" />
      <trkpt lat="46.665731" lon="9.587363" />
      <trkpt lat="46.665693" lon="9.586792" />
      <trkpt lat="46.66603" lon="9.585599" />
      <trkpt lat="46.666668" lon="9.58496" />
      <trkpt lat="46.667701" lon="9.582505" />
      <trkpt lat="46.669228" lon="9.579672" />
      <trkpt lat="46.66955" lon="9.579444" />
      <trkpt lat="46.670193" lon="9.579258" />
      <trkpt lat="46.670494" lon="9.578934" />
      <trkpt lat="46.670773" lon="9.577245" />
      <trkpt lat="46.672111" lon="9.573737" />
      <trkpt lat="46.67247" lon="9.573412" />
      <trkpt lat="46.673052" lon="9.573629" />
      <trkpt lat="46.673211" lon="9.57351" />
      <trkpt lat="46.673092" lon="9.572517" />
      <trkpt lat="46.673446" lon="9.571282" />
      <trkpt lat="46.67403" lon="9.570693" />
      <trkpt lat="46.674896" lon="9.570587" />
      <trkpt lat="46.676272" lon="9.567603" />
      <trkpt lat="46.676961" lon="9.567236" />
      <trkpt lat="46.677385" lon="9.567173" />
      <trkpt lat="46.678485" lon="9.566425" />
      <trkpt lat="46.678694" lon="9.5665" />
      <trkpt lat="46.679153" lon="9.567418" />
      <trkpt lat="46.679728" lon="9.567653" />
      <trkpt lat="46.68025" lon="9.567556" />
      <trkpt lat="46.682969" lon="9.564705" />
      <trkpt lat="46.684512" lon="9.563433" />
      <trkpt lat="46.688634" lon="9.562987" />
      <trkpt lat="46.689534" lon="9.56228" />
      <trkpt lat="46.689728" lon="9.561951" />
      <trkpt lat="46.689901" lon="9.561966" />
      <trkpt lat="46.692354" lon="9.560008" />
      <trkpt lat="46.698598" lon="9.557849" />
      <trkpt lat="46.705839" lon="9.560397" />
      <trkpt lat="46.70933" lon="9.559154" />
      <trkpt lat="46.713567" lon="9.559608" />
      <trkpt lat="46.714692" lon="9.558775" />
      <trkpt lat="46.718523" lon="9.559192" />
      <trkpt lat="46.719486" lon="9.558754" />
      <trkpt lat="46.721342" lon="9.558672" />
      <trkpt lat="46.72249" lon="9.558904" />
      <trkpt lat="46.723035" lon="9.558688" />
      <trkpt lat="46.724061" lon="9.557944" />
      <trkpt lat="46.725934" lon="9.557687" />
      <trkpt lat="46.726854" lon="9.55785" />
      <trkpt lat="46.727601" lon="9.557781" />
      <trkpt lat="46.728385" lon="9.557618" />
      <trkpt lat="46.729218" lon="9.557207" />
      <trkpt lat="46.729876" lon="9.556523" />
      <trkpt lat="46.731539" lon="9.553898" />
      <trkpt lat="46.732406" lon="9.553273" />
      <trkpt lat="46.733209" lon="9.552449" />
      <trkpt lat="46.73428" lon="9.551844" />
      <trkpt lat="46.734976" lon="9.552203" />
      <trkpt lat="46.735608" lon="9.552203" />
      <trkpt lat="46.73792" lon="9.553012" />
      <trkpt lat="46.738851" lon="9.552927" />
      <trkpt lat="46.739132" lon="9.553051" />
      <trkpt lat="46.739402" lon="9.553734" />
      <trkpt lat="46.739246" lon="9.555393" />
      <trkpt lat="46.739426" lon="9.555794" />
      <trkpt lat="46.739723" lon="9.556026" />
      <trkpt lat="46.740085" lon="9.556002" />
      <trkpt lat="46.741071" lon="9.55545" />
      <trkpt lat="46.741499" lon="9.555456" />
      <trkpt lat="46.743083" lon="9.556039" />
      <trkpt lat="46.744089" lon="9.556725" />
      <trkpt lat="46.744754" lon="9.556418" />
      <trkpt lat="46.74468" lon="9.55559" />
    </trkseg>
  </trk>
</gpx>
