<?xml version="1.0" encoding="UTF-8"?>
<gpx version="1.1" creator="Fondue Tour 2026" xmlns="http://www.topografix.com/GPX/1/1" xmlns:xsi="http://www.w3.org/2001/XMLSchema-instance" xsi:schemaLocation="http://www.topografix.com/GPX/1/1 http://www.topografix.com/GPX/1/1/gpx.xsd">
  <metadata><name>Sat 12 · Valbella to Ascona · from Mesocco parking</name><desc>Fondue Tour 2026 roadbook route. Verify live pass status before departure.</desc></metadata>
  <rte>
    <name>Sat 12 · Valbella to Ascona · from Mesocco parking stops</name>
    <rtept lat="46.4469956" lon="9.2011886"><name>Mesocco parking</name></rtept>
    <rtept lat="46.1593333" lon="8.7694379"><name>Hotel Ascona</name></rtept>
  </rte>
  <trk>
    <name>Sat 12 · Valbella to Ascona · from Mesocco parking</name>
    <trkseg>
      <trkpt lat="46.446683" lon="9.201081" />
      <trkpt lat="46.444413" lon="9.201692" />
      <trkpt lat="46.4429" lon="9.202298" />
      <trkpt lat="46.442418" lon="9.202631" />
      <trkpt lat="46.441159" lon="9.203074" />
      <trkpt lat="46.440503" lon="9.203061" />
      <trkpt lat="46.439447" lon="9.203503" />
      <trkpt lat="46.438101" lon="9.203259" />
      <trkpt lat="46.437519" lon="9.203801" />
      <trkpt lat="46.436187" lon="9.204008" />
      <trkpt lat="46.434951" lon="9.204807" />
      <trkpt lat="46.434999" lon="9.204981" />
      <trkpt lat="46.435562" lon="9.204961" />
      <trkpt lat="46.436001" lon="9.20509" />
      <trkpt lat="46.436045" lon="9.205336" />
      <trkpt lat="46.435191" lon="9.205592" />
      <trkpt lat="46.434294" lon="9.205397" />
      <trkpt lat="46.434274" lon="9.205563" />
      <trkpt lat="46.434633" lon="9.205781" />
      <trkpt lat="46.435131" lon="9.206532" />
      <trkpt lat="46.435358" lon="9.207481" />
      <trkpt lat="46.435801" lon="9.20819" />
      <trkpt lat="46.436633" lon="9.207139" />
      <trkpt lat="46.436541" lon="9.207632" />
      <trkpt lat="46.437117" lon="9.208285" />
      <trkpt lat="46.437179" lon="9.209483" />
      <trkpt lat="46.437346" lon="9.207387" />
      <trkpt lat="46.437467" lon="9.207324" />
      <trkpt lat="46.437568" lon="9.20947" />
      <trkpt lat="46.437395" lon="9.210325" />
      <trkpt lat="46.436991" lon="9.210705" />
      <trkpt lat="46.436822" lon="9.211369" />
      <trkpt lat="46.436993" lon="9.211436" />
      <trkpt lat="46.437775" lon="9.210874" />
      <trkpt lat="46.437874" lon="9.211014" />
      <trkpt lat="46.43676" lon="9.21199" />
      <trkpt lat="46.436501" lon="9.211999" />
      <trkpt lat="46.436099" lon="9.211723" />
      <trkpt lat="46.435732" lon="9.211809" />
      <trkpt lat="46.435667" lon="9.211939" />
      <trkpt lat="46.435724" lon="9.212027" />
      <trkpt lat="46.43599" lon="9.21196" />
      <trkpt lat="46.436463" lon="9.212331" />
      <trkpt lat="46.436777" lon="9.212312" />
      <trkpt lat="46.4375" lon="9.211941" />
      <trkpt lat="46.437565" lon="9.212115" />
      <trkpt lat="46.436543" lon="9.212749" />
      <trkpt lat="46.435951" lon="9.212869" />
      <trkpt lat="46.435556" lon="9.212768" />
      <trkpt lat="46.434669" lon="9.213105" />
      <trkpt lat="46.434717" lon="9.21326" />
      <trkpt lat="46.435311" lon="9.213056" />
      <trkpt lat="46.435523" lon="9.213192" />
      <trkpt lat="46.43572" lon="9.214272" />
      <trkpt lat="46.435674" lon="9.215618" />
      <trkpt lat="46.43556" lon="9.2158" />
      <trkpt lat="46.434803" lon="9.215704" />
      <trkpt lat="46.434431" lon="9.215934" />
      <trkpt lat="46.434942" lon="9.214609" />
      <trkpt lat="46.434825" lon="9.21445" />
      <trkpt lat="46.434185" lon="9.214495" />
      <trkpt lat="46.433992" lon="9.214587" />
      <trkpt lat="46.433571" lon="9.215193" />
      <trkpt lat="46.432414" lon="9.215838" />
      <trkpt lat="46.432056" lon="9.2163" />
      <trkpt lat="46.432502" lon="9.214544" />
      <trkpt lat="46.432374" lon="9.214472" />
      <trkpt lat="46.431551" lon="9.215324" />
      <trkpt lat="46.431917" lon="9.213874" />
      <trkpt lat="46.431863" lon="9.213693" />
      <trkpt lat="46.429808" lon="9.215504" />
      <trkpt lat="46.429403" lon="9.216159" />
      <trkpt lat="46.428462" lon="9.21833" />
      <trkpt lat="46.427807" lon="9.219426" />
      <trkpt lat="46.427135" lon="9.222542" />
      <trkpt lat="46.426688" lon="9.223562" />
      <trkpt lat="46.426422" lon="9.223865" />
      <trkpt lat="46.423626" lon="9.224446" />
      <trkpt lat="46.421287" lon="9.225427" />
      <trkpt lat="46.420154" lon="9.225443" />
      <trkpt lat="46.419219" lon="9.225608" />
      <trkpt lat="46.418371" lon="9.226238" />
      <trkpt lat="46.417429" lon="9.226006" />
      <trkpt lat="46.416735" lon="9.226047" />
      <trkpt lat="46.416047" lon="9.22575" />
      <trkpt lat="46.415819" lon="9.225304" />
      <trkpt lat="46.414984" lon="9.225757" />
      <trkpt lat="46.413607" lon="9.225885" />
      <trkpt lat="46.413575" lon="9.226089" />
      <trkpt lat="46.414112" lon="9.226076" />
      <trkpt lat="46.414499" lon="9.226293" />
      <trkpt lat="46.414711" lon="9.226501" />
      <trkpt lat="46.414685" lon="9.226724" />
      <trkpt lat="46.414571" lon="9.226779" />
      <trkpt lat="46.413935" lon="9.226471" />
      <trkpt lat="46.412556" lon="9.227216" />
      <trkpt lat="46.412104" lon="9.227104" />
      <trkpt lat="46.411298" lon="9.227239" />
      <trkpt lat="46.411019" lon="9.227136" />
      <trkpt lat="46.41101" lon="9.227307" />
      <trkpt lat="46.411678" lon="9.227617" />
      <trkpt lat="46.411715" lon="9.227781" />
      <trkpt lat="46.410903" lon="9.227692" />
      <trkpt lat="46.410553" lon="9.2275" />
      <trkpt lat="46.410099" lon="9.227529" />
      <trkpt lat="46.41002" lon="9.227645" />
      <trkpt lat="46.410516" lon="9.227753" />
      <trkpt lat="46.410704" lon="9.227979" />
      <trkpt lat="46.410908" lon="9.229048" />
      <trkpt lat="46.410544" lon="9.228426" />
      <trkpt lat="46.409302" lon="9.228401" />
      <trkpt lat="46.406944" lon="9.229862" />
      <trkpt lat="46.406052" lon="9.229723" />
      <trkpt lat="46.404592" lon="9.228597" />
      <trkpt lat="46.40393" lon="9.22871" />
      <trkpt lat="46.402425" lon="9.228021" />
      <trkpt lat="46.401982" lon="9.227983" />
      <trkpt lat="46.401895" lon="9.228102" />
      <trkpt lat="46.403248" lon="9.228621" />
      <trkpt lat="46.403253" lon="9.228827" />
      <trkpt lat="46.402437" lon="9.228637" />
      <trkpt lat="46.40181" lon="9.228763" />
      <trkpt lat="46.401236" lon="9.227973" />
      <trkpt lat="46.401189" lon="9.228131" />
      <trkpt lat="46.401516" lon="9.228745" />
      <trkpt lat="46.401422" lon="9.228893" />
      <trkpt lat="46.400879" lon="9.228127" />
      <trkpt lat="46.400688" lon="9.2274" />
      <trkpt lat="46.400394" lon="9.227285" />
      <trkpt lat="46.400168" lon="9.227602" />
      <trkpt lat="46.399929" lon="9.228656" />
      <trkpt lat="46.399985" lon="9.230232" />
      <trkpt lat="46.399637" lon="9.230727" />
      <trkpt lat="46.399035" lon="9.230859" />
      <trkpt lat="46.398853" lon="9.230629" />
      <trkpt lat="46.398757" lon="9.229971" />
      <trkpt lat="46.398522" lon="9.229881" />
      <trkpt lat="46.397995" lon="9.2303" />
      <trkpt lat="46.396811" lon="9.230377" />
      <trkpt lat="46.395737" lon="9.231343" />
      <trkpt lat="46.391408" lon="9.233035" />
      <trkpt lat="46.390169" lon="9.23322" />
      <trkpt lat="46.389347" lon="9.233148" />
      <trkpt lat="46.388159" lon="9.233847" />
      <trkpt lat="46.387816" lon="9.23392" />
      <trkpt lat="46.386629" lon="9.233334" />
      <trkpt lat="46.385687" lon="9.23326" />
      <trkpt lat="46.384902" lon="9.23299" />
      <trkpt lat="46.384502" lon="9.232577" />
      <trkpt lat="46.383965" lon="9.232849" />
      <trkpt lat="46.383412" lon="9.232744" />
      <trkpt lat="46.381876" lon="9.231891" />
      <trkpt lat="46.38166" lon="9.231807" />
      <trkpt lat="46.381486" lon="9.231931" />
      <trkpt lat="46.380202" lon="9.23137" />
      <trkpt lat="46.377787" lon="9.229873" />
      <trkpt lat="46.375886" lon="9.227717" />
      <trkpt lat="46.374655" lon="9.226839" />
      <trkpt lat="46.373239" lon="9.225355" />
      <trkpt lat="46.372389" lon="9.224899" />
      <trkpt lat="46.371731" lon="9.224787" />
      <trkpt lat="46.370897" lon="9.224956" />
      <trkpt lat="46.368585" lon="9.226416" />
      <trkpt lat="46.366581" lon="9.227121" />
      <trkpt lat="46.364851" lon="9.227175" />
      <trkpt lat="46.363261" lon="9.226735" />
      <trkpt lat="46.362502" lon="9.226319" />
      <trkpt lat="46.361808" lon="9.225708" />
      <trkpt lat="46.360118" lon="9.223202" />
      <trkpt lat="46.358775" lon="9.221848" />
      <trkpt lat="46.357705" lon="9.221278" />
      <trkpt lat="46.355436" lon="9.220771" />
      <trkpt lat="46.354527" lon="9.2204" />
      <trkpt lat="46.353562" lon="9.219762" />
      <trkpt lat="46.350925" lon="9.217529" />
      <trkpt lat="46.349145" lon="9.216624" />
      <trkpt lat="46.347613" lon="9.216296" />
      <trkpt lat="46.345972" lon="9.21636" />
      <trkpt lat="46.344436" lon="9.216821" />
      <trkpt lat="46.342404" lon="9.217698" />
      <trkpt lat="46.341701" lon="9.217833" />
      <trkpt lat="46.340564" lon="9.217708" />
      <trkpt lat="46.339705" lon="9.217335" />
      <trkpt lat="46.338605" lon="9.216392" />
      <trkpt lat="46.334928" lon="9.211831" />
      <trkpt lat="46.333088" lon="9.20988" />
      <trkpt lat="46.33199" lon="9.209134" />
      <trkpt lat="46.330898" lon="9.208699" />
      <trkpt lat="46.330143" lon="9.208569" />
      <trkpt lat="46.327356" lon="9.208475" />
      <trkpt lat="46.3261" lon="9.208267" />
      <trkpt lat="46.32398" lon="9.207503" />
      <trkpt lat="46.322632" lon="9.206718" />
      <trkpt lat="46.314663" lon="9.2007" />
      <trkpt lat="46.300391" lon="9.189259" />
      <trkpt lat="46.298215" lon="9.187254" />
      <trkpt lat="46.294548" lon="9.183111" />
      <trkpt lat="46.293563" lon="9.182323" />
      <trkpt lat="46.292582" lon="9.181787" />
      <trkpt lat="46.290922" lon="9.181256" />
      <trkpt lat="46.281894" lon="9.179388" />
      <trkpt lat="46.280185" lon="9.17848" />
      <trkpt lat="46.27809" lon="9.176554" />
      <trkpt lat="46.277142" lon="9.175931" />
      <trkpt lat="46.276176" lon="9.175641" />
      <trkpt lat="46.273252" lon="9.175446" />
      <trkpt lat="46.272252" lon="9.175113" />
      <trkpt lat="46.271374" lon="9.174642" />
      <trkpt lat="46.270727" lon="9.174132" />
      <trkpt lat="46.270041" lon="9.173328" />
      <trkpt lat="46.268518" lon="9.170351" />
      <trkpt lat="46.267856" lon="9.169475" />
      <trkpt lat="46.267152" lon="9.168829" />
      <trkpt lat="46.254133" lon="9.160081" />
      <trkpt lat="46.252537" lon="9.158745" />
      <trkpt lat="46.24959" lon="9.15567" />
      <trkpt lat="46.248091" lon="9.153929" />
      <trkpt lat="46.247084" lon="9.152494" />
      <trkpt lat="46.245905" lon="9.150348" />
      <trkpt lat="46.24352" lon="9.14518" />
      <trkpt lat="46.24241" lon="9.143426" />
      <trkpt lat="46.241326" lon="9.142227" />
      <trkpt lat="46.240327" lon="9.141389" />
      <trkpt lat="46.239317" lon="9.140748" />
      <trkpt lat="46.234048" lon="9.138194" />
      <trkpt lat="46.232565" lon="9.137102" />
      <trkpt lat="46.231598" lon="9.1361" />
      <trkpt lat="46.230153" lon="9.133924" />
      <trkpt lat="46.229181" lon="9.131605" />
      <trkpt lat="46.228615" lon="9.129295" />
      <trkpt lat="46.228342" lon="9.125902" />
      <trkpt lat="46.228663" lon="9.122656" />
      <trkpt lat="46.231467" lon="9.10901" />
      <trkpt lat="46.231906" lon="9.106052" />
      <trkpt lat="46.231951" lon="9.102798" />
      <trkpt lat="46.230969" lon="9.091367" />
      <trkpt lat="46.231052" lon="9.08957" />
      <trkpt lat="46.231707" lon="9.084042" />
      <trkpt lat="46.231698" lon="9.081901" />
      <trkpt lat="46.231401" lon="9.080144" />
      <trkpt lat="46.230999" lon="9.078839" />
      <trkpt lat="46.228438" lon="9.072838" />
      <trkpt lat="46.22803" lon="9.071082" />
      <trkpt lat="46.227618" lon="9.067725" />
      <trkpt lat="46.227114" lon="9.065632" />
      <trkpt lat="46.222405" lon="9.051259" />
      <trkpt lat="46.221715" lon="9.047751" />
      <trkpt lat="46.221197" lon="9.042109" />
      <trkpt lat="46.220991" lon="9.041141" />
      <trkpt lat="46.220418" lon="9.039547" />
      <trkpt lat="46.219399" lon="9.038009" />
      <trkpt lat="46.218177" lon="9.037023" />
      <trkpt lat="46.216838" lon="9.036585" />
      <trkpt lat="46.214954" lon="9.036637" />
      <trkpt lat="46.214016" lon="9.036462" />
      <trkpt lat="46.212556" lon="9.035643" />
      <trkpt lat="46.211606" lon="9.034623" />
      <trkpt lat="46.210978" lon="9.033679" />
      <trkpt lat="46.21037" lon="9.032405" />
      <trkpt lat="46.208873" lon="9.027205" />
      <trkpt lat="46.205543" lon="9.019317" />
      <trkpt lat="46.204655" lon="9.017913" />
      <trkpt lat="46.203716" lon="9.016777" />
      <trkpt lat="46.199362" lon="9.012761" />
      <trkpt lat="46.197542" lon="9.011253" />
      <trkpt lat="46.195495" lon="9.009776" />
      <trkpt lat="46.185137" lon="9.003074" />
      <trkpt lat="46.183231" lon="9.001712" />
      <trkpt lat="46.180701" lon="8.999517" />
      <trkpt lat="46.175882" lon="8.994562" />
      <trkpt lat="46.173226" lon="8.992478" />
      <trkpt lat="46.170967" lon="8.991278" />
      <trkpt lat="46.169279" lon="8.990606" />
      <trkpt lat="46.167659" lon="8.990275" />
      <trkpt lat="46.164818" lon="8.990071" />
      <trkpt lat="46.164316" lon="8.989759" />
      <trkpt lat="46.163563" lon="8.988864" />
      <trkpt lat="46.162734" lon="8.988721" />
      <trkpt lat="46.162451" lon="8.988543" />
      <trkpt lat="46.16205" lon="8.987919" />
      <trkpt lat="46.153126" lon="8.965124" />
      <trkpt lat="46.152564" lon="8.963473" />
      <trkpt lat="46.152232" lon="8.962023" />
      <trkpt lat="46.15182" lon="8.959793" />
      <trkpt lat="46.15165" lon="8.957342" />
      <trkpt lat="46.152315" lon="8.940181" />
      <trkpt lat="46.152138" lon="8.938572" />
      <trkpt lat="46.150212" lon="8.929774" />
      <trkpt lat="46.150059" lon="8.928708" />
      <trkpt lat="46.150164" lon="8.928533" />
      <trkpt lat="46.15005" lon="8.928404" />
      <trkpt lat="46.152435" lon="8.913395" />
      <trkpt lat="46.152512" lon="8.912948" />
      <trkpt lat="46.152643" lon="8.912837" />
      <trkpt lat="46.152557" lon="8.912637" />
      <trkpt lat="46.153427" lon="8.907203" />
      <trkpt lat="46.153825" lon="8.898349" />
      <trkpt lat="46.153158" lon="8.893835" />
      <trkpt lat="46.153138" lon="8.893174" />
      <trkpt lat="46.153346" lon="8.892091" />
      <trkpt lat="46.153722" lon="8.891329" />
      <trkpt lat="46.154132" lon="8.891001" />
      <trkpt lat="46.163821" lon="8.886176" />
      <trkpt lat="46.164652" lon="8.885885" />
      <trkpt lat="46.167133" lon="8.88583" />
      <trkpt lat="46.168009" lon="8.885664" />
      <trkpt lat="46.1682" lon="8.885751" />
      <trkpt lat="46.16842" lon="8.885546" />
      <trkpt lat="46.168219" lon="8.884297" />
      <trkpt lat="46.168389" lon="8.872265" />
      <trkpt lat="46.168596" lon="8.869816" />
      <trkpt lat="46.169076" lon="8.867221" />
      <trkpt lat="46.170268" lon="8.863541" />
      <trkpt lat="46.172792" lon="8.858461" />
      <trkpt lat="46.17372" lon="8.856301" />
      <trkpt lat="46.175342" lon="8.850606" />
      <trkpt lat="46.17622" lon="8.848077" />
      <trkpt lat="46.181024" lon="8.837616" />
      <trkpt lat="46.182475" lon="8.833881" />
      <trkpt lat="46.182994" lon="8.831575" />
      <trkpt lat="46.183347" lon="8.829235" />
      <trkpt lat="46.185291" lon="8.813887" />
      <trkpt lat="46.185454" lon="8.811494" />
      <trkpt lat="46.18537" lon="8.809554" />
      <trkpt lat="46.185091" lon="8.807684" />
      <trkpt lat="46.184184" lon="8.804716" />
      <trkpt lat="46.183439" lon="8.803206" />
      <trkpt lat="46.17963" lon="8.797283" />
      <trkpt lat="46.175764" lon="8.793044" />
      <trkpt lat="46.175123" lon="8.792519" />
      <trkpt lat="46.173515" lon="8.791579" />
      <trkpt lat="46.169653" lon="8.790313" />
      <trkpt lat="46.168215" lon="8.789573" />
      <trkpt lat="46.165724" lon="8.787344" />
      <trkpt lat="46.163683" lon="8.784835" />
      <trkpt lat="46.162259" lon="8.781987" />
      <trkpt lat="46.161588" lon="8.780338" />
      <trkpt lat="46.161286" lon="8.779157" />
      <trkpt lat="46.161194" lon="8.778108" />
      <trkpt lat="46.161337" lon="8.776478" />
      <trkpt lat="46.161795" lon="8.774361" />
      <trkpt lat="46.161966" lon="8.774181" />
      <trkpt lat="46.162165" lon="8.774353" />
      <trkpt lat="46.162092" lon="8.774711" />
      <trkpt lat="46.161513" lon="8.775028" />
      <trkpt lat="46.160835" lon="8.774934" />
      <trkpt lat="46.160531" lon="8.774526" />
      <trkpt lat="46.160611" lon="8.774263" />
      <trkpt lat="46.161287" lon="8.773974" />
      <trkpt lat="46.161475" lon="8.773575" />
      <trkpt lat="46.161628" lon="8.772218" />
      <trkpt lat="46.161575" lon="8.769093" />
      <trkpt lat="46.161438" lon="8.769164" />
      <trkpt lat="46.161413" lon="8.769692" />
      <trkpt lat="46.161123" lon="8.770016" />
      <trkpt lat="46.160844" lon="8.769788" />
      <trkpt lat="46.1602" lon="8.769778" />
      <trkpt lat="46.159659" lon="8.769273" />
      <trkpt lat="46.159382" lon="8.769259" />
    </trkseg>
  </trk>
</gpx>
