<?xml version="1.0" encoding="UTF-8"?>
<gpx version="1.1" creator="Fondue Tour 2026" xmlns="http://www.topografix.com/GPX/1/1" xmlns:xsi="http://www.w3.org/2001/XMLSchema-instance" xsi:schemaLocation="http://www.topografix.com/GPX/1/1 http://www.topografix.com/GPX/1/1/gpx.xsd">
  <metadata><name>Sat 12 · Valbella to Ascona · from Shell Stampa</name><desc>Fondue Tour 2026 roadbook route. Verify live pass status before departure.</desc></metadata>
  <rte>
    <name>Sat 12 · Valbella to Ascona · from Shell Stampa stops</name>
    <rtept lat="46.341229" lon="9.584355"><name>Shell Stampa</name></rtept>
    <rtept lat="46.5120593" lon="9.3274123"><name>Berghaus Splügenpass</name></rtept>
    <rtept lat="46.4960855" lon="9.1705533"><name>Ospizio San Bernardino</name></rtept>
    <rtept lat="46.4469956" lon="9.2011886"><name>Mesocco parking</name></rtept>
    <rtept lat="46.1593333" lon="8.7694379"><name>Hotel Ascona</name></rtept>
  </rte>
  <trk>
    <name>Sat 12 · Valbella to Ascona · from Shell Stampa</name>
    <trkseg>
      <trkpt lat="46.341211" lon="9.584837" />
      <trkpt lat="46.340789" lon="9.58181" />
      <trkpt lat="46.339916" lon="9.578844" />
      <trkpt lat="46.339904" lon="9.578192" />
      <trkpt lat="46.340238" lon="9.577085" />
      <trkpt lat="46.33989" lon="9.575952" />
      <trkpt lat="46.339975" lon="9.574939" />
      <trkpt lat="46.339789" lon="9.572311" />
      <trkpt lat="46.339162" lon="9.570264" />
      <trkpt lat="46.339045" lon="9.569379" />
      <trkpt lat="46.339146" lon="9.567243" />
      <trkpt lat="46.339615" lon="9.563662" />
      <trkpt lat="46.339115" lon="9.561474" />
      <trkpt lat="46.338713" lon="9.560532" />
      <trkpt lat="46.337361" lon="9.558502" />
      <trkpt lat="46.337076" lon="9.557531" />
      <trkpt lat="46.336986" lon="9.556255" />
      <trkpt lat="46.337088" lon="9.552652" />
      <trkpt lat="46.336223" lon="9.550046" />
      <trkpt lat="46.336055" lon="9.548775" />
      <trkpt lat="46.33613" lon="9.54753" />
      <trkpt lat="46.336518" lon="9.545329" />
      <trkpt lat="46.336523" lon="9.544351" />
      <trkpt lat="46.33636" lon="9.543574" />
      <trkpt lat="46.335849" lon="9.542398" />
      <trkpt lat="46.334461" lon="9.537913" />
      <trkpt lat="46.33437" lon="9.536304" />
      <trkpt lat="46.334601" lon="9.533216" />
      <trkpt lat="46.334411" lon="9.532516" />
      <trkpt lat="46.333621" lon="9.531332" />
      <trkpt lat="46.333484" lon="9.530792" />
      <trkpt lat="46.33349" lon="9.529297" />
      <trkpt lat="46.333206" lon="9.526962" />
      <trkpt lat="46.333821" lon="9.525289" />
      <trkpt lat="46.333842" lon="9.523657" />
      <trkpt lat="46.334231" lon="9.522007" />
      <trkpt lat="46.334296" lon="9.520742" />
      <trkpt lat="46.334086" lon="9.519542" />
      <trkpt lat="46.333049" lon="9.516916" />
      <trkpt lat="46.332989" lon="9.514636" />
      <trkpt lat="46.332325" lon="9.512069" />
      <trkpt lat="46.332273" lon="9.510751" />
      <trkpt lat="46.332354" lon="9.51017" />
      <trkpt lat="46.332572" lon="9.509696" />
      <trkpt lat="46.332558" lon="9.509274" />
      <trkpt lat="46.331891" lon="9.507161" />
      <trkpt lat="46.331585" lon="9.504382" />
      <trkpt lat="46.331679" lon="9.503215" />
      <trkpt lat="46.331528" lon="9.501118" />
      <trkpt lat="46.33115" lon="9.498815" />
      <trkpt lat="46.331105" lon="9.49718" />
      <trkpt lat="46.331349" lon="9.495625" />
      <trkpt lat="46.331124" lon="9.493265" />
      <trkpt lat="46.331363" lon="9.491742" />
      <trkpt lat="46.331171" lon="9.491406" />
      <trkpt lat="46.330475" lon="9.49104" />
      <trkpt lat="46.330261" lon="9.49043" />
      <trkpt lat="46.330318" lon="9.489343" />
      <trkpt lat="46.331003" lon="9.487263" />
      <trkpt lat="46.330418" lon="9.486352" />
      <trkpt lat="46.330071" lon="9.484637" />
      <trkpt lat="46.329518" lon="9.483936" />
      <trkpt lat="46.329682" lon="9.483542" />
      <trkpt lat="46.330426" lon="9.483272" />
      <trkpt lat="46.330996" lon="9.48245" />
      <trkpt lat="46.331047" lon="9.482098" />
      <trkpt lat="46.329788" lon="9.478698" />
      <trkpt lat="46.328783" lon="9.476991" />
      <trkpt lat="46.328423" lon="9.475009" />
      <trkpt lat="46.32856" lon="9.473942" />
      <trkpt lat="46.328481" lon="9.472277" />
      <trkpt lat="46.327698" lon="9.470127" />
      <trkpt lat="46.327894" lon="9.468778" />
      <trkpt lat="46.32772" lon="9.467899" />
      <trkpt lat="46.327759" lon="9.46612" />
      <trkpt lat="46.327339" lon="9.464997" />
      <trkpt lat="46.326872" lon="9.464423" />
      <trkpt lat="46.32661" lon="9.463776" />
      <trkpt lat="46.326781" lon="9.461684" />
      <trkpt lat="46.326329" lon="9.460223" />
      <trkpt lat="46.326215" lon="9.458861" />
      <trkpt lat="46.32555" lon="9.457865" />
      <trkpt lat="46.325352" lon="9.457227" />
      <trkpt lat="46.325628" lon="9.454988" />
      <trkpt lat="46.326421" lon="9.454216" />
      <trkpt lat="46.326774" lon="9.453411" />
      <trkpt lat="46.327953" lon="9.451718" />
      <trkpt lat="46.328133" lon="9.449692" />
      <trkpt lat="46.328055" lon="9.448695" />
      <trkpt lat="46.328166" lon="9.446669" />
      <trkpt lat="46.328633" lon="9.444113" />
      <trkpt lat="46.329203" lon="9.442553" />
      <trkpt lat="46.329288" lon="9.4419" />
      <trkpt lat="46.329258" lon="9.440473" />
      <trkpt lat="46.328701" lon="9.438455" />
      <trkpt lat="46.328364" lon="9.433756" />
      <trkpt lat="46.326528" lon="9.429926" />
      <trkpt lat="46.326153" lon="9.427936" />
      <trkpt lat="46.326141" lon="9.424017" />
      <trkpt lat="46.326266" lon="9.423552" />
      <trkpt lat="46.326923" lon="9.422468" />
      <trkpt lat="46.327348" lon="9.420483" />
      <trkpt lat="46.327132" lon="9.41672" />
      <trkpt lat="46.32731" lon="9.413912" />
      <trkpt lat="46.32716" lon="9.412845" />
      <trkpt lat="46.327352" lon="9.41156" />
      <trkpt lat="46.32732" lon="9.410075" />
      <trkpt lat="46.326927" lon="9.408818" />
      <trkpt lat="46.326056" lon="9.40835" />
      <trkpt lat="46.32552" lon="9.407549" />
      <trkpt lat="46.325067" lon="9.405833" />
      <trkpt lat="46.322233" lon="9.398737" />
      <trkpt lat="46.321791" lon="9.398125" />
      <trkpt lat="46.321002" lon="9.397586" />
      <trkpt lat="46.32097" lon="9.392557" />
      <trkpt lat="46.321494" lon="9.389128" />
      <trkpt lat="46.322171" lon="9.387723" />
      <trkpt lat="46.322638" lon="9.386018" />
      <trkpt lat="46.323559" lon="9.384347" />
      <trkpt lat="46.324331" lon="9.380537" />
      <trkpt lat="46.32483" lon="9.379577" />
      <trkpt lat="46.32527" lon="9.378161" />
      <trkpt lat="46.326937" lon="9.375969" />
      <trkpt lat="46.327584" lon="9.37573" />
      <trkpt lat="46.329683" lon="9.374543" />
      <trkpt lat="46.330482" lon="9.373832" />
      <trkpt lat="46.332364" lon="9.372706" />
      <trkpt lat="46.333169" lon="9.372423" />
      <trkpt lat="46.333989" lon="9.371618" />
      <trkpt lat="46.33416" lon="9.371076" />
      <trkpt lat="46.334626" lon="9.370346" />
      <trkpt lat="46.334666" lon="9.370465" />
      <trkpt lat="46.334298" lon="9.371085" />
      <trkpt lat="46.334381" lon="9.371128" />
      <trkpt lat="46.334979" lon="9.370551" />
      <trkpt lat="46.334707" lon="9.371438" />
      <trkpt lat="46.335787" lon="9.370363" />
      <trkpt lat="46.336389" lon="9.369551" />
      <trkpt lat="46.336568" lon="9.369578" />
      <trkpt lat="46.337166" lon="9.37014" />
      <trkpt lat="46.338443" lon="9.369774" />
      <trkpt lat="46.338481" lon="9.369995" />
      <trkpt lat="46.337945" lon="9.371096" />
      <trkpt lat="46.337987" lon="9.371238" />
      <trkpt lat="46.338817" lon="9.370464" />
      <trkpt lat="46.339064" lon="9.370378" />
      <trkpt lat="46.340422" lon="9.370513" />
      <trkpt lat="46.340969" lon="9.370772" />
      <trkpt lat="46.342073" lon="9.370334" />
      <trkpt lat="46.343048" lon="9.370949" />
      <trkpt lat="46.34331" lon="9.370959" />
      <trkpt lat="46.344108" lon="9.370588" />
      <trkpt lat="46.344806" lon="9.369682" />
      <trkpt lat="46.345264" lon="9.369326" />
      <trkpt lat="46.345832" lon="9.369107" />
      <trkpt lat="46.346261" lon="9.368539" />
      <trkpt lat="46.347216" lon="9.368235" />
      <trkpt lat="46.347783" lon="9.36778" />
      <trkpt lat="46.348519" lon="9.367585" />
      <trkpt lat="46.349363" lon="9.367617" />
      <trkpt lat="46.350396" lon="9.367148" />
      <trkpt lat="46.350939" lon="9.367197" />
      <trkpt lat="46.351691" lon="9.366971" />
      <trkpt lat="46.351649" lon="9.367191" />
      <trkpt lat="46.350391" lon="9.367662" />
      <trkpt lat="46.350469" lon="9.367881" />
      <trkpt lat="46.351144" lon="9.367813" />
      <trkpt lat="46.352882" lon="9.367133" />
      <trkpt lat="46.353093" lon="9.366111" />
      <trkpt lat="46.353276" lon="9.366264" />
      <trkpt lat="46.353113" lon="9.366752" />
      <trkpt lat="46.353206" lon="9.366899" />
      <trkpt lat="46.353619" lon="9.366216" />
      <trkpt lat="46.3544" lon="9.366141" />
      <trkpt lat="46.354774" lon="9.365707" />
      <trkpt lat="46.355427" lon="9.365549" />
      <trkpt lat="46.356496" lon="9.364863" />
      <trkpt lat="46.357318" lon="9.364526" />
      <trkpt lat="46.358222" lon="9.364653" />
      <trkpt lat="46.358801" lon="9.363929" />
      <trkpt lat="46.359488" lon="9.363556" />
      <trkpt lat="46.361373" lon="9.364157" />
      <trkpt lat="46.361388" lon="9.364388" />
      <trkpt lat="46.361107" lon="9.364282" />
      <trkpt lat="46.361021" lon="9.364367" />
      <trkpt lat="46.361267" lon="9.364677" />
      <trkpt lat="46.36172" lon="9.364564" />
      <trkpt lat="46.362307" lon="9.364817" />
      <trkpt lat="46.362663" lon="9.364808" />
      <trkpt lat="46.363128" lon="9.364203" />
      <trkpt lat="46.363193" lon="9.364364" />
      <trkpt lat="46.362945" lon="9.364998" />
      <trkpt lat="46.362997" lon="9.365191" />
      <trkpt lat="46.363811" lon="9.363785" />
      <trkpt lat="46.364067" lon="9.363562" />
      <trkpt lat="46.36581" lon="9.363622" />
      <trkpt lat="46.36591" lon="9.363767" />
      <trkpt lat="46.365837" lon="9.363959" />
      <trkpt lat="46.365211" lon="9.36384" />
      <trkpt lat="46.365088" lon="9.363961" />
      <trkpt lat="46.365139" lon="9.364179" />
      <trkpt lat="46.365692" lon="9.364252" />
      <trkpt lat="46.36615" lon="9.364568" />
      <trkpt lat="46.366446" lon="9.364597" />
      <trkpt lat="46.366732" lon="9.36423" />
      <trkpt lat="46.367333" lon="9.362118" />
      <trkpt lat="46.368075" lon="9.360822" />
      <trkpt lat="46.368202" lon="9.36094" />
      <trkpt lat="46.367916" lon="9.362105" />
      <trkpt lat="46.368974" lon="9.361144" />
      <trkpt lat="46.36916" lon="9.359686" />
      <trkpt lat="46.369331" lon="9.359234" />
      <trkpt lat="46.369294" lon="9.359847" />
      <trkpt lat="46.369432" lon="9.360058" />
      <trkpt lat="46.369874" lon="9.359442" />
      <trkpt lat="46.370577" lon="9.359085" />
      <trkpt lat="46.370906" lon="9.359063" />
      <trkpt lat="46.371735" lon="9.359353" />
      <trkpt lat="46.372798" lon="9.359999" />
      <trkpt lat="46.373354" lon="9.360005" />
      <trkpt lat="46.374022" lon="9.360803" />
      <trkpt lat="46.374244" lon="9.360848" />
      <trkpt lat="46.374461" lon="9.360628" />
      <trkpt lat="46.374771" lon="9.359871" />
      <trkpt lat="46.375734" lon="9.358826" />
      <trkpt lat="46.376802" lon="9.358009" />
      <trkpt lat="46.377183" lon="9.357889" />
      <trkpt lat="46.378155" lon="9.356699" />
      <trkpt lat="46.379142" lon="9.355909" />
      <trkpt lat="46.382863" lon="9.35543" />
      <trkpt lat="46.384489" lon="9.355515" />
      <trkpt lat="46.385239" lon="9.354675" />
      <trkpt lat="46.386833" lon="9.354091" />
      <trkpt lat="46.388917" lon="9.352932" />
      <trkpt lat="46.391626" lon="9.352703" />
      <trkpt lat="46.39277" lon="9.352989" />
      <trkpt lat="46.393588" lon="9.352669" />
      <trkpt lat="46.395207" lon="9.35293" />
      <trkpt lat="46.398074" lon="9.352555" />
      <trkpt lat="46.39999" lon="9.353003" />
      <trkpt lat="46.402526" lon="9.354733" />
      <trkpt lat="46.402881" lon="9.354748" />
      <trkpt lat="46.403509" lon="9.35415" />
      <trkpt lat="46.405356" lon="9.351766" />
      <trkpt lat="46.406268" lon="9.352046" />
      <trkpt lat="46.407048" lon="9.351325" />
      <trkpt lat="46.409626" lon="9.350931" />
      <trkpt lat="46.41022" lon="9.350703" />
      <trkpt lat="46.410823" lon="9.349315" />
      <trkpt lat="46.411477" lon="9.348519" />
      <trkpt lat="46.411774" lon="9.347337" />
      <trkpt lat="46.412407" lon="9.346456" />
      <trkpt lat="46.413965" lon="9.345333" />
      <trkpt lat="46.414871" lon="9.34443" />
      <trkpt lat="46.41647" lon="9.34382" />
      <trkpt lat="46.417113" lon="9.343694" />
      <trkpt lat="46.417672" lon="9.343918" />
      <trkpt lat="46.418207" lon="9.343604" />
      <trkpt lat="46.418685" lon="9.343907" />
      <trkpt lat="46.419842" lon="9.343212" />
      <trkpt lat="46.42041" lon="9.343119" />
      <trkpt lat="46.420619" lon="9.343286" />
      <trkpt lat="46.420242" lon="9.343234" />
      <trkpt lat="46.419991" lon="9.343359" />
      <trkpt lat="46.419429" lon="9.343956" />
      <trkpt lat="46.419498" lon="9.344041" />
      <trkpt lat="46.419805" lon="9.343686" />
      <trkpt lat="46.420447" lon="9.343591" />
      <trkpt lat="46.420444" lon="9.3437" />
      <trkpt lat="46.42007" lon="9.343732" />
      <trkpt lat="46.419695" lon="9.344045" />
      <trkpt lat="46.419641" lon="9.344244" />
      <trkpt lat="46.419861" lon="9.344037" />
      <trkpt lat="46.420327" lon="9.343935" />
      <trkpt lat="46.419815" lon="9.344247" />
      <trkpt lat="46.419824" lon="9.344368" />
      <trkpt lat="46.420145" lon="9.344212" />
      <trkpt lat="46.420624" lon="9.344233" />
      <trkpt lat="46.420995" lon="9.343916" />
      <trkpt lat="46.422201" lon="9.344013" />
      <trkpt lat="46.4222" lon="9.344144" />
      <trkpt lat="46.421526" lon="9.344109" />
      <trkpt lat="46.422159" lon="9.344243" />
      <trkpt lat="46.422714" lon="9.344641" />
      <trkpt lat="46.423049" lon="9.344384" />
      <trkpt lat="46.423368" lon="9.344447" />
      <trkpt lat="46.423001" lon="9.344496" />
      <trkpt lat="46.422751" lon="9.344861" />
      <trkpt lat="46.422037" lon="9.344448" />
      <trkpt lat="46.422114" lon="9.344638" />
      <trkpt lat="46.422729" lon="9.345042" />
      <trkpt lat="46.423018" lon="9.344743" />
      <trkpt lat="46.423289" lon="9.344948" />
      <trkpt lat="46.424114" lon="9.344755" />
      <trkpt lat="46.424364" lon="9.345156" />
      <trkpt lat="46.424535" lon="9.345208" />
      <trkpt lat="46.425379" lon="9.344888" />
      <trkpt lat="46.42674" lon="9.344773" />
      <trkpt lat="46.427639" lon="9.34347" />
      <trkpt lat="46.427808" lon="9.343449" />
      <trkpt lat="46.428133" lon="9.343843" />
      <trkpt lat="46.428494" lon="9.343882" />
      <trkpt lat="46.43016" lon="9.343603" />
      <trkpt lat="46.430744" lon="9.343256" />
      <trkpt lat="46.431187" lon="9.342578" />
      <trkpt lat="46.431841" lon="9.342314" />
      <trkpt lat="46.431869" lon="9.342502" />
      <trkpt lat="46.431424" lon="9.343154" />
      <trkpt lat="46.431323" lon="9.344264" />
      <trkpt lat="46.431009" lon="9.344916" />
      <trkpt lat="46.431064" lon="9.345134" />
      <trkpt lat="46.432273" lon="9.34324" />
      <trkpt lat="46.433533" lon="9.342504" />
      <trkpt lat="46.434923" lon="9.341964" />
      <trkpt lat="46.435709" lon="9.342282" />
      <trkpt lat="46.436643" lon="9.343219" />
      <trkpt lat="46.436923" lon="9.343716" />
      <trkpt lat="46.437403" lon="9.343905" />
      <trkpt lat="46.437749" lon="9.344295" />
      <trkpt lat="46.437064" lon="9.344063" />
      <trkpt lat="46.437063" lon="9.344236" />
      <trkpt lat="46.438228" lon="9.34503" />
      <trkpt lat="46.440001" lon="9.345444" />
      <trkpt lat="46.441234" lon="9.344351" />
      <trkpt lat="46.442939" lon="9.343426" />
      <trkpt lat="46.444383" lon="9.342429" />
      <trkpt lat="46.445968" lon="9.341051" />
      <trkpt lat="46.446659" lon="9.34026" />
      <trkpt lat="46.448561" lon="9.339168" />
      <trkpt lat="46.448615" lon="9.33929" />
      <trkpt lat="46.447814" lon="9.340292" />
      <trkpt lat="46.448613" lon="9.34034" />
      <trkpt lat="46.449553" lon="9.339982" />
      <trkpt lat="46.449533" lon="9.340446" />
      <trkpt lat="46.448976" lon="9.340941" />
      <trkpt lat="46.448992" lon="9.341075" />
      <trkpt lat="46.449962" lon="9.341261" />
      <trkpt lat="46.451476" lon="9.340605" />
      <trkpt lat="46.451695" lon="9.340373" />
      <trkpt lat="46.451691" lon="9.339722" />
      <trkpt lat="46.45287" lon="9.338522" />
      <trkpt lat="46.452848" lon="9.339145" />
      <trkpt lat="46.453155" lon="9.339486" />
      <trkpt lat="46.453337" lon="9.339437" />
      <trkpt lat="46.454608" lon="9.3372" />
      <trkpt lat="46.455484" lon="9.336384" />
      <trkpt lat="46.456389" lon="9.336892" />
      <trkpt lat="46.458003" lon="9.338166" />
      <trkpt lat="46.459027" lon="9.338445" />
      <trkpt lat="46.460059" lon="9.339736" />
      <trkpt lat="46.461246" lon="9.340799" />
      <trkpt lat="46.463673" lon="9.344113" />
      <trkpt lat="46.464558" lon="9.344773" />
      <trkpt lat="46.465954" lon="9.346854" />
      <trkpt lat="46.467185" lon="9.347972" />
      <trkpt lat="46.468298" lon="9.349591" />
      <trkpt lat="46.469355" lon="9.350114" />
      <trkpt lat="46.469215" lon="9.350398" />
      <trkpt lat="46.468096" lon="9.350093" />
      <trkpt lat="46.468068" lon="9.350378" />
      <trkpt lat="46.470045" lon="9.351433" />
      <trkpt lat="46.471079" lon="9.351612" />
      <trkpt lat="46.472465" lon="9.351526" />
      <trkpt lat="46.473919" lon="9.351778" />
      <trkpt lat="46.474805" lon="9.351656" />
      <trkpt lat="46.476187" lon="9.351853" />
      <trkpt lat="46.476708" lon="9.352166" />
      <trkpt lat="46.477718" lon="9.352478" />
      <trkpt lat="46.478414" lon="9.353216" />
      <trkpt lat="46.479162" lon="9.353684" />
      <trkpt lat="46.480226" lon="9.35401" />
      <trkpt lat="46.480635" lon="9.354369" />
      <trkpt lat="46.481345" lon="9.355402" />
      <trkpt lat="46.481802" lon="9.355669" />
      <trkpt lat="46.482196" lon="9.355692" />
      <trkpt lat="46.482614" lon="9.355385" />
      <trkpt lat="46.484366" lon="9.353283" />
      <trkpt lat="46.486014" lon="9.350949" />
      <trkpt lat="46.486623" lon="9.349856" />
      <trkpt lat="46.487553" lon="9.347239" />
      <trkpt lat="46.487519" lon="9.34624" />
      <trkpt lat="46.487245" lon="9.344922" />
      <trkpt lat="46.487302" lon="9.344438" />
      <trkpt lat="46.487485" lon="9.344003" />
      <trkpt lat="46.489262" lon="9.341401" />
      <trkpt lat="46.489904" lon="9.33955" />
      <trkpt lat="46.489929" lon="9.338631" />
      <trkpt lat="46.489353" lon="9.337569" />
      <trkpt lat="46.489313" lon="9.337169" />
      <trkpt lat="46.490405" lon="9.334393" />
      <trkpt lat="46.490581" lon="9.335561" />
      <trkpt lat="46.490651" lon="9.335015" />
      <trkpt lat="46.491121" lon="9.333827" />
      <trkpt lat="46.492249" lon="9.3318" />
      <trkpt lat="46.492436" lon="9.331813" />
      <trkpt lat="46.492538" lon="9.332296" />
      <trkpt lat="46.492905" lon="9.331398" />
      <trkpt lat="46.49365" lon="9.330751" />
      <trkpt lat="46.494283" lon="9.330624" />
      <trkpt lat="46.493738" lon="9.331787" />
      <trkpt lat="46.494143" lon="9.331407" />
      <trkpt lat="46.495777" lon="9.331087" />
      <trkpt lat="46.496542" lon="9.330527" />
      <trkpt lat="46.496097" lon="9.331336" />
      <trkpt lat="46.496181" lon="9.331412" />
      <trkpt lat="46.497295" lon="9.330341" />
      <trkpt lat="46.497991" lon="9.330086" />
      <trkpt lat="46.497596" lon="9.330511" />
      <trkpt lat="46.497639" lon="9.330641" />
      <trkpt lat="46.499044" lon="9.330055" />
      <trkpt lat="46.500269" lon="9.329773" />
      <trkpt lat="46.501831" lon="9.328994" />
      <trkpt lat="46.501999" lon="9.329062" />
      <trkpt lat="46.502429" lon="9.330032" />
      <trkpt lat="46.502559" lon="9.330051" />
      <trkpt lat="46.502816" lon="9.329782" />
      <trkpt lat="46.502976" lon="9.329809" />
      <trkpt lat="46.503823" lon="9.330745" />
      <trkpt lat="46.504681" lon="9.330421" />
      <trkpt lat="46.505445" lon="9.330446" />
      <trkpt lat="46.506" lon="9.33015" />
      <trkpt lat="46.506485" lon="9.330215" />
      <trkpt lat="46.508224" lon="9.329429" />
      <trkpt lat="46.508923" lon="9.328957" />
      <trkpt lat="46.509416" lon="9.328006" />
      <trkpt lat="46.509554" lon="9.327418" />
      <trkpt lat="46.51023" lon="9.326815" />
      <trkpt lat="46.510969" lon="9.32578" />
      <trkpt lat="46.511216" lon="9.326012" />
      <trkpt lat="46.511288" lon="9.326401" />
      <trkpt lat="46.511198" lon="9.326568" />
      <trkpt lat="46.510864" lon="9.326609" />
      <trkpt lat="46.510848" lon="9.326752" />
      <trkpt lat="46.511362" lon="9.326752" />
      <trkpt lat="46.511751" lon="9.326558" />
      <trkpt lat="46.512207" lon="9.327468" />
      <trkpt lat="46.511358" lon="9.328049" />
      <trkpt lat="46.51092" lon="9.329037" />
      <trkpt lat="46.511178" lon="9.328874" />
      <trkpt lat="46.511432" lon="9.328449" />
      <trkpt lat="46.511798" lon="9.328217" />
      <trkpt lat="46.51215" lon="9.328114" />
      <trkpt lat="46.512589" lon="9.328234" />
      <trkpt lat="46.512062" lon="9.328482" />
      <trkpt lat="46.511748" lon="9.329095" />
      <trkpt lat="46.511115" lon="9.329737" />
      <trkpt lat="46.511131" lon="9.329875" />
      <trkpt lat="46.511589" lon="9.329614" />
      <trkpt lat="46.512074" lon="9.32953" />
      <trkpt lat="46.512532" lon="9.329113" />
      <trkpt lat="46.513092" lon="9.329045" />
      <trkpt lat="46.513613" lon="9.328706" />
      <trkpt lat="46.514019" lon="9.329095" />
      <trkpt lat="46.514539" lon="9.328729" />
      <trkpt lat="46.515126" lon="9.328932" />
      <trkpt lat="46.515525" lon="9.328623" />
      <trkpt lat="46.515866" lon="9.328631" />
      <trkpt lat="46.516141" lon="9.328457" />
      <trkpt lat="46.516143" lon="9.328605" />
      <trkpt lat="46.515609" lon="9.328939" />
      <trkpt lat="46.515275" lon="9.329391" />
      <trkpt lat="46.516249" lon="9.329034" />
      <trkpt lat="46.515465" lon="9.329853" />
      <trkpt lat="46.516422" lon="9.329451" />
      <trkpt lat="46.515671" lon="9.330484" />
      <trkpt lat="46.51575" lon="9.330585" />
      <trkpt lat="46.516493" lon="9.330149" />
      <trkpt lat="46.516007" lon="9.330956" />
      <trkpt lat="46.51607" lon="9.331039" />
      <trkpt lat="46.516745" lon="9.330611" />
      <trkpt lat="46.516517" lon="9.331081" />
      <trkpt lat="46.5164" lon="9.331783" />
      <trkpt lat="46.517398" lon="9.331191" />
      <trkpt lat="46.523334" lon="9.329461" />
      <trkpt lat="46.523581" lon="9.329498" />
      <trkpt lat="46.524306" lon="9.330143" />
      <trkpt lat="46.524612" lon="9.33022" />
      <trkpt lat="46.527186" lon="9.329212" />
      <trkpt lat="46.527867" lon="9.328341" />
      <trkpt lat="46.528796" lon="9.328437" />
      <trkpt lat="46.529876" lon="9.327682" />
      <trkpt lat="46.530871" lon="9.32746" />
      <trkpt lat="46.532168" lon="9.326797" />
      <trkpt lat="46.533196" lon="9.326638" />
      <trkpt lat="46.534552" lon="9.326697" />
      <trkpt lat="46.534718" lon="9.326262" />
      <trkpt lat="46.535878" lon="9.326435" />
      <trkpt lat="46.538019" lon="9.325679" />
      <trkpt lat="46.539225" lon="9.324628" />
      <trkpt lat="46.540156" lon="9.324229" />
      <trkpt lat="46.540664" lon="9.324365" />
      <trkpt lat="46.541062" lon="9.324633" />
      <trkpt lat="46.541829" lon="9.325518" />
      <trkpt lat="46.542063" lon="9.326128" />
      <trkpt lat="46.542274" lon="9.32618" />
      <trkpt lat="46.542603" lon="9.325512" />
      <trkpt lat="46.542704" lon="9.324846" />
      <trkpt lat="46.54342" lon="9.324568" />
      <trkpt lat="46.544281" lon="9.323324" />
      <trkpt lat="46.544199" lon="9.322576" />
      <trkpt lat="46.543833" lon="9.321844" />
      <trkpt lat="46.544185" lon="9.320102" />
      <trkpt lat="46.54429" lon="9.320229" />
      <trkpt lat="46.544333" lon="9.321549" />
      <trkpt lat="46.545471" lon="9.322721" />
      <trkpt lat="46.545717" lon="9.323654" />
      <trkpt lat="46.545814" lon="9.323441" />
      <trkpt lat="46.545576" lon="9.321528" />
      <trkpt lat="46.545649" lon="9.320389" />
      <trkpt lat="46.545824" lon="9.320378" />
      <trkpt lat="46.546056" lon="9.321631" />
      <trkpt lat="46.546754" lon="9.322808" />
      <trkpt lat="46.546658" lon="9.320154" />
      <trkpt lat="46.547365" lon="9.321832" />
      <trkpt lat="46.54765" lon="9.322896" />
      <trkpt lat="46.548154" lon="9.323913" />
      <trkpt lat="46.548322" lon="9.323901" />
      <trkpt lat="46.548836" lon="9.323332" />
      <trkpt lat="46.552388" lon="9.323365" />
      <trkpt lat="46.552268" lon="9.322577" />
      <trkpt lat="46.551328" lon="9.320156" />
      <trkpt lat="46.550584" lon="9.319452" />
      <trkpt lat="46.550212" lon="9.318884" />
      <trkpt lat="46.549416" lon="9.317246" />
      <trkpt lat="46.5473" lon="9.313754" />
      <trkpt lat="46.546852" lon="9.312341" />
      <trkpt lat="46.54678" lon="9.310929" />
      <trkpt lat="46.547157" lon="9.307429" />
      <trkpt lat="46.547038" lon="9.303532" />
      <trkpt lat="46.546704" lon="9.302187" />
      <trkpt lat="46.544702" lon="9.29725" />
      <trkpt lat="46.544364" lon="9.295606" />
      <trkpt lat="46.544456" lon="9.292937" />
      <trkpt lat="46.545234" lon="9.289037" />
      <trkpt lat="46.545234" lon="9.287371" />
      <trkpt lat="46.544173" lon="9.282657" />
      <trkpt lat="46.542304" lon="9.278064" />
      <trkpt lat="46.541318" lon="9.273946" />
      <trkpt lat="46.541166" lon="9.272322" />
      <trkpt lat="46.541277" lon="9.266155" />
      <trkpt lat="46.541118" lon="9.26386" />
      <trkpt lat="46.540653" lon="9.261412" />
      <trkpt lat="46.539602" lon="9.257848" />
      <trkpt lat="46.539514" lon="9.256579" />
      <trkpt lat="46.539695" lon="9.254018" />
      <trkpt lat="46.538861" lon="9.251489" />
      <trkpt lat="46.538696" lon="9.25064" />
      <trkpt lat="46.53877" lon="9.247849" />
      <trkpt lat="46.538464" lon="9.245182" />
      <trkpt lat="46.53852" lon="9.24246" />
      <trkpt lat="46.53794" lon="9.237673" />
      <trkpt lat="46.538069" lon="9.235086" />
      <trkpt lat="46.538717" lon="9.231351" />
      <trkpt lat="46.53869" lon="9.229835" />
      <trkpt lat="46.538221" lon="9.228322" />
      <trkpt lat="46.536435" lon="9.225278" />
      <trkpt lat="46.535381" lon="9.222543" />
      <trkpt lat="46.533018" lon="9.21719" />
      <trkpt lat="46.532635" lon="9.215812" />
      <trkpt lat="46.5322" lon="9.213124" />
      <trkpt lat="46.531355" lon="9.210808" />
      <trkpt lat="46.531245" lon="9.209697" />
      <trkpt lat="46.531675" lon="9.207787" />
      <trkpt lat="46.531716" lon="9.206768" />
      <trkpt lat="46.530722" lon="9.203662" />
      <trkpt lat="46.530823" lon="9.203319" />
      <trkpt lat="46.530773" lon="9.202376" />
      <trkpt lat="46.530363" lon="9.200174" />
      <trkpt lat="46.530487" lon="9.198608" />
      <trkpt lat="46.530372" lon="9.197332" />
      <trkpt lat="46.530417" lon="9.195705" />
      <trkpt lat="46.530185" lon="9.194029" />
      <trkpt lat="46.527737" lon="9.188406" />
      <trkpt lat="46.527402" lon="9.18806" />
      <trkpt lat="46.525931" lon="9.187124" />
      <trkpt lat="46.525458" lon="9.186641" />
      <trkpt lat="46.525314" lon="9.18669" />
      <trkpt lat="46.525258" lon="9.186918" />
      <trkpt lat="46.524485" lon="9.186844" />
      <trkpt lat="46.524177" lon="9.185589" />
      <trkpt lat="46.52339" lon="9.184008" />
      <trkpt lat="46.522731" lon="9.183182" />
      <trkpt lat="46.521749" lon="9.18284" />
      <trkpt lat="46.52122" lon="9.181637" />
      <trkpt lat="46.52109" lon="9.181789" />
      <trkpt lat="46.521184" lon="9.183219" />
      <trkpt lat="46.521891" lon="9.185977" />
      <trkpt lat="46.520543" lon="9.183233" />
      <trkpt lat="46.521192" lon="9.18588" />
      <trkpt lat="46.52078" lon="9.184936" />
      <trkpt lat="46.520652" lon="9.184937" />
      <trkpt lat="46.521257" lon="9.187053" />
      <trkpt lat="46.521773" lon="9.187763" />
      <trkpt lat="46.522074" lon="9.188581" />
      <trkpt lat="46.521341" lon="9.187588" />
      <trkpt lat="46.521883" lon="9.188672" />
      <trkpt lat="46.521803" lon="9.188725" />
      <trkpt lat="46.521193" lon="9.187841" />
      <trkpt lat="46.521618" lon="9.188805" />
      <trkpt lat="46.521547" lon="9.188908" />
      <trkpt lat="46.520853" lon="9.187836" />
      <trkpt lat="46.520423" lon="9.186888" />
      <trkpt lat="46.520603" lon="9.18784" />
      <trkpt lat="46.521201" lon="9.189176" />
      <trkpt lat="46.521126" lon="9.189272" />
      <trkpt lat="46.519995" lon="9.187019" />
      <trkpt lat="46.520733" lon="9.189289" />
      <trkpt lat="46.520679" lon="9.189418" />
      <trkpt lat="46.520277" lon="9.188423" />
      <trkpt lat="46.519535" lon="9.187291" />
      <trkpt lat="46.519397" lon="9.186732" />
      <trkpt lat="46.518942" lon="9.186206" />
      <trkpt lat="46.52005" lon="9.189059" />
      <trkpt lat="46.520225" lon="9.189995" />
      <trkpt lat="46.519811" lon="9.188984" />
      <trkpt lat="46.519147" lon="9.188099" />
      <trkpt lat="46.51874" lon="9.186941" />
      <trkpt lat="46.518344" lon="9.186484" />
      <trkpt lat="46.518035" lon="9.185702" />
      <trkpt lat="46.517281" lon="9.1846" />
      <trkpt lat="46.516958" lon="9.184328" />
      <trkpt lat="46.516379" lon="9.184359" />
      <trkpt lat="46.515706" lon="9.183917" />
      <trkpt lat="46.515119" lon="9.183853" />
      <trkpt lat="46.514814" lon="9.183676" />
      <trkpt lat="46.514765" lon="9.183321" />
      <trkpt lat="46.515322" lon="9.18202" />
      <trkpt lat="46.514513" lon="9.183076" />
      <trkpt lat="46.513299" lon="9.181754" />
      <trkpt lat="46.511494" lon="9.181475" />
      <trkpt lat="46.50979" lon="9.180429" />
      <trkpt lat="46.509796" lon="9.180308" />
      <trkpt lat="46.510023" lon="9.180208" />
      <trkpt lat="46.50999" lon="9.18008" />
      <trkpt lat="46.50916" lon="9.180169" />
      <trkpt lat="46.50877" lon="9.179913" />
      <trkpt lat="46.509163" lon="9.179954" />
      <trkpt lat="46.50924" lon="9.179791" />
      <trkpt lat="46.507952" lon="9.179461" />
      <trkpt lat="46.507615" lon="9.179625" />
      <trkpt lat="46.507381" lon="9.180001" />
      <trkpt lat="46.507465" lon="9.179396" />
      <trkpt lat="46.506426" lon="9.179521" />
      <trkpt lat="46.506456" lon="9.179368" />
      <trkpt lat="46.50684" lon="9.179233" />
      <trkpt lat="46.506829" lon="9.17911" />
      <trkpt lat="46.505871" lon="9.179017" />
      <trkpt lat="46.505416" lon="9.178708" />
      <trkpt lat="46.504967" lon="9.178693" />
      <trkpt lat="46.504328" lon="9.178868" />
      <trkpt lat="46.503407" lon="9.178731" />
      <trkpt lat="46.50261" lon="9.178025" />
      <trkpt lat="46.500916" lon="9.177256" />
      <trkpt lat="46.498938" lon="9.175653" />
      <trkpt lat="46.496977" lon="9.174571" />
      <trkpt lat="46.496955" lon="9.174423" />
      <trkpt lat="46.498114" lon="9.172563" />
      <trkpt lat="46.498007" lon="9.171261" />
      <trkpt lat="46.497753" lon="9.170991" />
      <trkpt lat="46.497261" lon="9.171194" />
      <trkpt lat="46.49592" lon="9.170647" />
      <trkpt lat="46.494939" lon="9.169191" />
      <trkpt lat="46.494568" lon="9.169157" />
      <trkpt lat="46.493625" lon="9.169581" />
      <trkpt lat="46.492876" lon="9.169502" />
      <trkpt lat="46.491988" lon="9.170401" />
      <trkpt lat="46.491603" lon="9.170553" />
      <trkpt lat="46.488049" lon="9.171112" />
      <trkpt lat="46.487639" lon="9.170889" />
      <trkpt lat="46.487417" lon="9.170327" />
      <trkpt lat="46.487467" lon="9.169457" />
      <trkpt lat="46.487682" lon="9.168984" />
      <trkpt lat="46.487651" lon="9.16878" />
      <trkpt lat="46.487352" lon="9.168426" />
      <trkpt lat="46.486946" lon="9.168421" />
      <trkpt lat="46.486655" lon="9.168241" />
      <trkpt lat="46.486388" lon="9.168852" />
      <trkpt lat="46.486432" lon="9.16974" />
      <trkpt lat="46.486315" lon="9.170139" />
      <trkpt lat="46.48551" lon="9.171157" />
      <trkpt lat="46.485217" lon="9.170484" />
      <trkpt lat="46.485106" lon="9.170457" />
      <trkpt lat="46.485385" lon="9.171598" />
      <trkpt lat="46.484795" lon="9.170762" />
      <trkpt lat="46.48487" lon="9.171422" />
      <trkpt lat="46.484679" lon="9.172939" />
      <trkpt lat="46.484481" lon="9.173287" />
      <trkpt lat="46.483545" lon="9.174181" />
      <trkpt lat="46.483339" lon="9.174185" />
      <trkpt lat="46.483214" lon="9.173611" />
      <trkpt lat="46.483667" lon="9.172638" />
      <trkpt lat="46.482819" lon="9.173297" />
      <trkpt lat="46.482507" lon="9.174156" />
      <trkpt lat="46.482254" lon="9.174442" />
      <trkpt lat="46.482446" lon="9.172349" />
      <trkpt lat="46.482362" lon="9.172282" />
      <trkpt lat="46.481889" lon="9.172542" />
      <trkpt lat="46.481675" lon="9.172397" />
      <trkpt lat="46.481941" lon="9.171901" />
      <trkpt lat="46.482455" lon="9.171388" />
      <trkpt lat="46.483219" lon="9.16996" />
      <trkpt lat="46.483161" lon="9.169783" />
      <trkpt lat="46.482376" lon="9.170872" />
      <trkpt lat="46.481111" lon="9.171998" />
      <trkpt lat="46.479814" lon="9.172889" />
      <trkpt lat="46.476984" lon="9.176402" />
      <trkpt lat="46.476858" lon="9.176789" />
      <trkpt lat="46.476919" lon="9.177966" />
      <trkpt lat="46.476496" lon="9.177104" />
      <trkpt lat="46.476377" lon="9.177085" />
      <trkpt lat="46.476519" lon="9.178006" />
      <trkpt lat="46.475961" lon="9.179624" />
      <trkpt lat="46.475968" lon="9.180384" />
      <trkpt lat="46.475563" lon="9.181013" />
      <trkpt lat="46.475152" lon="9.18129" />
      <trkpt lat="46.474909" lon="9.181293" />
      <trkpt lat="46.474286" lon="9.180964" />
      <trkpt lat="46.474555" lon="9.181799" />
      <trkpt lat="46.474459" lon="9.181885" />
      <trkpt lat="46.474171" lon="9.181727" />
      <trkpt lat="46.474025" lon="9.181847" />
      <trkpt lat="46.474034" lon="9.182754" />
      <trkpt lat="46.473815" lon="9.18271" />
      <trkpt lat="46.473574" lon="9.181703" />
      <trkpt lat="46.47343" lon="9.18152" />
      <trkpt lat="46.472805" lon="9.182328" />
      <trkpt lat="46.472632" lon="9.182245" />
      <trkpt lat="46.473349" lon="9.180851" />
      <trkpt lat="46.473311" lon="9.180473" />
      <trkpt lat="46.473151" lon="9.18043" />
      <trkpt lat="46.472713" lon="9.180631" />
      <trkpt lat="46.472216" lon="9.180411" />
      <trkpt lat="46.471478" lon="9.180493" />
      <trkpt lat="46.471058" lon="9.181992" />
      <trkpt lat="46.470223" lon="9.183135" />
      <trkpt lat="46.469619" lon="9.185601" />
      <trkpt lat="46.469072" lon="9.186088" />
      <trkpt lat="46.469107" lon="9.186215" />
      <trkpt lat="46.469392" lon="9.186272" />
      <trkpt lat="46.469393" lon="9.186398" />
      <trkpt lat="46.46889" lon="9.186385" />
      <trkpt lat="46.46808" lon="9.186585" />
      <trkpt lat="46.467393" lon="9.187142" />
      <trkpt lat="46.466697" lon="9.187414" />
      <trkpt lat="46.465878" lon="9.187159" />
      <trkpt lat="46.465467" lon="9.186842" />
      <trkpt lat="46.465408" lon="9.186278" />
      <trkpt lat="46.465558" lon="9.185558" />
      <trkpt lat="46.465399" lon="9.185432" />
      <trkpt lat="46.46485" lon="9.186685" />
      <trkpt lat="46.464299" lon="9.187572" />
      <trkpt lat="46.464026" lon="9.187759" />
      <trkpt lat="46.463285" lon="9.187886" />
      <trkpt lat="46.462795" lon="9.188514" />
      <trkpt lat="46.462786" lon="9.189962" />
      <trkpt lat="46.463148" lon="9.190948" />
      <trkpt lat="46.462744" lon="9.191852" />
      <trkpt lat="46.460723" lon="9.192984" />
      <trkpt lat="46.460007" lon="9.19325" />
      <trkpt lat="46.459396" lon="9.193126" />
      <trkpt lat="46.458746" lon="9.193519" />
      <trkpt lat="46.457348" lon="9.195662" />
      <trkpt lat="46.455201" lon="9.197925" />
      <trkpt lat="46.452717" lon="9.199031" />
      <trkpt lat="46.451935" lon="9.199216" />
      <trkpt lat="46.448581" lon="9.200461" />
      <trkpt lat="46.447734" lon="9.20127" />
      <trkpt lat="46.447381" lon="9.200587" />
      <trkpt lat="46.447174" lon="9.200544" />
      <trkpt lat="46.446936" lon="9.200765" />
      <trkpt lat="46.44702" lon="9.201683" />
      <trkpt lat="46.446936" lon="9.200765" />
      <trkpt lat="46.446683" lon="9.201081" />
      <trkpt lat="46.444413" lon="9.201692" />
      <trkpt lat="46.4429" lon="9.202298" />
      <trkpt lat="46.442418" lon="9.202631" />
      <trkpt lat="46.441159" lon="9.203074" />
      <trkpt lat="46.440503" lon="9.203061" />
      <trkpt lat="46.439447" lon="9.203503" />
      <trkpt lat="46.438101" lon="9.203259" />
      <trkpt lat="46.437519" lon="9.203801" />
      <trkpt lat="46.436187" lon="9.204008" />
      <trkpt lat="46.434951" lon="9.204807" />
      <trkpt lat="46.434999" lon="9.204981" />
      <trkpt lat="46.435562" lon="9.204961" />
      <trkpt lat="46.436001" lon="9.20509" />
      <trkpt lat="46.436045" lon="9.205336" />
      <trkpt lat="46.435191" lon="9.205592" />
      <trkpt lat="46.434294" lon="9.205397" />
      <trkpt lat="46.434274" lon="9.205563" />
      <trkpt lat="46.434633" lon="9.205781" />
      <trkpt lat="46.435131" lon="9.206532" />
      <trkpt lat="46.435358" lon="9.207481" />
      <trkpt lat="46.435801" lon="9.20819" />
      <trkpt lat="46.436633" lon="9.207139" />
      <trkpt lat="46.436541" lon="9.207632" />
      <trkpt lat="46.437117" lon="9.208285" />
      <trkpt lat="46.437179" lon="9.209483" />
      <trkpt lat="46.437346" lon="9.207387" />
      <trkpt lat="46.437467" lon="9.207324" />
      <trkpt lat="46.437568" lon="9.20947" />
      <trkpt lat="46.437395" lon="9.210325" />
      <trkpt lat="46.436991" lon="9.210705" />
      <trkpt lat="46.436822" lon="9.211369" />
      <trkpt lat="46.436993" lon="9.211436" />
      <trkpt lat="46.437775" lon="9.210874" />
      <trkpt lat="46.437874" lon="9.211014" />
      <trkpt lat="46.43676" lon="9.21199" />
      <trkpt lat="46.436501" lon="9.211999" />
      <trkpt lat="46.436099" lon="9.211723" />
      <trkpt lat="46.435732" lon="9.211809" />
      <trkpt lat="46.435667" lon="9.211939" />
      <trkpt lat="46.435724" lon="9.212027" />
      <trkpt lat="46.43599" lon="9.21196" />
      <trkpt lat="46.436463" lon="9.212331" />
      <trkpt lat="46.436777" lon="9.212312" />
      <trkpt lat="46.4375" lon="9.211941" />
      <trkpt lat="46.437565" lon="9.212115" />
      <trkpt lat="46.436543" lon="9.212749" />
      <trkpt lat="46.435951" lon="9.212869" />
      <trkpt lat="46.435556" lon="9.212768" />
      <trkpt lat="46.434669" lon="9.213105" />
      <trkpt lat="46.434717" lon="9.21326" />
      <trkpt lat="46.435311" lon="9.213056" />
      <trkpt lat="46.435523" lon="9.213192" />
      <trkpt lat="46.43572" lon="9.214272" />
      <trkpt lat="46.435674" lon="9.215618" />
      <trkpt lat="46.43556" lon="9.2158" />
      <trkpt lat="46.434803" lon="9.215704" />
      <trkpt lat="46.434431" lon="9.215934" />
      <trkpt lat="46.434942" lon="9.214609" />
      <trkpt lat="46.434825" lon="9.21445" />
      <trkpt lat="46.434185" lon="9.214495" />
      <trkpt lat="46.433992" lon="9.214587" />
      <trkpt lat="46.433571" lon="9.215193" />
      <trkpt lat="46.432414" lon="9.215838" />
      <trkpt lat="46.432056" lon="9.2163" />
      <trkpt lat="46.432502" lon="9.214544" />
      <trkpt lat="46.432374" lon="9.214472" />
      <trkpt lat="46.431551" lon="9.215324" />
      <trkpt lat="46.431917" lon="9.213874" />
      <trkpt lat="46.431863" lon="9.213693" />
      <trkpt lat="46.429808" lon="9.215504" />
      <trkpt lat="46.429403" lon="9.216159" />
      <trkpt lat="46.428462" lon="9.21833" />
      <trkpt lat="46.427807" lon="9.219426" />
      <trkpt lat="46.427135" lon="9.222542" />
      <trkpt lat="46.426688" lon="9.223562" />
      <trkpt lat="46.426422" lon="9.223865" />
      <trkpt lat="46.423626" lon="9.224446" />
      <trkpt lat="46.421287" lon="9.225427" />
      <trkpt lat="46.420154" lon="9.225443" />
      <trkpt lat="46.419219" lon="9.225608" />
      <trkpt lat="46.418371" lon="9.226238" />
      <trkpt lat="46.417429" lon="9.226006" />
      <trkpt lat="46.416735" lon="9.226047" />
      <trkpt lat="46.416047" lon="9.22575" />
      <trkpt lat="46.415819" lon="9.225304" />
      <trkpt lat="46.414984" lon="9.225757" />
      <trkpt lat="46.413607" lon="9.225885" />
      <trkpt lat="46.413575" lon="9.226089" />
      <trkpt lat="46.414112" lon="9.226076" />
      <trkpt lat="46.414499" lon="9.226293" />
      <trkpt lat="46.414711" lon="9.226501" />
      <trkpt lat="46.414685" lon="9.226724" />
      <trkpt lat="46.414571" lon="9.226779" />
      <trkpt lat="46.413935" lon="9.226471" />
      <trkpt lat="46.412556" lon="9.227216" />
      <trkpt lat="46.412104" lon="9.227104" />
      <trkpt lat="46.411298" lon="9.227239" />
      <trkpt lat="46.411019" lon="9.227136" />
      <trkpt lat="46.41101" lon="9.227307" />
      <trkpt lat="46.411678" lon="9.227617" />
      <trkpt lat="46.411715" lon="9.227781" />
      <trkpt lat="46.410903" lon="9.227692" />
      <trkpt lat="46.410553" lon="9.2275" />
      <trkpt lat="46.410099" lon="9.227529" />
      <trkpt lat="46.41002" lon="9.227645" />
      <trkpt lat="46.410516" lon="9.227753" />
      <trkpt lat="46.410704" lon="9.227979" />
      <trkpt lat="46.410908" lon="9.229048" />
      <trkpt lat="46.410544" lon="9.228426" />
      <trkpt lat="46.409302" lon="9.228401" />
      <trkpt lat="46.406944" lon="9.229862" />
      <trkpt lat="46.406052" lon="9.229723" />
      <trkpt lat="46.404592" lon="9.228597" />
      <trkpt lat="46.40393" lon="9.22871" />
      <trkpt lat="46.402425" lon="9.228021" />
      <trkpt lat="46.401982" lon="9.227983" />
      <trkpt lat="46.401895" lon="9.228102" />
      <trkpt lat="46.403248" lon="9.228621" />
      <trkpt lat="46.403253" lon="9.228827" />
      <trkpt lat="46.402437" lon="9.228637" />
      <trkpt lat="46.40181" lon="9.228763" />
      <trkpt lat="46.401236" lon="9.227973" />
      <trkpt lat="46.401189" lon="9.228131" />
      <trkpt lat="46.401516" lon="9.228745" />
      <trkpt lat="46.401422" lon="9.228893" />
      <trkpt lat="46.400879" lon="9.228127" />
      <trkpt lat="46.400688" lon="9.2274" />
      <trkpt lat="46.400394" lon="9.227285" />
      <trkpt lat="46.400168" lon="9.227602" />
      <trkpt lat="46.399929" lon="9.228656" />
      <trkpt lat="46.399985" lon="9.230232" />
      <trkpt lat="46.399637" lon="9.230727" />
      <trkpt lat="46.399035" lon="9.230859" />
      <trkpt lat="46.398853" lon="9.230629" />
      <trkpt lat="46.398757" lon="9.229971" />
      <trkpt lat="46.398522" lon="9.229881" />
      <trkpt lat="46.397995" lon="9.2303" />
      <trkpt lat="46.396811" lon="9.230377" />
      <trkpt lat="46.395737" lon="9.231343" />
      <trkpt lat="46.391408" lon="9.233035" />
      <trkpt lat="46.390169" lon="9.23322" />
      <trkpt lat="46.389347" lon="9.233148" />
      <trkpt lat="46.388159" lon="9.233847" />
      <trkpt lat="46.387816" lon="9.23392" />
      <trkpt lat="46.386629" lon="9.233334" />
      <trkpt lat="46.385687" lon="9.23326" />
      <trkpt lat="46.384902" lon="9.23299" />
      <trkpt lat="46.384502" lon="9.232577" />
      <trkpt lat="46.383965" lon="9.232849" />
      <trkpt lat="46.383412" lon="9.232744" />
      <trkpt lat="46.381876" lon="9.231891" />
      <trkpt lat="46.38166" lon="9.231807" />
      <trkpt lat="46.381486" lon="9.231931" />
      <trkpt lat="46.380202" lon="9.23137" />
      <trkpt lat="46.377787" lon="9.229873" />
      <trkpt lat="46.375886" lon="9.227717" />
      <trkpt lat="46.374655" lon="9.226839" />
      <trkpt lat="46.373239" lon="9.225355" />
      <trkpt lat="46.372389" lon="9.224899" />
      <trkpt lat="46.371731" lon="9.224787" />
      <trkpt lat="46.370897" lon="9.224956" />
      <trkpt lat="46.368585" lon="9.226416" />
      <trkpt lat="46.366581" lon="9.227121" />
      <trkpt lat="46.364851" lon="9.227175" />
      <trkpt lat="46.363261" lon="9.226735" />
      <trkpt lat="46.362502" lon="9.226319" />
      <trkpt lat="46.361808" lon="9.225708" />
      <trkpt lat="46.360118" lon="9.223202" />
      <trkpt lat="46.358775" lon="9.221848" />
      <trkpt lat="46.357705" lon="9.221278" />
      <trkpt lat="46.355436" lon="9.220771" />
      <trkpt lat="46.354527" lon="9.2204" />
      <trkpt lat="46.353562" lon="9.219762" />
      <trkpt lat="46.350925" lon="9.217529" />
      <trkpt lat="46.349145" lon="9.216624" />
      <trkpt lat="46.347613" lon="9.216296" />
      <trkpt lat="46.345972" lon="9.21636" />
      <trkpt lat="46.344436" lon="9.216821" />
      <trkpt lat="46.342404" lon="9.217698" />
      <trkpt lat="46.341701" lon="9.217833" />
      <trkpt lat="46.340564" lon="9.217708" />
      <trkpt lat="46.339705" lon="9.217335" />
      <trkpt lat="46.338605" lon="9.216392" />
      <trkpt lat="46.334928" lon="9.211831" />
      <trkpt lat="46.333088" lon="9.20988" />
      <trkpt lat="46.33199" lon="9.209134" />
      <trkpt lat="46.330898" lon="9.208699" />
      <trkpt lat="46.330143" lon="9.208569" />
      <trkpt lat="46.327356" lon="9.208475" />
      <trkpt lat="46.3261" lon="9.208267" />
      <trkpt lat="46.32398" lon="9.207503" />
      <trkpt lat="46.322632" lon="9.206718" />
      <trkpt lat="46.314663" lon="9.2007" />
      <trkpt lat="46.300391" lon="9.189259" />
      <trkpt lat="46.298215" lon="9.187254" />
      <trkpt lat="46.294548" lon="9.183111" />
      <trkpt lat="46.293563" lon="9.182323" />
      <trkpt lat="46.292582" lon="9.181787" />
      <trkpt lat="46.290922" lon="9.181256" />
      <trkpt lat="46.281894" lon="9.179388" />
      <trkpt lat="46.280185" lon="9.17848" />
      <trkpt lat="46.27809" lon="9.176554" />
      <trkpt lat="46.277142" lon="9.175931" />
      <trkpt lat="46.276176" lon="9.175641" />
      <trkpt lat="46.273252" lon="9.175446" />
      <trkpt lat="46.272252" lon="9.175113" />
      <trkpt lat="46.271374" lon="9.174642" />
      <trkpt lat="46.270727" lon="9.174132" />
      <trkpt lat="46.270041" lon="9.173328" />
      <trkpt lat="46.268518" lon="9.170351" />
      <trkpt lat="46.267856" lon="9.169475" />
      <trkpt lat="46.267152" lon="9.168829" />
      <trkpt lat="46.254133" lon="9.160081" />
      <trkpt lat="46.252537" lon="9.158745" />
      <trkpt lat="46.24959" lon="9.15567" />
      <trkpt lat="46.248091" lon="9.153929" />
      <trkpt lat="46.247084" lon="9.152494" />
      <trkpt lat="46.245905" lon="9.150348" />
      <trkpt lat="46.24352" lon="9.14518" />
      <trkpt lat="46.24241" lon="9.143426" />
      <trkpt lat="46.241326" lon="9.142227" />
      <trkpt lat="46.240327" lon="9.141389" />
      <trkpt lat="46.239317" lon="9.140748" />
      <trkpt lat="46.234048" lon="9.138194" />
      <trkpt lat="46.232565" lon="9.137102" />
      <trkpt lat="46.231598" lon="9.1361" />
      <trkpt lat="46.230153" lon="9.133924" />
      <trkpt lat="46.229181" lon="9.131605" />
      <trkpt lat="46.228615" lon="9.129295" />
      <trkpt lat="46.228342" lon="9.125902" />
      <trkpt lat="46.228663" lon="9.122656" />
      <trkpt lat="46.231467" lon="9.10901" />
      <trkpt lat="46.231906" lon="9.106052" />
      <trkpt lat="46.231951" lon="9.102798" />
      <trkpt lat="46.230969" lon="9.091367" />
      <trkpt lat="46.231052" lon="9.08957" />
      <trkpt lat="46.231707" lon="9.084042" />
      <trkpt lat="46.231698" lon="9.081901" />
      <trkpt lat="46.231401" lon="9.080144" />
      <trkpt lat="46.230999" lon="9.078839" />
      <trkpt lat="46.228438" lon="9.072838" />
      <trkpt lat="46.22803" lon="9.071082" />
      <trkpt lat="46.227618" lon="9.067725" />
      <trkpt lat="46.227114" lon="9.065632" />
      <trkpt lat="46.222405" lon="9.051259" />
      <trkpt lat="46.221715" lon="9.047751" />
      <trkpt lat="46.221197" lon="9.042109" />
      <trkpt lat="46.220991" lon="9.041141" />
      <trkpt lat="46.220418" lon="9.039547" />
      <trkpt lat="46.219399" lon="9.038009" />
      <trkpt lat="46.218177" lon="9.037023" />
      <trkpt lat="46.216838" lon="9.036585" />
      <trkpt lat="46.214954" lon="9.036637" />
      <trkpt lat="46.214016" lon="9.036462" />
      <trkpt lat="46.212556" lon="9.035643" />
      <trkpt lat="46.211606" lon="9.034623" />
      <trkpt lat="46.210978" lon="9.033679" />
      <trkpt lat="46.21037" lon="9.032405" />
      <trkpt lat="46.208873" lon="9.027205" />
      <trkpt lat="46.205543" lon="9.019317" />
      <trkpt lat="46.204655" lon="9.017913" />
      <trkpt lat="46.203716" lon="9.016777" />
      <trkpt lat="46.199362" lon="9.012761" />
      <trkpt lat="46.197542" lon="9.011253" />
      <trkpt lat="46.195495" lon="9.009776" />
      <trkpt lat="46.185137" lon="9.003074" />
      <trkpt lat="46.183231" lon="9.001712" />
      <trkpt lat="46.180701" lon="8.999517" />
      <trkpt lat="46.175882" lon="8.994562" />
      <trkpt lat="46.173226" lon="8.992478" />
      <trkpt lat="46.170967" lon="8.991278" />
      <trkpt lat="46.169279" lon="8.990606" />
      <trkpt lat="46.167659" lon="8.990275" />
      <trkpt lat="46.164818" lon="8.990071" />
      <trkpt lat="46.164316" lon="8.989759" />
      <trkpt lat="46.163563" lon="8.988864" />
      <trkpt lat="46.162734" lon="8.988721" />
      <trkpt lat="46.162451" lon="8.988543" />
      <trkpt lat="46.16205" lon="8.987919" />
      <trkpt lat="46.153126" lon="8.965124" />
      <trkpt lat="46.152564" lon="8.963473" />
      <trkpt lat="46.152232" lon="8.962023" />
      <trkpt lat="46.15182" lon="8.959793" />
      <trkpt lat="46.15165" lon="8.957342" />
      <trkpt lat="46.152315" lon="8.940181" />
      <trkpt lat="46.152138" lon="8.938572" />
      <trkpt lat="46.150212" lon="8.929774" />
      <trkpt lat="46.150059" lon="8.928708" />
      <trkpt lat="46.150164" lon="8.928533" />
      <trkpt lat="46.15005" lon="8.928404" />
      <trkpt lat="46.152435" lon="8.913395" />
      <trkpt lat="46.152512" lon="8.912948" />
      <trkpt lat="46.152643" lon="8.912837" />
      <trkpt lat="46.152557" lon="8.912637" />
      <trkpt lat="46.153427" lon="8.907203" />
      <trkpt lat="46.153825" lon="8.898349" />
      <trkpt lat="46.153158" lon="8.893835" />
      <trkpt lat="46.153138" lon="8.893174" />
      <trkpt lat="46.153346" lon="8.892091" />
      <trkpt lat="46.153722" lon="8.891329" />
      <trkpt lat="46.154132" lon="8.891001" />
      <trkpt lat="46.163821" lon="8.886176" />
      <trkpt lat="46.164652" lon="8.885885" />
      <trkpt lat="46.167133" lon="8.88583" />
      <trkpt lat="46.168009" lon="8.885664" />
      <trkpt lat="46.1682" lon="8.885751" />
      <trkpt lat="46.16842" lon="8.885546" />
      <trkpt lat="46.168219" lon="8.884297" />
      <trkpt lat="46.168389" lon="8.872265" />
      <trkpt lat="46.168596" lon="8.869816" />
      <trkpt lat="46.169076" lon="8.867221" />
      <trkpt lat="46.170268" lon="8.863541" />
      <trkpt lat="46.172792" lon="8.858461" />
      <trkpt lat="46.17372" lon="8.856301" />
      <trkpt lat="46.175342" lon="8.850606" />
      <trkpt lat="46.17622" lon="8.848077" />
      <trkpt lat="46.181024" lon="8.837616" />
      <trkpt lat="46.182475" lon="8.833881" />
      <trkpt lat="46.182994" lon="8.831575" />
      <trkpt lat="46.183347" lon="8.829235" />
      <trkpt lat="46.185291" lon="8.813887" />
      <trkpt lat="46.185454" lon="8.811494" />
      <trkpt lat="46.18537" lon="8.809554" />
      <trkpt lat="46.185091" lon="8.807684" />
      <trkpt lat="46.184184" lon="8.804716" />
      <trkpt lat="46.183439" lon="8.803206" />
      <trkpt lat="46.17963" lon="8.797283" />
      <trkpt lat="46.175764" lon="8.793044" />
      <trkpt lat="46.175123" lon="8.792519" />
      <trkpt lat="46.173515" lon="8.791579" />
      <trkpt lat="46.169653" lon="8.790313" />
      <trkpt lat="46.168215" lon="8.789573" />
      <trkpt lat="46.165724" lon="8.787344" />
      <trkpt lat="46.163683" lon="8.784835" />
      <trkpt lat="46.162259" lon="8.781987" />
      <trkpt lat="46.161588" lon="8.780338" />
      <trkpt lat="46.161286" lon="8.779157" />
      <trkpt lat="46.161194" lon="8.778108" />
      <trkpt lat="46.161337" lon="8.776478" />
      <trkpt lat="46.161795" lon="8.774361" />
      <trkpt lat="46.161966" lon="8.774181" />
      <trkpt lat="46.162165" lon="8.774353" />
      <trkpt lat="46.162092" lon="8.774711" />
      <trkpt lat="46.161513" lon="8.775028" />
      <trkpt lat="46.160835" lon="8.774934" />
      <trkpt lat="46.160531" lon="8.774526" />
      <trkpt lat="46.160611" lon="8.774263" />
      <trkpt lat="46.161287" lon="8.773974" />
      <trkpt lat="46.161475" lon="8.773575" />
      <trkpt lat="46.161628" lon="8.772218" />
      <trkpt lat="46.161575" lon="8.769093" />
      <trkpt lat="46.161438" lon="8.769164" />
      <trkpt lat="46.161413" lon="8.769692" />
      <trkpt lat="46.161123" lon="8.770016" />
      <trkpt lat="46.160844" lon="8.769788" />
      <trkpt lat="46.1602" lon="8.769778" />
      <trkpt lat="46.159659" lon="8.769273" />
      <trkpt lat="46.159382" lon="8.769259" />
    </trkseg>
  </trk>
</gpx>
