<?xml version="1.0" encoding="UTF-8"?>
<gpx version="1.1" creator="Fondue Tour 2026" xmlns="http://www.topografix.com/GPX/1/1" xmlns:xsi="http://www.w3.org/2001/XMLSchema-instance" xsi:schemaLocation="http://www.topografix.com/GPX/1/1 http://www.topografix.com/GPX/1/1/gpx.xsd">
  <metadata><name>Sun 13 · Ascona to the Lugano car return · from Europcar / AMAG Lugano</name><desc>Fondue Tour 2026 roadbook route. Verify live pass status before departure.</desc></metadata>
  <rte>
    <name>Sun 13 · Ascona to the Lugano car return · from Europcar / AMAG Lugano stops</name>
    <rtept lat="46.0175167" lon="8.9609335"><name>Europcar / AMAG Lugano</name></rtept>
  </rte>
  <trk>
    <name>Sun 13 · Ascona to the Lugano car return · from Europcar / AMAG Lugano</name>
    <trkseg>
      <trkpt lat="46.017727" lon="8.960991" />
    </trkseg>
  </trk>
</gpx>
