<?xml version="1.0" encoding="UTF-8"?>
<gpx version="1.1" creator="Fondue Tour 2026" xmlns="http://www.topografix.com/GPX/1/1" xmlns:xsi="http://www.w3.org/2001/XMLSchema-instance" xsi:schemaLocation="http://www.topografix.com/GPX/1/1 http://www.topografix.com/GPX/1/1/gpx.xsd">
  <metadata><name>Thu 10 · La Thuile to the Furka–Tremola loop · from Nufenenpass</name><desc>Fondue Tour 2026 roadbook route. Verify live pass status before departure.</desc></metadata>
  <rte>
    <name>Thu 10 · La Thuile to the Furka–Tremola loop · from Nufenenpass stops</name>
    <rtept lat="46.47819" lon="8.3864176"><name>Nufenenpass</name></rtept>
    <rtept lat="46.5068152" lon="8.3066168"><name>Agrola Ulrichen</name></rtept>
    <rtept lat="46.4879271" lon="8.268457"><name>Hotel Landhaus</name></rtept>
  </rte>
  <trk>
    <name>Thu 10 · La Thuile to the Furka–Tremola loop · from Nufenenpass</name>
    <trkseg>
      <trkpt lat="46.478168" lon="8.386748" />
      <trkpt lat="46.479322" lon="8.386839" />
      <trkpt lat="46.480254" lon="8.386118" />
      <trkpt lat="46.480693" lon="8.385974" />
      <trkpt lat="46.482349" lon="8.387261" />
      <trkpt lat="46.482492" lon="8.387148" />
      <trkpt lat="46.481182" lon="8.385411" />
      <trkpt lat="46.479186" lon="8.383972" />
      <trkpt lat="46.477256" lon="8.381215" />
      <trkpt lat="46.476336" lon="8.380234" />
      <trkpt lat="46.475984" lon="8.380201" />
      <trkpt lat="46.475393" lon="8.380367" />
      <trkpt lat="46.473544" lon="8.381323" />
      <trkpt lat="46.473224" lon="8.381627" />
      <trkpt lat="46.472899" lon="8.382421" />
      <trkpt lat="46.472731" lon="8.382435" />
      <trkpt lat="46.473076" lon="8.38083" />
      <trkpt lat="46.474785" lon="8.379412" />
      <trkpt lat="46.475704" lon="8.378326" />
      <trkpt lat="46.476615" lon="8.378271" />
      <trkpt lat="46.478502" lon="8.379154" />
      <trkpt lat="46.47907" lon="8.37932" />
      <trkpt lat="46.479178" lon="8.379117" />
      <trkpt lat="46.478723" lon="8.378929" />
      <trkpt lat="46.477583" lon="8.377981" />
      <trkpt lat="46.477641" lon="8.377727" />
      <trkpt lat="46.478484" lon="8.378044" />
      <trkpt lat="46.478623" lon="8.377885" />
      <trkpt lat="46.477211" lon="8.376974" />
      <trkpt lat="46.477327" lon="8.37672" />
      <trkpt lat="46.477768" lon="8.376746" />
      <trkpt lat="46.478137" lon="8.377046" />
      <trkpt lat="46.478238" lon="8.376989" />
      <trkpt lat="46.478198" lon="8.376759" />
      <trkpt lat="46.477556" lon="8.376222" />
      <trkpt lat="46.476842" lon="8.376315" />
      <trkpt lat="46.475686" lon="8.376236" />
      <trkpt lat="46.474372" lon="8.375914" />
      <trkpt lat="46.473728" lon="8.376299" />
      <trkpt lat="46.473777" lon="8.37602" />
      <trkpt lat="46.474058" lon="8.375802" />
      <trkpt lat="46.475475" lon="8.37546" />
      <trkpt lat="46.476353" lon="8.374965" />
      <trkpt lat="46.476714" lon="8.374897" />
      <trkpt lat="46.476766" lon="8.374695" />
      <trkpt lat="46.476674" lon="8.374606" />
      <trkpt lat="46.476221" lon="8.374792" />
      <trkpt lat="46.474507" lon="8.374698" />
      <trkpt lat="46.473452" lon="8.374833" />
      <trkpt lat="46.473242" lon="8.374728" />
      <trkpt lat="46.47201" lon="8.372646" />
      <trkpt lat="46.471778" lon="8.371345" />
      <trkpt lat="46.471993" lon="8.370582" />
      <trkpt lat="46.472144" lon="8.370218" />
      <trkpt lat="46.472262" lon="8.370203" />
      <trkpt lat="46.472508" lon="8.371479" />
      <trkpt lat="46.472806" lon="8.371929" />
      <trkpt lat="46.473147" lon="8.372149" />
      <trkpt lat="46.473411" lon="8.372257" />
      <trkpt lat="46.475109" lon="8.372148" />
      <trkpt lat="46.475828" lon="8.371356" />
      <trkpt lat="46.476218" lon="8.370266" />
      <trkpt lat="46.477651" lon="8.368603" />
      <trkpt lat="46.478225" lon="8.3685" />
      <trkpt lat="46.478739" lon="8.367761" />
      <trkpt lat="46.479146" lon="8.367731" />
      <trkpt lat="46.479656" lon="8.367289" />
      <trkpt lat="46.480168" lon="8.367128" />
      <trkpt lat="46.480521" lon="8.366824" />
      <trkpt lat="46.48242" lon="8.366638" />
      <trkpt lat="46.483222" lon="8.365629" />
      <trkpt lat="46.483867" lon="8.365166" />
      <trkpt lat="46.484406" lon="8.365147" />
      <trkpt lat="46.484947" lon="8.364883" />
      <trkpt lat="46.485655" lon="8.364035" />
      <trkpt lat="46.486844" lon="8.363029" />
      <trkpt lat="46.488044" lon="8.361339" />
      <trkpt lat="46.488694" lon="8.360039" />
      <trkpt lat="46.488738" lon="8.359642" />
      <trkpt lat="46.488409" lon="8.358493" />
      <trkpt lat="46.487681" lon="8.357345" />
      <trkpt lat="46.48812" lon="8.356629" />
      <trkpt lat="46.488714" lon="8.354963" />
      <trkpt lat="46.489323" lon="8.354333" />
      <trkpt lat="46.489847" lon="8.353328" />
      <trkpt lat="46.490422" lon="8.352835" />
      <trkpt lat="46.490726" lon="8.352154" />
      <trkpt lat="46.491492" lon="8.351083" />
      <trkpt lat="46.492347" lon="8.35045" />
      <trkpt lat="46.492814" lon="8.349629" />
      <trkpt lat="46.493302" lon="8.349125" />
      <trkpt lat="46.494153" lon="8.347877" />
      <trkpt lat="46.495223" lon="8.347203" />
      <trkpt lat="46.497498" lon="8.344018" />
      <trkpt lat="46.499622" lon="8.340694" />
      <trkpt lat="46.50018" lon="8.339223" />
      <trkpt lat="46.500604" lon="8.337594" />
      <trkpt lat="46.500697" lon="8.335586" />
      <trkpt lat="46.500392" lon="8.333998" />
      <trkpt lat="46.499227" lon="8.331484" />
      <trkpt lat="46.498954" lon="8.329912" />
      <trkpt lat="46.499187" lon="8.329772" />
      <trkpt lat="46.49965" lon="8.330062" />
      <trkpt lat="46.500338" lon="8.331248" />
      <trkpt lat="46.500639" lon="8.331043" />
      <trkpt lat="46.500691" lon="8.330888" />
      <trkpt lat="46.500465" lon="8.330253" />
      <trkpt lat="46.500487" lon="8.329666" />
      <trkpt lat="46.500717" lon="8.328864" />
      <trkpt lat="46.500858" lon="8.325851" />
      <trkpt lat="46.501046" lon="8.325159" />
      <trkpt lat="46.501934" lon="8.323904" />
      <trkpt lat="46.502552" lon="8.323271" />
      <trkpt lat="46.503208" lon="8.322077" />
      <trkpt lat="46.504827" lon="8.321395" />
      <trkpt lat="46.505344" lon="8.321391" />
      <trkpt lat="46.50573" lon="8.320638" />
      <trkpt lat="46.506206" lon="8.32013" />
      <trkpt lat="46.506218" lon="8.31994" />
      <trkpt lat="46.506072" lon="8.319871" />
      <trkpt lat="46.505348" lon="8.320604" />
      <trkpt lat="46.505051" lon="8.320712" />
      <trkpt lat="46.504707" lon="8.320578" />
      <trkpt lat="46.503872" lon="8.319828" />
      <trkpt lat="46.503243" lon="8.320076" />
      <trkpt lat="46.502698" lon="8.320013" />
      <trkpt lat="46.501617" lon="8.320486" />
      <trkpt lat="46.501396" lon="8.320253" />
      <trkpt lat="46.501516" lon="8.320033" />
      <trkpt lat="46.501948" lon="8.320002" />
      <trkpt lat="46.502481" lon="8.319647" />
      <trkpt lat="46.503486" lon="8.318706" />
      <trkpt lat="46.503565" lon="8.317602" />
      <trkpt lat="46.504182" lon="8.316718" />
      <trkpt lat="46.504568" lon="8.315446" />
      <trkpt lat="46.505403" lon="8.310229" />
      <trkpt lat="46.506901" lon="8.306905" />
      <trkpt lat="46.506761" lon="8.306692" />
      <trkpt lat="46.506901" lon="8.306905" />
      <trkpt lat="46.507204" lon="8.306287" />
      <trkpt lat="46.506419" lon="8.304804" />
      <trkpt lat="46.50585" lon="8.300657" />
      <trkpt lat="46.505149" lon="8.298377" />
      <trkpt lat="46.504372" lon="8.296997" />
      <trkpt lat="46.504003" lon="8.296649" />
      <trkpt lat="46.502715" lon="8.295886" />
      <trkpt lat="46.501879" lon="8.294777" />
      <trkpt lat="46.500916" lon="8.292268" />
      <trkpt lat="46.501044" lon="8.290314" />
      <trkpt lat="46.500491" lon="8.288029" />
      <trkpt lat="46.499983" lon="8.287443" />
      <trkpt lat="46.497985" lon="8.286328" />
      <trkpt lat="46.497154" lon="8.285434" />
      <trkpt lat="46.496652" lon="8.28438" />
      <trkpt lat="46.495987" lon="8.281045" />
      <trkpt lat="46.495694" lon="8.280437" />
      <trkpt lat="46.492603" lon="8.278588" />
      <trkpt lat="46.491683" lon="8.277707" />
      <trkpt lat="46.491042" lon="8.276844" />
      <trkpt lat="46.489823" lon="8.274764" />
      <trkpt lat="46.488729" lon="8.272232" />
      <trkpt lat="46.487794" lon="8.26852" />
    </trkseg>
  </trk>
</gpx>
