<?xml version="1.0" encoding="UTF-8"?>
<gpx version="1.1" creator="Fondue Tour 2026" xmlns="http://www.topografix.com/GPX/1/1" xmlns:xsi="http://www.w3.org/2001/XMLSchema-instance" xsi:schemaLocation="http://www.topografix.com/GPX/1/1 http://www.topografix.com/GPX/1/1/gpx.xsd">
  <metadata><name>Thu 10 · La Thuile to the Furka–Tremola loop · from Restaurant Z’Matt</name><desc>Fondue Tour 2026 roadbook route. Verify live pass status before departure.</desc></metadata>
  <rte>
    <name>Thu 10 · La Thuile to the Furka–Tremola loop · from Restaurant Z’Matt stops</name>
    <rtept lat="46.340697" lon="8.023908"><name>Restaurant Z’Matt</name></rtept>
    <rtept lat="46.410532" lon="8.1509586"><name>Hängebrücke Fürgangen</name></rtept>
    <rtept lat="46.4879271" lon="8.268457"><name>Hotel Landhaus</name></rtept>
    <rtept lat="46.576739" lon="8.38835"><name>Belvedere Furka</name></rtept>
    <rtept lat="46.5716026" lon="8.4093321"><name>Furka photo point</name></rtept>
    <rtept lat="46.5496678" lon="8.5686232"><name>Parcheggio Tremola</name></rtept>
    <rtept lat="46.47819" lon="8.3864176"><name>Nufenenpass</name></rtept>
    <rtept lat="46.5068152" lon="8.3066168"><name>Agrola Ulrichen</name></rtept>
    <rtept lat="46.4879271" lon="8.268457"><name>Hotel Landhaus</name></rtept>
  </rte>
  <trk>
    <name>Thu 10 · La Thuile to the Furka–Tremola loop · from Restaurant Z’Matt</name>
    <trkseg>
      <trkpt lat="46.340635" lon="8.023779" />
      <trkpt lat="46.340812" lon="8.023446" />
      <trkpt lat="46.34243" lon="8.025365" />
      <trkpt lat="46.343757" lon="8.026126" />
      <trkpt lat="46.344512" lon="8.026852" />
      <trkpt lat="46.345136" lon="8.027913" />
      <trkpt lat="46.346554" lon="8.031571" />
      <trkpt lat="46.347129" lon="8.032357" />
      <trkpt lat="46.348696" lon="8.033804" />
      <trkpt lat="46.349909" lon="8.036416" />
      <trkpt lat="46.351162" lon="8.037777" />
      <trkpt lat="46.352252" lon="8.03971" />
      <trkpt lat="46.353568" lon="8.041256" />
      <trkpt lat="46.354622" lon="8.044048" />
      <trkpt lat="46.355449" lon="8.045293" />
      <trkpt lat="46.356912" lon="8.046889" />
      <trkpt lat="46.357666" lon="8.049074" />
      <trkpt lat="46.358578" lon="8.050248" />
      <trkpt lat="46.359536" lon="8.050959" />
      <trkpt lat="46.360402" lon="8.053024" />
      <trkpt lat="46.360678" lon="8.053195" />
      <trkpt lat="46.36138" lon="8.053297" />
      <trkpt lat="46.361752" lon="8.053739" />
      <trkpt lat="46.362246" lon="8.054626" />
      <trkpt lat="46.364021" lon="8.059362" />
      <trkpt lat="46.364988" lon="8.060496" />
      <trkpt lat="46.366162" lon="8.063698" />
      <trkpt lat="46.366933" lon="8.065048" />
      <trkpt lat="46.367303" lon="8.066091" />
      <trkpt lat="46.367468" lon="8.067258" />
      <trkpt lat="46.367732" lon="8.067892" />
      <trkpt lat="46.367998" lon="8.068178" />
      <trkpt lat="46.369109" lon="8.068683" />
      <trkpt lat="46.369434" lon="8.069136" />
      <trkpt lat="46.36956" lon="8.069839" />
      <trkpt lat="46.369351" lon="8.071194" />
      <trkpt lat="46.369446" lon="8.071975" />
      <trkpt lat="46.369667" lon="8.072459" />
      <trkpt lat="46.370719" lon="8.073882" />
      <trkpt lat="46.371136" lon="8.075323" />
      <trkpt lat="46.371643" lon="8.076389" />
      <trkpt lat="46.371629" lon="8.077199" />
      <trkpt lat="46.370862" lon="8.07917" />
      <trkpt lat="46.370772" lon="8.079727" />
      <trkpt lat="46.371359" lon="8.081177" />
      <trkpt lat="46.371584" lon="8.082466" />
      <trkpt lat="46.372141" lon="8.083801" />
      <trkpt lat="46.372848" lon="8.085049" />
      <trkpt lat="46.373574" lon="8.086832" />
      <trkpt lat="46.374563" lon="8.088299" />
      <trkpt lat="46.375228" lon="8.089668" />
      <trkpt lat="46.375525" lon="8.089839" />
      <trkpt lat="46.377367" lon="8.089893" />
      <trkpt lat="46.378633" lon="8.090993" />
      <trkpt lat="46.378902" lon="8.091374" />
      <trkpt lat="46.378988" lon="8.093311" />
      <trkpt lat="46.378675" lon="8.094614" />
      <trkpt lat="46.377188" lon="8.096124" />
      <trkpt lat="46.376433" lon="8.096379" />
      <trkpt lat="46.376239" lon="8.096658" />
      <trkpt lat="46.37651" lon="8.099977" />
      <trkpt lat="46.376687" lon="8.099944" />
      <trkpt lat="46.376712" lon="8.098589" />
      <trkpt lat="46.376965" lon="8.097116" />
      <trkpt lat="46.377077" lon="8.096998" />
      <trkpt lat="46.377345" lon="8.098861" />
      <trkpt lat="46.377883" lon="8.100074" />
      <trkpt lat="46.378283" lon="8.101401" />
      <trkpt lat="46.378572" lon="8.101956" />
      <trkpt lat="46.380613" lon="8.104593" />
      <trkpt lat="46.381048" lon="8.106466" />
      <trkpt lat="46.381602" lon="8.107733" />
      <trkpt lat="46.38335" lon="8.110155" />
      <trkpt lat="46.384282" lon="8.110815" />
      <trkpt lat="46.385942" lon="8.1126" />
      <trkpt lat="46.387052" lon="8.114286" />
      <trkpt lat="46.387402" lon="8.115202" />
      <trkpt lat="46.387658" lon="8.116991" />
      <trkpt lat="46.388009" lon="8.118385" />
      <trkpt lat="46.389617" lon="8.121687" />
      <trkpt lat="46.389884" lon="8.121921" />
      <trkpt lat="46.390217" lon="8.121975" />
      <trkpt lat="46.390535" lon="8.121899" />
      <trkpt lat="46.391212" lon="8.121282" />
      <trkpt lat="46.391489" lon="8.121324" />
      <trkpt lat="46.391706" lon="8.121525" />
      <trkpt lat="46.392159" lon="8.123025" />
      <trkpt lat="46.39277" lon="8.124192" />
      <trkpt lat="46.393193" lon="8.125632" />
      <trkpt lat="46.393415" lon="8.125976" />
      <trkpt lat="46.393958" lon="8.12642" />
      <trkpt lat="46.395759" lon="8.128968" />
      <trkpt lat="46.396275" lon="8.130584" />
      <trkpt lat="46.396894" lon="8.131954" />
      <trkpt lat="46.396869" lon="8.132162" />
      <trkpt lat="46.397011" lon="8.132207" />
      <trkpt lat="46.398625" lon="8.134509" />
      <trkpt lat="46.39985" lon="8.136795" />
      <trkpt lat="46.400279" lon="8.137162" />
      <trkpt lat="46.401214" lon="8.137529" />
      <trkpt lat="46.401846" lon="8.138377" />
      <trkpt lat="46.402345" lon="8.138554" />
      <trkpt lat="46.403819" lon="8.137067" />
      <trkpt lat="46.404045" lon="8.136973" />
      <trkpt lat="46.403579" lon="8.137732" />
      <trkpt lat="46.403544" lon="8.138951" />
      <trkpt lat="46.402935" lon="8.140001" />
      <trkpt lat="46.403357" lon="8.141596" />
      <trkpt lat="46.403932" lon="8.142097" />
      <trkpt lat="46.404176" lon="8.142725" />
      <trkpt lat="46.40525" lon="8.14447" />
      <trkpt lat="46.408099" lon="8.14715" />
      <trkpt lat="46.408984" lon="8.148829" />
      <trkpt lat="46.410167" lon="8.150041" />
      <trkpt lat="46.411558" lon="8.152871" />
      <trkpt lat="46.412412" lon="8.154004" />
      <trkpt lat="46.412983" lon="8.15626" />
      <trkpt lat="46.413672" lon="8.157692" />
      <trkpt lat="46.414747" lon="8.159112" />
      <trkpt lat="46.415486" lon="8.159703" />
      <trkpt lat="46.41705" lon="8.16301" />
      <trkpt lat="46.417745" lon="8.164197" />
      <trkpt lat="46.418969" lon="8.165831" />
      <trkpt lat="46.419831" lon="8.167924" />
      <trkpt lat="46.420564" lon="8.16891" />
      <trkpt lat="46.422253" lon="8.170333" />
      <trkpt lat="46.42344" lon="8.172121" />
      <trkpt lat="46.425191" lon="8.174207" />
      <trkpt lat="46.426062" lon="8.174907" />
      <trkpt lat="46.427406" lon="8.177476" />
      <trkpt lat="46.4287" lon="8.179051" />
      <trkpt lat="46.429369" lon="8.179555" />
      <trkpt lat="46.430797" lon="8.181418" />
      <trkpt lat="46.431049" lon="8.182204" />
      <trkpt lat="46.431753" lon="8.183595" />
      <trkpt lat="46.432698" lon="8.184711" />
      <trkpt lat="46.433336" lon="8.185856" />
      <trkpt lat="46.433716" lon="8.18716" />
      <trkpt lat="46.43435" lon="8.187776" />
      <trkpt lat="46.435179" lon="8.189203" />
      <trkpt lat="46.435477" lon="8.190193" />
      <trkpt lat="46.435469" lon="8.191688" />
      <trkpt lat="46.435639" lon="8.192371" />
      <trkpt lat="46.436707" lon="8.193924" />
      <trkpt lat="46.437451" lon="8.195913" />
      <trkpt lat="46.439681" lon="8.20014" />
      <trkpt lat="46.440496" lon="8.201202" />
      <trkpt lat="46.441809" lon="8.202537" />
      <trkpt lat="46.442299" lon="8.202725" />
      <trkpt lat="46.44334" lon="8.202768" />
      <trkpt lat="46.444132" lon="8.203247" />
      <trkpt lat="46.44453" lon="8.203646" />
      <trkpt lat="46.445135" lon="8.204827" />
      <trkpt lat="46.446502" lon="8.206457" />
      <trkpt lat="46.44854" lon="8.208307" />
      <trkpt lat="46.450463" lon="8.210382" />
      <trkpt lat="46.450959" lon="8.210782" />
      <trkpt lat="46.451834" lon="8.211109" />
      <trkpt lat="46.453087" lon="8.212352" />
      <trkpt lat="46.453704" lon="8.213635" />
      <trkpt lat="46.453875" lon="8.214292" />
      <trkpt lat="46.453929" lon="8.215303" />
      <trkpt lat="46.454629" lon="8.216895" />
      <trkpt lat="46.45486" lon="8.217017" />
      <trkpt lat="46.456142" lon="8.216896" />
      <trkpt lat="46.456456" lon="8.217103" />
      <trkpt lat="46.456766" lon="8.217969" />
      <trkpt lat="46.457196" lon="8.224545" />
      <trkpt lat="46.458027" lon="8.226881" />
      <trkpt lat="46.459557" lon="8.229567" />
      <trkpt lat="46.461052" lon="8.231405" />
      <trkpt lat="46.462131" lon="8.232205" />
      <trkpt lat="46.462645" lon="8.232479" />
      <trkpt lat="46.465009" lon="8.233212" />
      <trkpt lat="46.465897" lon="8.233933" />
      <trkpt lat="46.466547" lon="8.235255" />
      <trkpt lat="46.467129" lon="8.238126" />
      <trkpt lat="46.467409" lon="8.238921" />
      <trkpt lat="46.469529" lon="8.24203" />
      <trkpt lat="46.469922" lon="8.243113" />
      <trkpt lat="46.470782" lon="8.244778" />
      <trkpt lat="46.472501" lon="8.246983" />
      <trkpt lat="46.473237" lon="8.248168" />
      <trkpt lat="46.475128" lon="8.250583" />
      <trkpt lat="46.476689" lon="8.251852" />
      <trkpt lat="46.477232" lon="8.252454" />
      <trkpt lat="46.478386" lon="8.254662" />
      <trkpt lat="46.479676" lon="8.256403" />
      <trkpt lat="46.486271" lon="8.262372" />
      <trkpt lat="46.486465" lon="8.262347" />
      <trkpt lat="46.486718" lon="8.261841" />
      <trkpt lat="46.486873" lon="8.261882" />
      <trkpt lat="46.486952" lon="8.262327" />
      <trkpt lat="46.487341" lon="8.263025" />
      <trkpt lat="46.487363" lon="8.264073" />
      <trkpt lat="46.487214" lon="8.264873" />
      <trkpt lat="46.487405" lon="8.266876" />
      <trkpt lat="46.488495" lon="8.271542" />
      <trkpt lat="46.489568" lon="8.274205" />
      <trkpt lat="46.491042" lon="8.276844" />
      <trkpt lat="46.492058" lon="8.278103" />
      <trkpt lat="46.493134" lon="8.278966" />
      <trkpt lat="46.495694" lon="8.280437" />
      <trkpt lat="46.495987" lon="8.281045" />
      <trkpt lat="46.496652" lon="8.28438" />
      <trkpt lat="46.497341" lon="8.285699" />
      <trkpt lat="46.498173" lon="8.286454" />
      <trkpt lat="46.499983" lon="8.287443" />
      <trkpt lat="46.500491" lon="8.288029" />
      <trkpt lat="46.501044" lon="8.290314" />
      <trkpt lat="46.500916" lon="8.292268" />
      <trkpt lat="46.501879" lon="8.294777" />
      <trkpt lat="46.502487" lon="8.29567" />
      <trkpt lat="46.504003" lon="8.296649" />
      <trkpt lat="46.504898" lon="8.297777" />
      <trkpt lat="46.50585" lon="8.300657" />
      <trkpt lat="46.506485" lon="8.305002" />
      <trkpt lat="46.507801" lon="8.307236" />
      <trkpt lat="46.508344" lon="8.308644" />
      <trkpt lat="46.508621" lon="8.309984" />
      <trkpt lat="46.509699" lon="8.310967" />
      <trkpt lat="46.510415" lon="8.311894" />
      <trkpt lat="46.513747" lon="8.318756" />
      <trkpt lat="46.513995" lon="8.319782" />
      <trkpt lat="46.514043" lon="8.32076" />
      <trkpt lat="46.513632" lon="8.323412" />
      <trkpt lat="46.513725" lon="8.323958" />
      <trkpt lat="46.513992" lon="8.324415" />
      <trkpt lat="46.514563" lon="8.325277" />
      <trkpt lat="46.515518" lon="8.325248" />
      <trkpt lat="46.515868" lon="8.325386" />
      <trkpt lat="46.517553" lon="8.327562" />
      <trkpt lat="46.519649" lon="8.328886" />
      <trkpt lat="46.521043" lon="8.329337" />
      <trkpt lat="46.5226" lon="8.329498" />
      <trkpt lat="46.523133" lon="8.329748" />
      <trkpt lat="46.523732" lon="8.330315" />
      <trkpt lat="46.525777" lon="8.334378" />
      <trkpt lat="46.52745" lon="8.337161" />
      <trkpt lat="46.528344" lon="8.339454" />
      <trkpt lat="46.531649" lon="8.342994" />
      <trkpt lat="46.532807" lon="8.343851" />
      <trkpt lat="46.533235" lon="8.345702" />
      <trkpt lat="46.534207" lon="8.34722" />
      <trkpt lat="46.534462" lon="8.348773" />
      <trkpt lat="46.535075" lon="8.349483" />
      <trkpt lat="46.536061" lon="8.349684" />
      <trkpt lat="46.536416" lon="8.349974" />
      <trkpt lat="46.536905" lon="8.351249" />
      <trkpt lat="46.538251" lon="8.35393" />
      <trkpt lat="46.538653" lon="8.355204" />
      <trkpt lat="46.539246" lon="8.356517" />
      <trkpt lat="46.540791" lon="8.358403" />
      <trkpt lat="46.54134" lon="8.359642" />
      <trkpt lat="46.541442" lon="8.359484" />
      <trkpt lat="46.541067" lon="8.358403" />
      <trkpt lat="46.540511" lon="8.355737" />
      <trkpt lat="46.540521" lon="8.355148" />
      <trkpt lat="46.539369" lon="8.353425" />
      <trkpt lat="46.538654" lon="8.351525" />
      <trkpt lat="46.538324" lon="8.35026" />
      <trkpt lat="46.538395" lon="8.350115" />
      <trkpt lat="46.53892" lon="8.351286" />
      <trkpt lat="46.539983" lon="8.352895" />
      <trkpt lat="46.540757" lon="8.35355" />
      <trkpt lat="46.54147" lon="8.354325" />
      <trkpt lat="46.541778" lon="8.354853" />
      <trkpt lat="46.542322" lon="8.355307" />
      <trkpt lat="46.543043" lon="8.357661" />
      <trkpt lat="46.543659" lon="8.357874" />
      <trkpt lat="46.543808" lon="8.357776" />
      <trkpt lat="46.543866" lon="8.356707" />
      <trkpt lat="46.544526" lon="8.355872" />
      <trkpt lat="46.544283" lon="8.355059" />
      <trkpt lat="46.544402" lon="8.35493" />
      <trkpt lat="46.544714" lon="8.355253" />
      <trkpt lat="46.545248" lon="8.356217" />
      <trkpt lat="46.545425" lon="8.357367" />
      <trkpt lat="46.546053" lon="8.358477" />
      <trkpt lat="46.546328" lon="8.358646" />
      <trkpt lat="46.546932" lon="8.3587" />
      <trkpt lat="46.548389" lon="8.36037" />
      <trkpt lat="46.54884" lon="8.360406" />
      <trkpt lat="46.54994" lon="8.359712" />
      <trkpt lat="46.551942" lon="8.358709" />
      <trkpt lat="46.555147" lon="8.355938" />
      <trkpt lat="46.556619" lon="8.355735" />
      <trkpt lat="46.556563" lon="8.355537" />
      <trkpt lat="46.555442" lon="8.355477" />
      <trkpt lat="46.555468" lon="8.355227" />
      <trkpt lat="46.557487" lon="8.35516" />
      <trkpt lat="46.557846" lon="8.355476" />
      <trkpt lat="46.557914" lon="8.355703" />
      <trkpt lat="46.557514" lon="8.356519" />
      <trkpt lat="46.557549" lon="8.356698" />
      <trkpt lat="46.558171" lon="8.355944" />
      <trkpt lat="46.558885" lon="8.356079" />
      <trkpt lat="46.560355" lon="8.358083" />
      <trkpt lat="46.560737" lon="8.359326" />
      <trkpt lat="46.561321" lon="8.359911" />
      <trkpt lat="46.562257" lon="8.361536" />
      <trkpt lat="46.56247" lon="8.362172" />
      <trkpt lat="46.562263" lon="8.362766" />
      <trkpt lat="46.562076" lon="8.363022" />
      <trkpt lat="46.561883" lon="8.36306" />
      <trkpt lat="46.560757" lon="8.36141" />
      <trkpt lat="46.560349" lon="8.35941" />
      <trkpt lat="46.560072" lon="8.358405" />
      <trkpt lat="46.559927" lon="8.358299" />
      <trkpt lat="46.559867" lon="8.358495" />
      <trkpt lat="46.560201" lon="8.359381" />
      <trkpt lat="46.560267" lon="8.361494" />
      <trkpt lat="46.561378" lon="8.363775" />
      <trkpt lat="46.561824" lon="8.366285" />
      <trkpt lat="46.562743" lon="8.368239" />
      <trkpt lat="46.562724" lon="8.368607" />
      <trkpt lat="46.562555" lon="8.36854" />
      <trkpt lat="46.562397" lon="8.367991" />
      <trkpt lat="46.561318" lon="8.366141" />
      <trkpt lat="46.561001" lon="8.364167" />
      <trkpt lat="46.560972" lon="8.365417" />
      <trkpt lat="46.561167" lon="8.366739" />
      <trkpt lat="46.561898" lon="8.368937" />
      <trkpt lat="46.562508" lon="8.369804" />
      <trkpt lat="46.563258" lon="8.371359" />
      <trkpt lat="46.56398" lon="8.374925" />
      <trkpt lat="46.564016" lon="8.376041" />
      <trkpt lat="46.56471" lon="8.378917" />
      <trkpt lat="46.565596" lon="8.38096" />
      <trkpt lat="46.566915" lon="8.382463" />
      <trkpt lat="46.567425" lon="8.383689" />
      <trkpt lat="46.568867" lon="8.386121" />
      <trkpt lat="46.570162" lon="8.38955" />
      <trkpt lat="46.570472" lon="8.392332" />
      <trkpt lat="46.570503" lon="8.39678" />
      <trkpt lat="46.570761" lon="8.396801" />
      <trkpt lat="46.571022" lon="8.396626" />
      <trkpt lat="46.571606" lon="8.395623" />
      <trkpt lat="46.572067" lon="8.393054" />
      <trkpt lat="46.572387" lon="8.392155" />
      <trkpt lat="46.572416" lon="8.391151" />
      <trkpt lat="46.572809" lon="8.389161" />
      <trkpt lat="46.572945" lon="8.389226" />
      <trkpt lat="46.572721" lon="8.391218" />
      <trkpt lat="46.572801" lon="8.392235" />
      <trkpt lat="46.572686" lon="8.39478" />
      <trkpt lat="46.572517" lon="8.395532" />
      <trkpt lat="46.572649" lon="8.395727" />
      <trkpt lat="46.572799" lon="8.395518" />
      <trkpt lat="46.572847" lon="8.394273" />
      <trkpt lat="46.573446" lon="8.390325" />
      <trkpt lat="46.574" lon="8.389418" />
      <trkpt lat="46.574294" lon="8.388558" />
      <trkpt lat="46.57465" lon="8.388275" />
      <trkpt lat="46.575396" lon="8.388003" />
      <trkpt lat="46.576267" lon="8.386613" />
      <trkpt lat="46.576407" lon="8.386606" />
      <trkpt lat="46.576434" lon="8.386822" />
      <trkpt lat="46.575701" lon="8.38855" />
      <trkpt lat="46.574977" lon="8.3892" />
      <trkpt lat="46.574727" lon="8.389906" />
      <trkpt lat="46.574292" lon="8.390549" />
      <trkpt lat="46.574369" lon="8.390731" />
      <trkpt lat="46.575295" lon="8.389567" />
      <trkpt lat="46.575988" lon="8.389197" />
      <trkpt lat="46.576768" lon="8.388082" />
      <trkpt lat="46.576925" lon="8.388159" />
      <trkpt lat="46.576488" lon="8.388793" />
      <trkpt lat="46.576177" lon="8.389645" />
      <trkpt lat="46.575182" lon="8.391108" />
      <trkpt lat="46.574949" lon="8.391781" />
      <trkpt lat="46.57484" lon="8.392714" />
      <trkpt lat="46.574968" lon="8.392897" />
      <trkpt lat="46.575323" lon="8.391624" />
      <trkpt lat="46.575962" lon="8.390845" />
      <trkpt lat="46.576143" lon="8.390827" />
      <trkpt lat="46.576178" lon="8.391077" />
      <trkpt lat="46.575579" lon="8.392069" />
      <trkpt lat="46.575405" lon="8.392871" />
      <trkpt lat="46.575471" lon="8.395299" />
      <trkpt lat="46.575182" lon="8.396842" />
      <trkpt lat="46.575264" lon="8.399042" />
      <trkpt lat="46.574563" lon="8.401724" />
      <trkpt lat="46.574525" lon="8.403981" />
      <trkpt lat="46.574335" lon="8.404361" />
      <trkpt lat="46.573532" lon="8.405154" />
      <trkpt lat="46.573183" lon="8.405757" />
      <trkpt lat="46.572643" lon="8.408415" />
      <trkpt lat="46.571723" lon="8.410058" />
      <trkpt lat="46.5717" lon="8.410617" />
      <trkpt lat="46.572207" lon="8.414357" />
      <trkpt lat="46.572595" lon="8.415086" />
      <trkpt lat="46.573394" lon="8.415846" />
      <trkpt lat="46.573769" lon="8.416631" />
      <trkpt lat="46.574405" lon="8.418806" />
      <trkpt lat="46.575118" lon="8.419609" />
      <trkpt lat="46.575464" lon="8.420505" />
      <trkpt lat="46.576005" lon="8.421094" />
      <trkpt lat="46.577465" lon="8.423523" />
      <trkpt lat="46.578354" lon="8.424672" />
      <trkpt lat="46.578599" lon="8.424906" />
      <trkpt lat="46.579021" lon="8.424854" />
      <trkpt lat="46.5794" lon="8.425053" />
      <trkpt lat="46.579852" lon="8.42587" />
      <trkpt lat="46.580222" lon="8.426112" />
      <trkpt lat="46.580247" lon="8.426365" />
      <trkpt lat="46.580103" lon="8.426431" />
      <trkpt lat="46.579557" lon="8.425732" />
      <trkpt lat="46.579456" lon="8.425742" />
      <trkpt lat="46.580259" lon="8.426957" />
      <trkpt lat="46.580421" lon="8.427046" />
      <trkpt lat="46.580953" lon="8.426659" />
      <trkpt lat="46.581708" lon="8.42748" />
      <trkpt lat="46.582633" lon="8.427152" />
      <trkpt lat="46.582862" lon="8.427194" />
      <trkpt lat="46.583075" lon="8.427417" />
      <trkpt lat="46.583512" lon="8.4284" />
      <trkpt lat="46.584382" lon="8.428789" />
      <trkpt lat="46.585492" lon="8.430034" />
      <trkpt lat="46.586162" lon="8.430373" />
      <trkpt lat="46.587336" lon="8.431401" />
      <trkpt lat="46.588089" lon="8.432966" />
      <trkpt lat="46.587239" lon="8.436402" />
      <trkpt lat="46.587312" lon="8.43787" />
      <trkpt lat="46.587779" lon="8.439957" />
      <trkpt lat="46.588041" lon="8.44236" />
      <trkpt lat="46.58921" lon="8.445523" />
      <trkpt lat="46.590705" lon="8.45112" />
      <trkpt lat="46.591559" lon="8.453497" />
      <trkpt lat="46.591718" lon="8.453715" />
      <trkpt lat="46.593962" lon="8.455151" />
      <trkpt lat="46.594675" lon="8.456213" />
      <trkpt lat="46.594833" lon="8.45708" />
      <trkpt lat="46.594762" lon="8.457558" />
      <trkpt lat="46.59382" lon="8.459201" />
      <trkpt lat="46.593047" lon="8.461094" />
      <trkpt lat="46.592455" lon="8.462137" />
      <trkpt lat="46.592387" lon="8.463545" />
      <trkpt lat="46.59208" lon="8.464541" />
      <trkpt lat="46.591961" lon="8.466506" />
      <trkpt lat="46.591323" lon="8.471233" />
      <trkpt lat="46.591007" lon="8.472232" />
      <trkpt lat="46.590414" lon="8.472499" />
      <trkpt lat="46.589806" lon="8.473746" />
      <trkpt lat="46.589256" lon="8.475727" />
      <trkpt lat="46.58904" lon="8.477086" />
      <trkpt lat="46.589205" lon="8.478744" />
      <trkpt lat="46.589861" lon="8.479917" />
      <trkpt lat="46.589894" lon="8.480241" />
      <trkpt lat="46.589776" lon="8.480419" />
      <trkpt lat="46.589592" lon="8.480408" />
      <trkpt lat="46.588791" lon="8.479683" />
      <trkpt lat="46.587676" lon="8.477721" />
      <trkpt lat="46.587541" lon="8.477877" />
      <trkpt lat="46.587136" lon="8.480326" />
      <trkpt lat="46.587405" lon="8.482505" />
      <trkpt lat="46.588013" lon="8.484103" />
      <trkpt lat="46.589313" lon="8.486078" />
      <trkpt lat="46.589533" lon="8.486083" />
      <trkpt lat="46.589852" lon="8.485704" />
      <trkpt lat="46.590048" lon="8.485832" />
      <trkpt lat="46.589839" lon="8.487084" />
      <trkpt lat="46.58955" lon="8.487161" />
      <trkpt lat="46.588063" lon="8.486179" />
      <trkpt lat="46.586767" lon="8.484689" />
      <trkpt lat="46.586639" lon="8.484813" />
      <trkpt lat="46.587916" lon="8.487267" />
      <trkpt lat="46.589337" lon="8.488978" />
      <trkpt lat="46.589507" lon="8.488964" />
      <trkpt lat="46.590151" lon="8.488311" />
      <trkpt lat="46.590992" lon="8.48822" />
      <trkpt lat="46.59149" lon="8.48791" />
      <trkpt lat="46.59254" lon="8.488144" />
      <trkpt lat="46.592519" lon="8.488318" />
      <trkpt lat="46.591572" lon="8.488408" />
      <trkpt lat="46.591219" lon="8.488844" />
      <trkpt lat="46.590544" lon="8.489196" />
      <trkpt lat="46.589671" lon="8.490154" />
      <trkpt lat="46.588706" lon="8.489934" />
      <trkpt lat="46.588226" lon="8.489971" />
      <trkpt lat="46.587769" lon="8.489398" />
      <trkpt lat="46.587644" lon="8.489587" />
      <trkpt lat="46.588274" lon="8.490578" />
      <trkpt lat="46.588618" lon="8.490902" />
      <trkpt lat="46.589067" lon="8.49069" />
      <trkpt lat="46.589977" lon="8.490941" />
      <trkpt lat="46.590811" lon="8.49086" />
      <trkpt lat="46.591641" lon="8.491243" />
      <trkpt lat="46.591631" lon="8.491445" />
      <trkpt lat="46.591142" lon="8.49136" />
      <trkpt lat="46.590489" lon="8.49178" />
      <trkpt lat="46.589953" lon="8.491862" />
      <trkpt lat="46.589506" lon="8.492408" />
      <trkpt lat="46.589563" lon="8.492664" />
      <trkpt lat="46.590251" lon="8.492753" />
      <trkpt lat="46.590673" lon="8.493255" />
      <trkpt lat="46.590816" lon="8.494013" />
      <trkpt lat="46.59068" lon="8.494613" />
      <trkpt lat="46.590825" lon="8.494606" />
      <trkpt lat="46.590989" lon="8.493942" />
      <trkpt lat="46.591258" lon="8.493665" />
      <trkpt lat="46.591891" lon="8.49369" />
      <trkpt lat="46.592652" lon="8.493998" />
      <trkpt lat="46.592891" lon="8.494625" />
      <trkpt lat="46.594427" lon="8.496905" />
      <trkpt lat="46.595494" lon="8.497643" />
      <trkpt lat="46.595488" lon="8.498322" />
      <trkpt lat="46.595881" lon="8.499522" />
      <trkpt lat="46.596525" lon="8.500192" />
      <trkpt lat="46.597041" lon="8.501203" />
      <trkpt lat="46.597451" lon="8.501579" />
      <trkpt lat="46.598929" lon="8.50227" />
      <trkpt lat="46.600728" lon="8.505182" />
      <trkpt lat="46.600978" lon="8.506281" />
      <trkpt lat="46.601132" lon="8.508669" />
      <trkpt lat="46.602583" lon="8.514852" />
      <trkpt lat="46.610804" lon="8.536681" />
      <trkpt lat="46.610951" lon="8.537685" />
      <trkpt lat="46.610651" lon="8.539535" />
      <trkpt lat="46.610783" lon="8.540707" />
      <trkpt lat="46.61258" lon="8.54613" />
      <trkpt lat="46.61315" lon="8.548528" />
      <trkpt lat="46.613917" lon="8.550509" />
      <trkpt lat="46.614823" lon="8.553689" />
      <trkpt lat="46.615138" lon="8.55583" />
      <trkpt lat="46.615879" lon="8.557874" />
      <trkpt lat="46.616095" lon="8.560464" />
      <trkpt lat="46.617925" lon="8.564184" />
      <trkpt lat="46.617945" lon="8.565404" />
      <trkpt lat="46.617656" lon="8.566363" />
      <trkpt lat="46.617496" lon="8.566448" />
      <trkpt lat="46.6172" lon="8.565381" />
      <trkpt lat="46.617085" lon="8.563475" />
      <trkpt lat="46.616714" lon="8.563124" />
      <trkpt lat="46.616323" lon="8.563386" />
      <trkpt lat="46.616252" lon="8.564027" />
      <trkpt lat="46.616802" lon="8.566066" />
      <trkpt lat="46.616647" lon="8.56729" />
      <trkpt lat="46.616705" lon="8.568544" />
      <trkpt lat="46.616559" lon="8.569136" />
      <trkpt lat="46.615494" lon="8.570932" />
      <trkpt lat="46.615096" lon="8.5711" />
      <trkpt lat="46.614259" lon="8.570961" />
      <trkpt lat="46.613441" lon="8.571973" />
      <trkpt lat="46.613061" lon="8.571974" />
      <trkpt lat="46.611564" lon="8.571143" />
      <trkpt lat="46.611215" lon="8.571305" />
      <trkpt lat="46.610697" lon="8.571953" />
      <trkpt lat="46.610216" lon="8.571997" />
      <trkpt lat="46.609945" lon="8.571731" />
      <trkpt lat="46.608934" lon="8.569787" />
      <trkpt lat="46.607872" lon="8.568158" />
      <trkpt lat="46.60584" lon="8.56593" />
      <trkpt lat="46.604441" lon="8.565537" />
      <trkpt lat="46.602759" lon="8.564349" />
      <trkpt lat="46.599749" lon="8.563063" />
      <trkpt lat="46.599159" lon="8.563006" />
      <trkpt lat="46.597444" lon="8.563206" />
      <trkpt lat="46.596019" lon="8.562334" />
      <trkpt lat="46.595054" lon="8.562382" />
      <trkpt lat="46.594193" lon="8.562081" />
      <trkpt lat="46.593972" lon="8.562141" />
      <trkpt lat="46.593231" lon="8.562779" />
      <trkpt lat="46.592754" lon="8.56283" />
      <trkpt lat="46.592284" lon="8.562695" />
      <trkpt lat="46.591482" lon="8.561852" />
      <trkpt lat="46.591092" lon="8.560782" />
      <trkpt lat="46.591097" lon="8.560337" />
      <trkpt lat="46.59132" lon="8.560121" />
      <trkpt lat="46.591522" lon="8.560213" />
      <trkpt lat="46.59226" lon="8.561536" />
      <trkpt lat="46.592568" lon="8.561436" />
      <trkpt lat="46.592605" lon="8.560955" />
      <trkpt lat="46.591573" lon="8.559464" />
      <trkpt lat="46.590911" lon="8.558057" />
      <trkpt lat="46.590395" lon="8.557655" />
      <trkpt lat="46.589481" lon="8.557688" />
      <trkpt lat="46.588885" lon="8.557221" />
      <trkpt lat="46.588125" lon="8.55691" />
      <trkpt lat="46.586784" lon="8.557105" />
      <trkpt lat="46.585895" lon="8.557646" />
      <trkpt lat="46.584742" lon="8.557444" />
      <trkpt lat="46.584034" lon="8.557572" />
      <trkpt lat="46.583486" lon="8.557948" />
      <trkpt lat="46.582518" lon="8.558942" />
      <trkpt lat="46.581964" lon="8.5592" />
      <trkpt lat="46.57986" lon="8.558762" />
      <trkpt lat="46.578916" lon="8.558795" />
      <trkpt lat="46.578323" lon="8.559003" />
      <trkpt lat="46.576192" lon="8.560258" />
      <trkpt lat="46.574272" lon="8.560802" />
      <trkpt lat="46.573557" lon="8.560888" />
      <trkpt lat="46.571918" lon="8.560823" />
      <trkpt lat="46.570125" lon="8.560946" />
      <trkpt lat="46.567602" lon="8.560437" />
      <trkpt lat="46.565561" lon="8.560714" />
      <trkpt lat="46.564957" lon="8.560664" />
      <trkpt lat="46.563745" lon="8.560109" />
      <trkpt lat="46.562683" lon="8.559169" />
      <trkpt lat="46.562023" lon="8.558752" />
      <trkpt lat="46.561488" lon="8.558637" />
      <trkpt lat="46.560873" lon="8.55877" />
      <trkpt lat="46.560023" lon="8.559516" />
      <trkpt lat="46.559063" lon="8.561693" />
      <trkpt lat="46.558265" lon="8.562848" />
      <trkpt lat="46.558017" lon="8.563715" />
      <trkpt lat="46.558044" lon="8.565168" />
      <trkpt lat="46.557471" lon="8.566503" />
      <trkpt lat="46.556999" lon="8.56706" />
      <trkpt lat="46.556527" lon="8.567381" />
      <trkpt lat="46.556116" lon="8.567359" />
      <trkpt lat="46.555437" lon="8.566968" />
      <trkpt lat="46.554827" lon="8.567395" />
      <trkpt lat="46.554143" lon="8.569146" />
      <trkpt lat="46.552985" lon="8.571368" />
      <trkpt lat="46.552713" lon="8.571685" />
      <trkpt lat="46.550851" lon="8.572762" />
      <trkpt lat="46.5506" lon="8.572731" />
      <trkpt lat="46.549963" lon="8.570214" />
      <trkpt lat="46.549619" lon="8.569689" />
      <trkpt lat="46.549074" lon="8.569232" />
      <trkpt lat="46.549139" lon="8.569097" />
      <trkpt lat="46.549672" lon="8.569305" />
      <trkpt lat="46.54978" lon="8.568875" />
      <trkpt lat="46.549637" lon="8.568738" />
      <trkpt lat="46.54925" lon="8.568906" />
      <trkpt lat="46.548773" lon="8.568778" />
      <trkpt lat="46.548767" lon="8.568618" />
      <trkpt lat="46.549353" lon="8.568441" />
      <trkpt lat="46.549444" lon="8.568255" />
      <trkpt lat="46.54926" lon="8.568011" />
      <trkpt lat="46.548574" lon="8.568417" />
      <trkpt lat="46.548554" lon="8.568259" />
      <trkpt lat="46.548899" lon="8.568074" />
      <trkpt lat="46.54882" lon="8.567805" />
      <trkpt lat="46.548428" lon="8.568194" />
      <trkpt lat="46.548349" lon="8.568071" />
      <trkpt lat="46.548524" lon="8.567911" />
      <trkpt lat="46.548499" lon="8.567784" />
      <trkpt lat="46.547891" lon="8.567991" />
      <trkpt lat="46.547554" lon="8.569114" />
      <trkpt lat="46.546403" lon="8.569879" />
      <trkpt lat="46.546385" lon="8.569728" />
      <trkpt lat="46.546985" lon="8.569271" />
      <trkpt lat="46.54737" lon="8.568725" />
      <trkpt lat="46.547598" lon="8.567094" />
      <trkpt lat="46.548222" lon="8.566773" />
      <trkpt lat="46.548142" lon="8.566688" />
      <trkpt lat="46.547328" lon="8.566836" />
      <trkpt lat="46.547" lon="8.567974" />
      <trkpt lat="46.545937" lon="8.568591" />
      <trkpt lat="46.54589" lon="8.568444" />
      <trkpt lat="46.546374" lon="8.568012" />
      <trkpt lat="46.546487" lon="8.567758" />
      <trkpt lat="46.546456" lon="8.567212" />
      <trkpt lat="46.546208" lon="8.566657" />
      <trkpt lat="46.546203" lon="8.567309" />
      <trkpt lat="46.545957" lon="8.567833" />
      <trkpt lat="46.54586" lon="8.567767" />
      <trkpt lat="46.546075" lon="8.567365" />
      <trkpt lat="46.54603" lon="8.56724" />
      <trkpt lat="46.545494" lon="8.567686" />
      <trkpt lat="46.545304" lon="8.568048" />
      <trkpt lat="46.54522" lon="8.569181" />
      <trkpt lat="46.544506" lon="8.570976" />
      <trkpt lat="46.5444" lon="8.570859" />
      <trkpt lat="46.544857" lon="8.568856" />
      <trkpt lat="46.54465" lon="8.569432" />
      <trkpt lat="46.544298" lon="8.569895" />
      <trkpt lat="46.544116" lon="8.570762" />
      <trkpt lat="46.544025" lon="8.570698" />
      <trkpt lat="46.544086" lon="8.569243" />
      <trkpt lat="46.543722" lon="8.570905" />
      <trkpt lat="46.543627" lon="8.57083" />
      <trkpt lat="46.543812" lon="8.570126" />
      <trkpt lat="46.543746" lon="8.569991" />
      <trkpt lat="46.542619" lon="8.572301" />
      <trkpt lat="46.542479" lon="8.572221" />
      <trkpt lat="46.542845" lon="8.571479" />
      <trkpt lat="46.542804" lon="8.571285" />
      <trkpt lat="46.542335" lon="8.572158" />
      <trkpt lat="46.542565" lon="8.571551" />
      <trkpt lat="46.542539" lon="8.571455" />
      <trkpt lat="46.542456" lon="8.571511" />
      <trkpt lat="46.542059" lon="8.572742" />
      <trkpt lat="46.541546" lon="8.57321" />
      <trkpt lat="46.541435" lon="8.573666" />
      <trkpt lat="46.541155" lon="8.574109" />
      <trkpt lat="46.540738" lon="8.578102" />
      <trkpt lat="46.540455" lon="8.579153" />
      <trkpt lat="46.540048" lon="8.579785" />
      <trkpt lat="46.53899" lon="8.580053" />
      <trkpt lat="46.538323" lon="8.57931" />
      <trkpt lat="46.537617" lon="8.579009" />
      <trkpt lat="46.537207" lon="8.579142" />
      <trkpt lat="46.536564" lon="8.579711" />
      <trkpt lat="46.536081" lon="8.57991" />
      <trkpt lat="46.535019" lon="8.579943" />
      <trkpt lat="46.533394" lon="8.580802" />
      <trkpt lat="46.532518" lon="8.58075" />
      <trkpt lat="46.532535" lon="8.580885" />
      <trkpt lat="46.533273" lon="8.581171" />
      <trkpt lat="46.53368" lon="8.581156" />
      <trkpt lat="46.533646" lon="8.581324" />
      <trkpt lat="46.53265" lon="8.581427" />
      <trkpt lat="46.53197" lon="8.581002" />
      <trkpt lat="46.531992" lon="8.581351" />
      <trkpt lat="46.5333" lon="8.582045" />
      <trkpt lat="46.533434" lon="8.582961" />
      <trkpt lat="46.534069" lon="8.584533" />
      <trkpt lat="46.534344" lon="8.584516" />
      <trkpt lat="46.534527" lon="8.58374" />
      <trkpt lat="46.534848" lon="8.58358" />
      <trkpt lat="46.535205" lon="8.58398" />
      <trkpt lat="46.535433" lon="8.584956" />
      <trkpt lat="46.534795" lon="8.585299" />
      <trkpt lat="46.533803" lon="8.585223" />
      <trkpt lat="46.53307" lon="8.584992" />
      <trkpt lat="46.532495" lon="8.584588" />
      <trkpt lat="46.531483" lon="8.583209" />
      <trkpt lat="46.529443" lon="8.579512" />
      <trkpt lat="46.529283" lon="8.579405" />
      <trkpt lat="46.529112" lon="8.579491" />
      <trkpt lat="46.529097" lon="8.579934" />
      <trkpt lat="46.5298" lon="8.580821" />
      <trkpt lat="46.530136" lon="8.581699" />
      <trkpt lat="46.530599" lon="8.585541" />
      <trkpt lat="46.531539" lon="8.589363" />
      <trkpt lat="46.532042" lon="8.590684" />
      <trkpt lat="46.532883" lon="8.592212" />
      <trkpt lat="46.533146" lon="8.593103" />
      <trkpt lat="46.533355" lon="8.595076" />
      <trkpt lat="46.533196" lon="8.597861" />
      <trkpt lat="46.533356" lon="8.599866" />
      <trkpt lat="46.533179" lon="8.600074" />
      <trkpt lat="46.532953" lon="8.599902" />
      <trkpt lat="46.532822" lon="8.598746" />
      <trkpt lat="46.531763" lon="8.594588" />
      <trkpt lat="46.531325" lon="8.593408" />
      <trkpt lat="46.530815" lon="8.592547" />
      <trkpt lat="46.530257" lon="8.5919" />
      <trkpt lat="46.52865" lon="8.590813" />
      <trkpt lat="46.527801" lon="8.589871" />
      <trkpt lat="46.527142" lon="8.58834" />
      <trkpt lat="46.526889" lon="8.586409" />
      <trkpt lat="46.526738" lon="8.586194" />
      <trkpt lat="46.526545" lon="8.586186" />
      <trkpt lat="46.526364" lon="8.586577" />
      <trkpt lat="46.526635" lon="8.589784" />
      <trkpt lat="46.528249" lon="8.595167" />
      <trkpt lat="46.528385" lon="8.596552" />
      <trkpt lat="46.528267" lon="8.597229" />
      <trkpt lat="46.52795" lon="8.597985" />
      <trkpt lat="46.526075" lon="8.599787" />
      <trkpt lat="46.52533" lon="8.601228" />
      <trkpt lat="46.52508" lon="8.602329" />
      <trkpt lat="46.52497" lon="8.60405" />
      <trkpt lat="46.525015" lon="8.606227" />
      <trkpt lat="46.525145" lon="8.606382" />
      <trkpt lat="46.525255" lon="8.606206" />
      <trkpt lat="46.525172" lon="8.603086" />
      <trkpt lat="46.525643" lon="8.600912" />
      <trkpt lat="46.525598" lon="8.600549" />
      <trkpt lat="46.525397" lon="8.600337" />
      <trkpt lat="46.525034" lon="8.601327" />
      <trkpt lat="46.524789" lon="8.602815" />
      <trkpt lat="46.524615" lon="8.602913" />
      <trkpt lat="46.524491" lon="8.602676" />
      <trkpt lat="46.525303" lon="8.5984" />
      <trkpt lat="46.525" lon="8.595866" />
      <trkpt lat="46.525016" lon="8.594672" />
      <trkpt lat="46.523917" lon="8.591941" />
      <trkpt lat="46.523942" lon="8.589735" />
      <trkpt lat="46.523511" lon="8.588048" />
      <trkpt lat="46.522777" lon="8.583841" />
      <trkpt lat="46.522434" lon="8.582944" />
      <trkpt lat="46.522402" lon="8.581517" />
      <trkpt lat="46.522103" lon="8.580647" />
      <trkpt lat="46.522021" lon="8.579701" />
      <trkpt lat="46.521146" lon="8.577406" />
      <trkpt lat="46.521143" lon="8.576835" />
      <trkpt lat="46.521366" lon="8.575811" />
      <trkpt lat="46.521359" lon="8.57496" />
      <trkpt lat="46.52078" lon="8.571462" />
      <trkpt lat="46.520077" lon="8.569554" />
      <trkpt lat="46.519695" lon="8.56713" />
      <trkpt lat="46.519655" lon="8.565981" />
      <trkpt lat="46.519293" lon="8.564581" />
      <trkpt lat="46.519428" lon="8.563126" />
      <trkpt lat="46.518346" lon="8.560772" />
      <trkpt lat="46.517873" lon="8.55906" />
      <trkpt lat="46.517171" lon="8.557773" />
      <trkpt lat="46.517135" lon="8.555305" />
      <trkpt lat="46.516635" lon="8.55296" />
      <trkpt lat="46.516394" lon="8.550318" />
      <trkpt lat="46.516047" lon="8.549214" />
      <trkpt lat="46.515364" lon="8.547846" />
      <trkpt lat="46.514922" lon="8.546159" />
      <trkpt lat="46.514125" lon="8.544763" />
      <trkpt lat="46.513458" lon="8.541644" />
      <trkpt lat="46.513371" lon="8.539823" />
      <trkpt lat="46.512197" lon="8.537481" />
      <trkpt lat="46.511678" lon="8.535325" />
      <trkpt lat="46.511185" lon="8.534209" />
      <trkpt lat="46.510952" lon="8.530979" />
      <trkpt lat="46.509984" lon="8.528827" />
      <trkpt lat="46.509257" lon="8.526332" />
      <trkpt lat="46.509019" lon="8.523668" />
      <trkpt lat="46.506406" lon="8.517232" />
      <trkpt lat="46.505592" lon="8.513344" />
      <trkpt lat="46.502862" lon="8.507097" />
      <trkpt lat="46.500854" lon="8.50358" />
      <trkpt lat="46.500391" lon="8.503321" />
      <trkpt lat="46.498936" lon="8.503063" />
      <trkpt lat="46.498303" lon="8.502495" />
      <trkpt lat="46.497521" lon="8.50088" />
      <trkpt lat="46.497201" lon="8.498111" />
      <trkpt lat="46.495635" lon="8.494316" />
      <trkpt lat="46.494578" lon="8.492636" />
      <trkpt lat="46.493709" lon="8.491705" />
      <trkpt lat="46.493107" lon="8.490646" />
      <trkpt lat="46.492004" lon="8.489587" />
      <trkpt lat="46.491633" lon="8.489023" />
      <trkpt lat="46.489339" lon="8.481359" />
      <trkpt lat="46.487774" lon="8.478294" />
      <trkpt lat="46.487207" lon="8.475885" />
      <trkpt lat="46.485863" lon="8.473863" />
      <trkpt lat="46.484884" lon="8.470415" />
      <trkpt lat="46.484476" lon="8.469854" />
      <trkpt lat="46.483343" lon="8.46893" />
      <trkpt lat="46.482997" lon="8.468351" />
      <trkpt lat="46.482817" lon="8.467455" />
      <trkpt lat="46.482825" lon="8.465785" />
      <trkpt lat="46.482589" lon="8.464922" />
      <trkpt lat="46.481357" lon="8.463267" />
      <trkpt lat="46.480583" lon="8.460993" />
      <trkpt lat="46.478915" lon="8.459317" />
      <trkpt lat="46.478121" lon="8.456773" />
      <trkpt lat="46.476879" lon="8.454574" />
      <trkpt lat="46.476275" lon="8.452716" />
      <trkpt lat="46.475255" lon="8.451429" />
      <trkpt lat="46.474664" lon="8.450271" />
      <trkpt lat="46.47418" lon="8.44987" />
      <trkpt lat="46.474195" lon="8.449694" />
      <trkpt lat="46.474339" lon="8.449647" />
      <trkpt lat="46.475035" lon="8.449946" />
      <trkpt lat="46.475472" lon="8.450416" />
      <trkpt lat="46.475614" lon="8.450317" />
      <trkpt lat="46.474758" lon="8.44853" />
      <trkpt lat="46.473776" lon="8.446905" />
      <trkpt lat="46.473506" lon="8.445866" />
      <trkpt lat="46.473672" lon="8.442361" />
      <trkpt lat="46.473407" lon="8.439602" />
      <trkpt lat="46.473419" lon="8.435492" />
      <trkpt lat="46.473884" lon="8.432839" />
      <trkpt lat="46.473959" lon="8.43121" />
      <trkpt lat="46.474416" lon="8.429006" />
      <trkpt lat="46.474481" lon="8.427926" />
      <trkpt lat="46.474269" lon="8.426316" />
      <trkpt lat="46.474028" lon="8.425709" />
      <trkpt lat="46.473622" lon="8.425506" />
      <trkpt lat="46.472867" lon="8.425779" />
      <trkpt lat="46.472766" lon="8.425572" />
      <trkpt lat="46.47412" lon="8.424289" />
      <trkpt lat="46.475096" lon="8.423618" />
      <trkpt lat="46.475514" lon="8.423576" />
      <trkpt lat="46.475843" lon="8.423886" />
      <trkpt lat="46.47639" lon="8.426994" />
      <trkpt lat="46.476309" lon="8.430095" />
      <trkpt lat="46.476484" lon="8.432289" />
      <trkpt lat="46.476648" lon="8.432461" />
      <trkpt lat="46.476727" lon="8.431318" />
      <trkpt lat="46.477216" lon="8.42974" />
      <trkpt lat="46.477648" lon="8.427402" />
      <trkpt lat="46.477715" lon="8.424652" />
      <trkpt lat="46.478853" lon="8.421314" />
      <trkpt lat="46.479007" lon="8.420122" />
      <trkpt lat="46.478936" lon="8.418838" />
      <trkpt lat="46.478641" lon="8.417706" />
      <trkpt lat="46.478636" lon="8.415099" />
      <trkpt lat="46.478111" lon="8.413463" />
      <trkpt lat="46.477533" lon="8.412443" />
      <trkpt lat="46.477444" lon="8.411043" />
      <trkpt lat="46.47758" lon="8.41032" />
      <trkpt lat="46.478235" lon="8.409595" />
      <trkpt lat="46.478426" lon="8.409128" />
      <trkpt lat="46.4785" lon="8.408055" />
      <trkpt lat="46.47886" lon="8.406429" />
      <trkpt lat="46.478844" lon="8.40566" />
      <trkpt lat="46.47868" lon="8.405015" />
      <trkpt lat="46.477567" lon="8.402646" />
      <trkpt lat="46.477254" lon="8.402266" />
      <trkpt lat="46.476708" lon="8.401895" />
      <trkpt lat="46.476656" lon="8.401672" />
      <trkpt lat="46.477617" lon="8.401124" />
      <trkpt lat="46.478162" lon="8.401178" />
      <trkpt lat="46.479146" lon="8.402269" />
      <trkpt lat="46.479385" lon="8.403171" />
      <trkpt lat="46.479531" lon="8.403249" />
      <trkpt lat="46.479592" lon="8.403001" />
      <trkpt lat="46.479389" lon="8.401431" />
      <trkpt lat="46.479137" lon="8.401072" />
      <trkpt lat="46.478594" lon="8.400661" />
      <trkpt lat="46.478661" lon="8.400439" />
      <trkpt lat="46.478985" lon="8.400477" />
      <trkpt lat="46.479374" lon="8.400592" />
      <trkpt lat="46.479688" lon="8.400883" />
      <trkpt lat="46.480266" lon="8.402572" />
      <trkpt lat="46.480403" lon="8.402616" />
      <trkpt lat="46.480462" lon="8.40247" />
      <trkpt lat="46.480139" lon="8.39983" />
      <trkpt lat="46.479931" lon="8.399138" />
      <trkpt lat="46.479519" lon="8.398817" />
      <trkpt lat="46.478158" lon="8.398557" />
      <trkpt lat="46.477872" lon="8.398286" />
      <trkpt lat="46.477653" lon="8.397795" />
      <trkpt lat="46.477534" lon="8.396432" />
      <trkpt lat="46.478124" lon="8.394365" />
      <trkpt lat="46.478083" lon="8.391372" />
      <trkpt lat="46.477927" lon="8.390505" />
      <trkpt lat="46.477181" lon="8.388111" />
      <trkpt lat="46.477125" lon="8.387404" />
      <trkpt lat="46.477312" lon="8.386959" />
      <trkpt lat="46.47761" lon="8.386739" />
      <trkpt lat="46.479322" lon="8.386839" />
      <trkpt lat="46.480577" lon="8.385975" />
      <trkpt lat="46.481014" lon="8.386129" />
      <trkpt lat="46.482349" lon="8.387261" />
      <trkpt lat="46.482492" lon="8.387097" />
      <trkpt lat="46.481732" lon="8.386262" />
      <trkpt lat="46.481182" lon="8.385411" />
      <trkpt lat="46.479186" lon="8.383972" />
      <trkpt lat="46.477256" lon="8.381215" />
      <trkpt lat="46.476336" lon="8.380234" />
      <trkpt lat="46.475984" lon="8.380201" />
      <trkpt lat="46.475393" lon="8.380367" />
      <trkpt lat="46.473544" lon="8.381323" />
      <trkpt lat="46.473224" lon="8.381627" />
      <trkpt lat="46.472899" lon="8.382421" />
      <trkpt lat="46.472731" lon="8.382435" />
      <trkpt lat="46.473076" lon="8.38083" />
      <trkpt lat="46.474785" lon="8.379412" />
      <trkpt lat="46.475704" lon="8.378326" />
      <trkpt lat="46.476615" lon="8.378271" />
      <trkpt lat="46.478502" lon="8.379154" />
      <trkpt lat="46.47907" lon="8.37932" />
      <trkpt lat="46.479178" lon="8.379117" />
      <trkpt lat="46.478723" lon="8.378929" />
      <trkpt lat="46.477583" lon="8.377981" />
      <trkpt lat="46.477641" lon="8.377727" />
      <trkpt lat="46.478484" lon="8.378044" />
      <trkpt lat="46.478623" lon="8.377885" />
      <trkpt lat="46.477211" lon="8.376974" />
      <trkpt lat="46.477327" lon="8.37672" />
      <trkpt lat="46.477768" lon="8.376746" />
      <trkpt lat="46.478137" lon="8.377046" />
      <trkpt lat="46.478238" lon="8.376989" />
      <trkpt lat="46.478198" lon="8.376759" />
      <trkpt lat="46.477556" lon="8.376222" />
      <trkpt lat="46.476842" lon="8.376315" />
      <trkpt lat="46.475686" lon="8.376236" />
      <trkpt lat="46.474372" lon="8.375914" />
      <trkpt lat="46.473728" lon="8.376299" />
      <trkpt lat="46.473777" lon="8.37602" />
      <trkpt lat="46.474058" lon="8.375802" />
      <trkpt lat="46.475475" lon="8.37546" />
      <trkpt lat="46.476353" lon="8.374965" />
      <trkpt lat="46.476714" lon="8.374897" />
      <trkpt lat="46.476766" lon="8.374695" />
      <trkpt lat="46.476674" lon="8.374606" />
      <trkpt lat="46.476181" lon="8.374794" />
      <trkpt lat="46.475415" lon="8.374692" />
      <trkpt lat="46.473296" lon="8.374774" />
      <trkpt lat="46.472051" lon="8.372771" />
      <trkpt lat="46.471797" lon="8.371559" />
      <trkpt lat="46.471823" lon="8.371082" />
      <trkpt lat="46.472102" lon="8.370287" />
      <trkpt lat="46.472239" lon="8.37019" />
      <trkpt lat="46.472476" lon="8.371399" />
      <trkpt lat="46.472906" lon="8.372014" />
      <trkpt lat="46.473411" lon="8.372257" />
      <trkpt lat="46.475109" lon="8.372148" />
      <trkpt lat="46.475828" lon="8.371356" />
      <trkpt lat="46.476218" lon="8.370266" />
      <trkpt lat="46.477651" lon="8.368603" />
      <trkpt lat="46.478225" lon="8.3685" />
      <trkpt lat="46.478739" lon="8.367761" />
      <trkpt lat="46.479146" lon="8.367731" />
      <trkpt lat="46.479656" lon="8.367289" />
      <trkpt lat="46.480168" lon="8.367128" />
      <trkpt lat="46.480521" lon="8.366824" />
      <trkpt lat="46.48242" lon="8.366638" />
      <trkpt lat="46.483162" lon="8.365689" />
      <trkpt lat="46.483578" lon="8.365357" />
      <trkpt lat="46.483939" lon="8.365136" />
      <trkpt lat="46.484406" lon="8.365147" />
      <trkpt lat="46.484947" lon="8.364883" />
      <trkpt lat="46.485655" lon="8.364035" />
      <trkpt lat="46.486926" lon="8.362937" />
      <trkpt lat="46.488044" lon="8.361339" />
      <trkpt lat="46.488625" lon="8.360249" />
      <trkpt lat="46.488738" lon="8.359642" />
      <trkpt lat="46.488409" lon="8.358493" />
      <trkpt lat="46.487687" lon="8.357283" />
      <trkpt lat="46.48812" lon="8.356629" />
      <trkpt lat="46.488678" lon="8.355028" />
      <trkpt lat="46.489323" lon="8.354333" />
      <trkpt lat="46.489847" lon="8.353328" />
      <trkpt lat="46.490422" lon="8.352835" />
      <trkpt lat="46.490726" lon="8.352154" />
      <trkpt lat="46.491492" lon="8.351083" />
      <trkpt lat="46.492347" lon="8.35045" />
      <trkpt lat="46.492814" lon="8.349629" />
      <trkpt lat="46.493302" lon="8.349125" />
      <trkpt lat="46.494153" lon="8.347877" />
      <trkpt lat="46.495223" lon="8.347203" />
      <trkpt lat="46.498875" lon="8.341942" />
      <trkpt lat="46.499622" lon="8.340694" />
      <trkpt lat="46.50018" lon="8.339223" />
      <trkpt lat="46.500672" lon="8.337128" />
      <trkpt lat="46.500679" lon="8.335425" />
      <trkpt lat="46.500392" lon="8.333998" />
      <trkpt lat="46.499259" lon="8.331586" />
      <trkpt lat="46.498941" lon="8.330029" />
      <trkpt lat="46.49913" lon="8.329763" />
      <trkpt lat="46.49959" lon="8.330005" />
      <trkpt lat="46.500338" lon="8.331248" />
      <trkpt lat="46.50067" lon="8.331" />
      <trkpt lat="46.500482" lon="8.330386" />
      <trkpt lat="46.500487" lon="8.329666" />
      <trkpt lat="46.500717" lon="8.328864" />
      <trkpt lat="46.500858" lon="8.325851" />
      <trkpt lat="46.501005" lon="8.325245" />
      <trkpt lat="46.501934" lon="8.323904" />
      <trkpt lat="46.502552" lon="8.323271" />
      <trkpt lat="46.503208" lon="8.322077" />
      <trkpt lat="46.504827" lon="8.321395" />
      <trkpt lat="46.505344" lon="8.321391" />
      <trkpt lat="46.50573" lon="8.320638" />
      <trkpt lat="46.506232" lon="8.320028" />
      <trkpt lat="46.506072" lon="8.319871" />
      <trkpt lat="46.505348" lon="8.320604" />
      <trkpt lat="46.505051" lon="8.320712" />
      <trkpt lat="46.504707" lon="8.320578" />
      <trkpt lat="46.503872" lon="8.319828" />
      <trkpt lat="46.503243" lon="8.320076" />
      <trkpt lat="46.502698" lon="8.320013" />
      <trkpt lat="46.501617" lon="8.320486" />
      <trkpt lat="46.501396" lon="8.320253" />
      <trkpt lat="46.501516" lon="8.320033" />
      <trkpt lat="46.501948" lon="8.320002" />
      <trkpt lat="46.502481" lon="8.319647" />
      <trkpt lat="46.503486" lon="8.318706" />
      <trkpt lat="46.503565" lon="8.317602" />
      <trkpt lat="46.504182" lon="8.316718" />
      <trkpt lat="46.504568" lon="8.315446" />
      <trkpt lat="46.505403" lon="8.310229" />
      <trkpt lat="46.506901" lon="8.306905" />
      <trkpt lat="46.506731" lon="8.306646" />
      <trkpt lat="46.506901" lon="8.306905" />
      <trkpt lat="46.507204" lon="8.306287" />
      <trkpt lat="46.506419" lon="8.304804" />
      <trkpt lat="46.50585" lon="8.300657" />
      <trkpt lat="46.505149" lon="8.298377" />
      <trkpt lat="46.504372" lon="8.296997" />
      <trkpt lat="46.504003" lon="8.296649" />
      <trkpt lat="46.502715" lon="8.295886" />
      <trkpt lat="46.501879" lon="8.294777" />
      <trkpt lat="46.500916" lon="8.292268" />
      <trkpt lat="46.501044" lon="8.290314" />
      <trkpt lat="46.500577" lon="8.288211" />
      <trkpt lat="46.50014" lon="8.287567" />
      <trkpt lat="46.497985" lon="8.286328" />
      <trkpt lat="46.497154" lon="8.285434" />
      <trkpt lat="46.496552" lon="8.284032" />
      <trkpt lat="46.495987" lon="8.281045" />
      <trkpt lat="46.495789" lon="8.28058" />
      <trkpt lat="46.495484" lon="8.280243" />
      <trkpt lat="46.493134" lon="8.278966" />
      <trkpt lat="46.492058" lon="8.278103" />
      <trkpt lat="46.491229" lon="8.277122" />
      <trkpt lat="46.48994" lon="8.274985" />
      <trkpt lat="46.488604" lon="8.271885" />
      <trkpt lat="46.487794" lon="8.26852" />
    </trkseg>
  </trk>
</gpx>
