<?xml version="1.0" encoding="UTF-8"?>
<gpx version="1.1" creator="Fondue Tour 2026" xmlns="http://www.topografix.com/GPX/1/1" xmlns:xsi="http://www.w3.org/2001/XMLSchema-instance" xsi:schemaLocation="http://www.topografix.com/GPX/1/1 http://www.topografix.com/GPX/1/1/gpx.xsd">
  <metadata><name>Thu 10 · La Thuile to the Furka–Tremola loop · from Agrola Ulrichen</name><desc>Fondue Tour 2026 roadbook route. Verify live pass status before departure.</desc></metadata>
  <rte>
    <name>Thu 10 · La Thuile to the Furka–Tremola loop · from Agrola Ulrichen stops</name>
    <rtept lat="46.5068152" lon="8.3066168"><name>Agrola Ulrichen</name></rtept>
    <rtept lat="46.4879271" lon="8.268457"><name>Hotel Landhaus</name></rtept>
  </rte>
  <trk>
    <name>Thu 10 · La Thuile to the Furka–Tremola loop · from Agrola Ulrichen</name>
    <trkseg>
      <trkpt lat="46.506761" lon="8.306692" />
      <trkpt lat="46.506901" lon="8.306905" />
      <trkpt lat="46.507204" lon="8.306287" />
      <trkpt lat="46.506419" lon="8.304804" />
      <trkpt lat="46.50585" lon="8.300657" />
      <trkpt lat="46.505149" lon="8.298377" />
      <trkpt lat="46.504372" lon="8.296997" />
      <trkpt lat="46.504003" lon="8.296649" />
      <trkpt lat="46.502715" lon="8.295886" />
      <trkpt lat="46.501879" lon="8.294777" />
      <trkpt lat="46.500916" lon="8.292268" />
      <trkpt lat="46.501044" lon="8.290314" />
      <trkpt lat="46.500491" lon="8.288029" />
      <trkpt lat="46.499983" lon="8.287443" />
      <trkpt lat="46.497985" lon="8.286328" />
      <trkpt lat="46.497154" lon="8.285434" />
      <trkpt lat="46.496652" lon="8.28438" />
      <trkpt lat="46.495987" lon="8.281045" />
      <trkpt lat="46.495694" lon="8.280437" />
      <trkpt lat="46.492603" lon="8.278588" />
      <trkpt lat="46.491683" lon="8.277707" />
      <trkpt lat="46.491042" lon="8.276844" />
      <trkpt lat="46.489823" lon="8.274764" />
      <trkpt lat="46.488729" lon="8.272232" />
      <trkpt lat="46.487794" lon="8.26852" />
    </trkseg>
  </trk>
</gpx>
