<?xml version="1.0" encoding="UTF-8"?>
<gpx version="1.1" creator="Fondue Tour 2026" xmlns="http://www.topografix.com/GPX/1/1" xmlns:xsi="http://www.w3.org/2001/XMLSchema-instance" xsi:schemaLocation="http://www.topografix.com/GPX/1/1 http://www.topografix.com/GPX/1/1/gpx.xsd">
  <metadata><name>Tue 08 · Warm-up · Menton to Val Cenis · from Mont Cenis approach</name><desc>Fondue Tour 2026 roadbook route. Verify live pass status before departure.</desc></metadata>
  <rte>
    <name>Tue 08 · Warm-up · Menton to Val Cenis · from Mont Cenis approach stops</name>
    <rtept lat="45.2155908" lon="6.9566783"><name>Mont Cenis approach</name></rtept>
    <rtept lat="45.2849656" lon="6.8850567"><name>Saint Charles · Val Cenis</name></rtept>
  </rte>
  <trk>
    <name>Tue 08 · Warm-up · Menton to Val Cenis · from Mont Cenis approach</name>
    <trkseg>
      <trkpt lat="45.215556" lon="6.956709" />
      <trkpt lat="45.215581" lon="6.95706" />
      <trkpt lat="45.215353" lon="6.957859" />
      <trkpt lat="45.215426" lon="6.958018" />
      <trkpt lat="45.215845" lon="6.957181" />
      <trkpt lat="45.215907" lon="6.956671" />
      <trkpt lat="45.215583" lon="6.955849" />
      <trkpt lat="45.214823" lon="6.954752" />
      <trkpt lat="45.214869" lon="6.954598" />
      <trkpt lat="45.216115" lon="6.956228" />
      <trkpt lat="45.216534" lon="6.956588" />
      <trkpt lat="45.216589" lon="6.956917" />
      <trkpt lat="45.216303" lon="6.957241" />
      <trkpt lat="45.216317" lon="6.957436" />
      <trkpt lat="45.216852" lon="6.957085" />
      <trkpt lat="45.216935" lon="6.956887" />
      <trkpt lat="45.216881" lon="6.956481" />
      <trkpt lat="45.216105" lon="6.955479" />
      <trkpt lat="45.216082" lon="6.954427" />
      <trkpt lat="45.215875" lon="6.953838" />
      <trkpt lat="45.215952" lon="6.95374" />
      <trkpt lat="45.216257" lon="6.954137" />
      <trkpt lat="45.216387" lon="6.955021" />
      <trkpt lat="45.216583" lon="6.955294" />
      <trkpt lat="45.217042" lon="6.95545" />
      <trkpt lat="45.217199" lon="6.955386" />
      <trkpt lat="45.217154" lon="6.954593" />
      <trkpt lat="45.217273" lon="6.954393" />
      <trkpt lat="45.217768" lon="6.954651" />
      <trkpt lat="45.218154" lon="6.956283" />
      <trkpt lat="45.218666" lon="6.95692" />
      <trkpt lat="45.218764" lon="6.9573" />
      <trkpt lat="45.218309" lon="6.958438" />
      <trkpt lat="45.216104" lon="6.961455" />
      <trkpt lat="45.214341" lon="6.965218" />
      <trkpt lat="45.21425" lon="6.965829" />
      <trkpt lat="45.21434" lon="6.966301" />
      <trkpt lat="45.214635" lon="6.966815" />
      <trkpt lat="45.215027" lon="6.967019" />
      <trkpt lat="45.21704" lon="6.966475" />
      <trkpt lat="45.217541" lon="6.96657" />
      <trkpt lat="45.218563" lon="6.967038" />
      <trkpt lat="45.219418" lon="6.966913" />
      <trkpt lat="45.219559" lon="6.967113" />
      <trkpt lat="45.219442" lon="6.967383" />
      <trkpt lat="45.218511" lon="6.967669" />
      <trkpt lat="45.217156" lon="6.967454" />
      <trkpt lat="45.21664" lon="6.968261" />
      <trkpt lat="45.216058" lon="6.968618" />
      <trkpt lat="45.216026" lon="6.968951" />
      <trkpt lat="45.216231" lon="6.969023" />
      <trkpt lat="45.216822" lon="6.96884" />
      <trkpt lat="45.21811" lon="6.969027" />
      <trkpt lat="45.218968" lon="6.96889" />
      <trkpt lat="45.219493" lon="6.968966" />
      <trkpt lat="45.220264" lon="6.968527" />
      <trkpt lat="45.220859" lon="6.968463" />
      <trkpt lat="45.221898" lon="6.968522" />
      <trkpt lat="45.223282" lon="6.968981" />
      <trkpt lat="45.224348" lon="6.968903" />
      <trkpt lat="45.225211" lon="6.968476" />
      <trkpt lat="45.225896" lon="6.967572" />
      <trkpt lat="45.226354" lon="6.966711" />
      <trkpt lat="45.226868" lon="6.964924" />
      <trkpt lat="45.228091" lon="6.963254" />
      <trkpt lat="45.230108" lon="6.959147" />
      <trkpt lat="45.231464" lon="6.958351" />
      <trkpt lat="45.232178" lon="6.957567" />
      <trkpt lat="45.234964" lon="6.95591" />
      <trkpt lat="45.235475" lon="6.955355" />
      <trkpt lat="45.236054" lon="6.955086" />
      <trkpt lat="45.236785" lon="6.954337" />
      <trkpt lat="45.237747" lon="6.953773" />
      <trkpt lat="45.238118" lon="6.95333" />
      <trkpt lat="45.238855" lon="6.953246" />
      <trkpt lat="45.239328" lon="6.952422" />
      <trkpt lat="45.241571" lon="6.95033" />
      <trkpt lat="45.242392" lon="6.949262" />
      <trkpt lat="45.242612" lon="6.949147" />
      <trkpt lat="45.243096" lon="6.94926" />
      <trkpt lat="45.243302" lon="6.949046" />
      <trkpt lat="45.243423" lon="6.948703" />
      <trkpt lat="45.243396" lon="6.948135" />
      <trkpt lat="45.243004" lon="6.946394" />
      <trkpt lat="45.242987" lon="6.945604" />
      <trkpt lat="45.243661" lon="6.943046" />
      <trkpt lat="45.24398" lon="6.942044" />
      <trkpt lat="45.245077" lon="6.939786" />
      <trkpt lat="45.246412" lon="6.937691" />
      <trkpt lat="45.24661" lon="6.93525" />
      <trkpt lat="45.247465" lon="6.933489" />
      <trkpt lat="45.248324" lon="6.929639" />
      <trkpt lat="45.249335" lon="6.92749" />
      <trkpt lat="45.249984" lon="6.924985" />
      <trkpt lat="45.251268" lon="6.922335" />
      <trkpt lat="45.251501" lon="6.921621" />
      <trkpt lat="45.252026" lon="6.917887" />
      <trkpt lat="45.252766" lon="6.914571" />
      <trkpt lat="45.252858" lon="6.9126" />
      <trkpt lat="45.253151" lon="6.911178" />
      <trkpt lat="45.253184" lon="6.908028" />
      <trkpt lat="45.253927" lon="6.906943" />
      <trkpt lat="45.254536" lon="6.906389" />
      <trkpt lat="45.257902" lon="6.905073" />
      <trkpt lat="45.258597" lon="6.903725" />
      <trkpt lat="45.259134" lon="6.902084" />
      <trkpt lat="45.260405" lon="6.900128" />
      <trkpt lat="45.261669" lon="6.89979" />
      <trkpt lat="45.261823" lon="6.900057" />
      <trkpt lat="45.261811" lon="6.900794" />
      <trkpt lat="45.261941" lon="6.901224" />
      <trkpt lat="45.262222" lon="6.901558" />
      <trkpt lat="45.262603" lon="6.901579" />
      <trkpt lat="45.264608" lon="6.900171" />
      <trkpt lat="45.265535" lon="6.898806" />
      <trkpt lat="45.265798" lon="6.898668" />
      <trkpt lat="45.26665" lon="6.898575" />
      <trkpt lat="45.267747" lon="6.897381" />
      <trkpt lat="45.26897" lon="6.897108" />
      <trkpt lat="45.269768" lon="6.897431" />
      <trkpt lat="45.270216" lon="6.897857" />
      <trkpt lat="45.270665" lon="6.899148" />
      <trkpt lat="45.271302" lon="6.899392" />
      <trkpt lat="45.271665" lon="6.900034" />
      <trkpt lat="45.272116" lon="6.901828" />
      <trkpt lat="45.272512" lon="6.902787" />
      <trkpt lat="45.273019" lon="6.903509" />
      <trkpt lat="45.273662" lon="6.906237" />
      <trkpt lat="45.274292" lon="6.907421" />
      <trkpt lat="45.274716" lon="6.908849" />
      <trkpt lat="45.275474" lon="6.909745" />
      <trkpt lat="45.275753" lon="6.910378" />
      <trkpt lat="45.276676" lon="6.911314" />
      <trkpt lat="45.276813" lon="6.911827" />
      <trkpt lat="45.27676" lon="6.912756" />
      <trkpt lat="45.276959" lon="6.912902" />
      <trkpt lat="45.277105" lon="6.912668" />
      <trkpt lat="45.27707" lon="6.910828" />
      <trkpt lat="45.27653" lon="6.909829" />
      <trkpt lat="45.276572" lon="6.908836" />
      <trkpt lat="45.276088" lon="6.907663" />
      <trkpt lat="45.276182" lon="6.907266" />
      <trkpt lat="45.276694" lon="6.906888" />
      <trkpt lat="45.276776" lon="6.906608" />
      <trkpt lat="45.276349" lon="6.905141" />
      <trkpt lat="45.27595" lon="6.902244" />
      <trkpt lat="45.276016" lon="6.90141" />
      <trkpt lat="45.275904" lon="6.900323" />
      <trkpt lat="45.276151" lon="6.899363" />
      <trkpt lat="45.276144" lon="6.898405" />
      <trkpt lat="45.275953" lon="6.897786" />
      <trkpt lat="45.276103" lon="6.897591" />
      <trkpt lat="45.276663" lon="6.898935" />
      <trkpt lat="45.277021" lon="6.900388" />
      <trkpt lat="45.277428" lon="6.900902" />
      <trkpt lat="45.277534" lon="6.901686" />
      <trkpt lat="45.277898" lon="6.902645" />
      <trkpt lat="45.278741" lon="6.903492" />
      <trkpt lat="45.279217" lon="6.90605" />
      <trkpt lat="45.279225" lon="6.907245" />
      <trkpt lat="45.279529" lon="6.907949" />
      <trkpt lat="45.27961" lon="6.908628" />
      <trkpt lat="45.27995" lon="6.909629" />
      <trkpt lat="45.281106" lon="6.911937" />
      <trkpt lat="45.28123" lon="6.912064" />
      <trkpt lat="45.281352" lon="6.91201" />
      <trkpt lat="45.280701" lon="6.907147" />
      <trkpt lat="45.28087" lon="6.904516" />
      <trkpt lat="45.280672" lon="6.903775" />
      <trkpt lat="45.280655" lon="6.903101" />
      <trkpt lat="45.280842" lon="6.899576" />
      <trkpt lat="45.280662" lon="6.898468" />
      <trkpt lat="45.280809" lon="6.897103" />
      <trkpt lat="45.280958" lon="6.897199" />
      <trkpt lat="45.28108" lon="6.898841" />
      <trkpt lat="45.282026" lon="6.901925" />
      <trkpt lat="45.28225" lon="6.903042" />
      <trkpt lat="45.283211" lon="6.904564" />
      <trkpt lat="45.283503" lon="6.905748" />
      <trkpt lat="45.284647" lon="6.907959" />
      <trkpt lat="45.284882" lon="6.908101" />
      <trkpt lat="45.28503" lon="6.9079" />
      <trkpt lat="45.283935" lon="6.902828" />
      <trkpt lat="45.283678" lon="6.899514" />
      <trkpt lat="45.283988" lon="6.897727" />
      <trkpt lat="45.283828" lon="6.896402" />
      <trkpt lat="45.284067" lon="6.89463" />
      <trkpt lat="45.283946" lon="6.893546" />
      <trkpt lat="45.284151" lon="6.892588" />
      <trkpt lat="45.284049" lon="6.890173" />
      <trkpt lat="45.284417" lon="6.885981" />
      <trkpt lat="45.284258" lon="6.88462" />
      <trkpt lat="45.284432" lon="6.883501" />
      <trkpt lat="45.284713" lon="6.883095" />
      <trkpt lat="45.285056" lon="6.885036" />
    </trkseg>
  </trk>
</gpx>
