<?xml version="1.0" encoding="UTF-8"?>
<gpx version="1.1" creator="Fondue Tour 2026" xmlns="http://www.topografix.com/GPX/1/1" xmlns:xsi="http://www.w3.org/2001/XMLSchema-instance" xsi:schemaLocation="http://www.topografix.com/GPX/1/1 http://www.topografix.com/GPX/1/1/gpx.xsd">
  <metadata><name>Tue 08 · Warm-up · Menton to Val Cenis · from AVIA Briançon</name><desc>Fondue Tour 2026 roadbook route. Verify live pass status before departure.</desc></metadata>
  <rte>
    <name>Tue 08 · Warm-up · Menton to Val Cenis · from AVIA Briançon stops</name>
    <rtept lat="44.8938438" lon="6.6300918"><name>AVIA Briançon</name></rtept>
    <rtept lat="45.0978014" lon="6.9291885"><name>Exilles</name></rtept>
    <rtept lat="45.2849656" lon="6.8850567"><name>Saint Charles · Val Cenis</name></rtept>
  </rte>
  <trk>
    <name>Tue 08 · Warm-up · Menton to Val Cenis · from AVIA Briançon</name>
    <trkseg>
      <trkpt lat="44.893882" lon="6.630179" />
      <trkpt lat="44.894005" lon="6.629977" />
      <trkpt lat="44.894716" lon="6.630122" />
      <trkpt lat="44.89498" lon="6.630474" />
      <trkpt lat="44.895709" lon="6.632395" />
      <trkpt lat="44.895737" lon="6.632928" />
      <trkpt lat="44.896003" lon="6.633061" />
      <trkpt lat="44.899076" lon="6.641209" />
      <trkpt lat="44.899362" lon="6.64129" />
      <trkpt lat="44.900363" lon="6.640821" />
      <trkpt lat="44.902004" lon="6.639219" />
      <trkpt lat="44.902247" lon="6.639182" />
      <trkpt lat="44.901771" lon="6.642157" />
      <trkpt lat="44.901351" lon="6.643768" />
      <trkpt lat="44.901523" lon="6.644126" />
      <trkpt lat="44.901507" lon="6.644925" />
      <trkpt lat="44.901647" lon="6.645614" />
      <trkpt lat="44.903034" lon="6.648274" />
      <trkpt lat="44.903123" lon="6.649331" />
      <trkpt lat="44.902788" lon="6.650208" />
      <trkpt lat="44.902784" lon="6.650571" />
      <trkpt lat="44.904326" lon="6.653923" />
      <trkpt lat="44.904816" lon="6.655675" />
      <trkpt lat="44.904867" lon="6.657087" />
      <trkpt lat="44.905135" lon="6.657743" />
      <trkpt lat="44.905848" lon="6.658866" />
      <trkpt lat="44.907251" lon="6.660028" />
      <trkpt lat="44.907414" lon="6.660549" />
      <trkpt lat="44.907396" lon="6.661353" />
      <trkpt lat="44.907625" lon="6.661855" />
      <trkpt lat="44.908145" lon="6.662125" />
      <trkpt lat="44.908974" lon="6.662262" />
      <trkpt lat="44.909518" lon="6.66281" />
      <trkpt lat="44.909748" lon="6.663975" />
      <trkpt lat="44.909767" lon="6.665458" />
      <trkpt lat="44.909927" lon="6.666337" />
      <trkpt lat="44.911981" lon="6.67079" />
      <trkpt lat="44.912683" lon="6.672064" />
      <trkpt lat="44.913683" lon="6.673611" />
      <trkpt lat="44.914269" lon="6.674292" />
      <trkpt lat="44.916812" lon="6.676293" />
      <trkpt lat="44.919059" lon="6.677819" />
      <trkpt lat="44.919975" lon="6.678968" />
      <trkpt lat="44.920558" lon="6.680151" />
      <trkpt lat="44.92103" lon="6.682041" />
      <trkpt lat="44.921245" lon="6.683502" />
      <trkpt lat="44.920985" lon="6.685062" />
      <trkpt lat="44.921068" lon="6.685577" />
      <trkpt lat="44.921468" lon="6.686178" />
      <trkpt lat="44.921709" lon="6.686845" />
      <trkpt lat="44.922257" lon="6.687015" />
      <trkpt lat="44.922422" lon="6.687223" />
      <trkpt lat="44.922968" lon="6.689049" />
      <trkpt lat="44.923891" lon="6.69072" />
      <trkpt lat="44.92417" lon="6.690842" />
      <trkpt lat="44.924295" lon="6.690747" />
      <trkpt lat="44.924532" lon="6.688951" />
      <trkpt lat="44.924628" lon="6.688714" />
      <trkpt lat="44.924837" lon="6.688645" />
      <trkpt lat="44.925213" lon="6.688684" />
      <trkpt lat="44.925801" lon="6.689235" />
      <trkpt lat="44.926312" lon="6.689006" />
      <trkpt lat="44.927008" lon="6.689163" />
      <trkpt lat="44.927813" lon="6.689753" />
      <trkpt lat="44.927675" lon="6.689928" />
      <trkpt lat="44.927015" lon="6.689494" />
      <trkpt lat="44.926469" lon="6.689482" />
      <trkpt lat="44.925962" lon="6.689889" />
      <trkpt lat="44.925379" lon="6.689785" />
      <trkpt lat="44.925174" lon="6.690056" />
      <trkpt lat="44.925065" lon="6.691028" />
      <trkpt lat="44.925327" lon="6.690216" />
      <trkpt lat="44.925494" lon="6.690115" />
      <trkpt lat="44.926053" lon="6.690349" />
      <trkpt lat="44.926365" lon="6.690249" />
      <trkpt lat="44.92681" lon="6.690349" />
      <trkpt lat="44.927991" lon="6.6914" />
      <trkpt lat="44.928374" lon="6.691528" />
      <trkpt lat="44.928594" lon="6.691187" />
      <trkpt lat="44.928746" lon="6.690174" />
      <trkpt lat="44.92893" lon="6.690095" />
      <trkpt lat="44.929196" lon="6.690208" />
      <trkpt lat="44.929187" lon="6.690341" />
      <trkpt lat="44.928878" lon="6.69056" />
      <trkpt lat="44.928785" lon="6.691617" />
      <trkpt lat="44.928528" lon="6.692111" />
      <trkpt lat="44.928153" lon="6.692115" />
      <trkpt lat="44.92687" lon="6.69138" />
      <trkpt lat="44.926508" lon="6.691615" />
      <trkpt lat="44.926184" lon="6.692201" />
      <trkpt lat="44.926269" lon="6.693776" />
      <trkpt lat="44.925456" lon="6.69452" />
      <trkpt lat="44.925539" lon="6.695228" />
      <trkpt lat="44.925314" lon="6.696431" />
      <trkpt lat="44.925413" lon="6.696591" />
      <trkpt lat="44.925527" lon="6.696488" />
      <trkpt lat="44.925843" lon="6.69478" />
      <trkpt lat="44.926862" lon="6.693898" />
      <trkpt lat="44.926818" lon="6.692987" />
      <trkpt lat="44.927074" lon="6.692562" />
      <trkpt lat="44.927298" lon="6.69262" />
      <trkpt lat="44.9284" lon="6.693696" />
      <trkpt lat="44.928673" lon="6.694373" />
      <trkpt lat="44.929463" lon="6.694234" />
      <trkpt lat="44.930475" lon="6.694453" />
      <trkpt lat="44.930428" lon="6.694598" />
      <trkpt lat="44.929497" lon="6.694598" />
      <trkpt lat="44.928621" lon="6.694962" />
      <trkpt lat="44.927845" lon="6.694849" />
      <trkpt lat="44.927141" lon="6.695314" />
      <trkpt lat="44.926892" lon="6.696814" />
      <trkpt lat="44.927075" lon="6.69779" />
      <trkpt lat="44.926641" lon="6.69841" />
      <trkpt lat="44.926714" lon="6.699545" />
      <trkpt lat="44.926567" lon="6.700501" />
      <trkpt lat="44.926646" lon="6.701914" />
      <trkpt lat="44.926852" lon="6.702376" />
      <trkpt lat="44.926929" lon="6.703027" />
      <trkpt lat="44.927381" lon="6.704049" />
      <trkpt lat="44.926812" lon="6.706471" />
      <trkpt lat="44.926767" lon="6.707145" />
      <trkpt lat="44.927083" lon="6.7082" />
      <trkpt lat="44.927163" lon="6.709086" />
      <trkpt lat="44.927533" lon="6.709914" />
      <trkpt lat="44.928744" lon="6.714176" />
      <trkpt lat="44.929196" lon="6.717194" />
      <trkpt lat="44.929118" lon="6.718932" />
      <trkpt lat="44.929489" lon="6.719576" />
      <trkpt lat="44.930205" lon="6.721455" />
      <trkpt lat="44.931157" lon="6.725423" />
      <trkpt lat="44.931652" lon="6.72646" />
      <trkpt lat="44.932587" lon="6.727884" />
      <trkpt lat="44.93267" lon="6.728208" />
      <trkpt lat="44.933032" lon="6.728452" />
      <trkpt lat="44.933346" lon="6.728962" />
      <trkpt lat="44.934171" lon="6.731374" />
      <trkpt lat="44.934194" lon="6.731933" />
      <trkpt lat="44.93384" lon="6.733385" />
      <trkpt lat="44.933152" lon="6.734883" />
      <trkpt lat="44.933048" lon="6.736162" />
      <trkpt lat="44.933575" lon="6.739836" />
      <trkpt lat="44.934083" lon="6.741795" />
      <trkpt lat="44.934355" lon="6.742175" />
      <trkpt lat="44.935271" lon="6.742671" />
      <trkpt lat="44.935448" lon="6.744045" />
      <trkpt lat="44.936458" lon="6.746025" />
      <trkpt lat="44.937018" lon="6.747564" />
      <trkpt lat="44.939985" lon="6.751915" />
      <trkpt lat="44.940398" lon="6.753722" />
      <trkpt lat="44.941112" lon="6.755742" />
      <trkpt lat="44.941154" lon="6.757015" />
      <trkpt lat="44.94185" lon="6.758217" />
      <trkpt lat="44.942326" lon="6.758441" />
      <trkpt lat="44.944048" lon="6.759959" />
      <trkpt lat="44.944588" lon="6.760122" />
      <trkpt lat="44.946337" lon="6.760237" />
      <trkpt lat="44.94701" lon="6.760572" />
      <trkpt lat="44.947563" lon="6.761043" />
      <trkpt lat="44.950592" lon="6.765243" />
      <trkpt lat="44.951948" lon="6.768075" />
      <trkpt lat="44.952366" lon="6.76941" />
      <trkpt lat="44.952505" lon="6.770962" />
      <trkpt lat="44.952323" lon="6.772402" />
      <trkpt lat="44.951958" lon="6.773293" />
      <trkpt lat="44.950954" lon="6.774823" />
      <trkpt lat="44.950732" lon="6.775814" />
      <trkpt lat="44.950779" lon="6.776364" />
      <trkpt lat="44.951032" lon="6.777064" />
      <trkpt lat="44.951974" lon="6.778364" />
      <trkpt lat="44.952057" lon="6.778853" />
      <trkpt lat="44.951956" lon="6.779046" />
      <trkpt lat="44.951198" lon="6.777785" />
      <trkpt lat="44.950875" lon="6.777499" />
      <trkpt lat="44.949979" lon="6.777228" />
      <trkpt lat="44.949525" lon="6.77652" />
      <trkpt lat="44.949213" lon="6.775675" />
      <trkpt lat="44.948809" lon="6.773427" />
      <trkpt lat="44.947986" lon="6.771925" />
      <trkpt lat="44.947573" lon="6.771798" />
      <trkpt lat="44.947261" lon="6.772328" />
      <trkpt lat="44.947122" lon="6.777247" />
      <trkpt lat="44.947266" lon="6.777543" />
      <trkpt lat="44.948367" lon="6.778706" />
      <trkpt lat="44.948929" lon="6.779971" />
      <trkpt lat="44.949815" lon="6.782666" />
      <trkpt lat="44.949841" lon="6.783337" />
      <trkpt lat="44.949695" lon="6.78385" />
      <trkpt lat="44.949498" lon="6.784117" />
      <trkpt lat="44.948757" lon="6.784622" />
      <trkpt lat="44.948326" lon="6.785293" />
      <trkpt lat="44.948411" lon="6.785654" />
      <trkpt lat="44.949381" lon="6.786367" />
      <trkpt lat="44.949626" lon="6.786804" />
      <trkpt lat="44.949712" lon="6.78741" />
      <trkpt lat="44.949513" lon="6.788294" />
      <trkpt lat="44.949548" lon="6.788646" />
      <trkpt lat="44.949694" lon="6.788801" />
      <trkpt lat="44.949949" lon="6.788809" />
      <trkpt lat="44.950316" lon="6.788503" />
      <trkpt lat="44.950431" lon="6.787868" />
      <trkpt lat="44.950177" lon="6.786414" />
      <trkpt lat="44.950208" lon="6.785963" />
      <trkpt lat="44.950581" lon="6.785382" />
      <trkpt lat="44.951167" lon="6.78532" />
      <trkpt lat="44.951623" lon="6.785782" />
      <trkpt lat="44.95206" lon="6.787259" />
      <trkpt lat="44.95292" lon="6.789044" />
      <trkpt lat="44.953966" lon="6.790131" />
      <trkpt lat="44.954205" lon="6.790623" />
      <trkpt lat="44.954319" lon="6.791586" />
      <trkpt lat="44.95518" lon="6.792717" />
      <trkpt lat="44.955266" lon="6.793033" />
      <trkpt lat="44.956297" lon="6.79303" />
      <trkpt lat="44.957041" lon="6.793991" />
      <trkpt lat="44.958593" lon="6.795102" />
      <trkpt lat="44.959726" lon="6.795347" />
      <trkpt lat="44.960868" lon="6.795077" />
      <trkpt lat="44.962195" lon="6.796088" />
      <trkpt lat="44.96401" lon="6.795997" />
      <trkpt lat="44.966975" lon="6.797821" />
      <trkpt lat="44.967571" lon="6.798388" />
      <trkpt lat="44.967932" lon="6.798548" />
      <trkpt lat="44.969899" lon="6.798562" />
      <trkpt lat="44.970993" lon="6.797986" />
      <trkpt lat="44.972629" lon="6.798733" />
      <trkpt lat="44.975627" lon="6.799742" />
      <trkpt lat="44.976367" lon="6.800388" />
      <trkpt lat="44.977017" lon="6.802479" />
      <trkpt lat="44.977368" lon="6.803125" />
      <trkpt lat="44.97908" lon="6.805301" />
      <trkpt lat="44.979544" lon="6.805585" />
      <trkpt lat="44.981077" lon="6.805944" />
      <trkpt lat="44.981758" lon="6.806443" />
      <trkpt lat="44.982304" lon="6.806673" />
      <trkpt lat="44.983765" lon="6.80692" />
      <trkpt lat="44.984693" lon="6.806901" />
      <trkpt lat="44.986813" lon="6.807719" />
      <trkpt lat="44.99011" lon="6.808543" />
      <trkpt lat="44.99082" lon="6.808427" />
      <trkpt lat="44.991776" lon="6.807823" />
      <trkpt lat="44.993448" lon="6.807643" />
      <trkpt lat="44.994056" lon="6.807723" />
      <trkpt lat="44.994908" lon="6.808207" />
      <trkpt lat="44.996178" lon="6.809114" />
      <trkpt lat="44.998355" lon="6.811648" />
      <trkpt lat="44.999969" lon="6.812234" />
      <trkpt lat="45.001283" lon="6.81305" />
      <trkpt lat="45.0016" lon="6.813375" />
      <trkpt lat="45.002604" lon="6.816036" />
      <trkpt lat="45.003392" lon="6.817203" />
      <trkpt lat="45.00437" lon="6.819113" />
      <trkpt lat="45.004945" lon="6.821272" />
      <trkpt lat="45.007043" lon="6.823992" />
      <trkpt lat="45.007484" lon="6.824287" />
      <trkpt lat="45.00855" lon="6.824489" />
      <trkpt lat="45.009713" lon="6.825703" />
      <trkpt lat="45.013735" lon="6.828629" />
      <trkpt lat="45.015737" lon="6.830383" />
      <trkpt lat="45.01773" lon="6.831529" />
      <trkpt lat="45.018507" lon="6.831732" />
      <trkpt lat="45.01905" lon="6.831733" />
      <trkpt lat="45.021153" lon="6.831093" />
      <trkpt lat="45.023174" lon="6.831018" />
      <trkpt lat="45.028403" lon="6.829751" />
      <trkpt lat="45.028861" lon="6.829703" />
      <trkpt lat="45.029188" lon="6.829847" />
      <trkpt lat="45.0322" lon="6.832885" />
      <trkpt lat="45.033211" lon="6.833485" />
      <trkpt lat="45.035624" lon="6.836887" />
      <trkpt lat="45.040486" lon="6.841842" />
      <trkpt lat="45.041409" lon="6.842977" />
      <trkpt lat="45.041553" lon="6.843408" />
      <trkpt lat="45.041833" lon="6.843496" />
      <trkpt lat="45.042379" lon="6.844068" />
      <trkpt lat="45.048592" lon="6.851513" />
      <trkpt lat="45.050933" lon="6.853762" />
      <trkpt lat="45.052399" lon="6.854778" />
      <trkpt lat="45.053001" lon="6.855456" />
      <trkpt lat="45.05335" lon="6.85561" />
      <trkpt lat="45.05576" lon="6.860428" />
      <trkpt lat="45.057614" lon="6.863221" />
      <trkpt lat="45.058799" lon="6.86531" />
      <trkpt lat="45.060104" lon="6.866869" />
      <trkpt lat="45.063192" lon="6.869833" />
      <trkpt lat="45.063621" lon="6.87056" />
      <trkpt lat="45.064339" lon="6.872475" />
      <trkpt lat="45.065199" lon="6.873963" />
      <trkpt lat="45.06881" lon="6.878452" />
      <trkpt lat="45.069145" lon="6.879281" />
      <trkpt lat="45.069854" lon="6.881989" />
      <trkpt lat="45.070684" lon="6.883749" />
      <trkpt lat="45.071188" lon="6.884225" />
      <trkpt lat="45.073538" lon="6.885168" />
      <trkpt lat="45.07398" lon="6.885464" />
      <trkpt lat="45.075015" lon="6.887077" />
      <trkpt lat="45.075528" lon="6.887651" />
      <trkpt lat="45.075958" lon="6.888597" />
      <trkpt lat="45.076835" lon="6.889938" />
      <trkpt lat="45.079301" lon="6.895135" />
      <trkpt lat="45.079233" lon="6.897318" />
      <trkpt lat="45.079487" lon="6.898311" />
      <trkpt lat="45.078688" lon="6.900367" />
      <trkpt lat="45.078662" lon="6.901169" />
      <trkpt lat="45.078832" lon="6.902209" />
      <trkpt lat="45.079387" lon="6.902826" />
      <trkpt lat="45.079926" lon="6.903711" />
      <trkpt lat="45.080173" lon="6.903789" />
      <trkpt lat="45.080167" lon="6.903396" />
      <trkpt lat="45.079214" lon="6.901658" />
      <trkpt lat="45.079175" lon="6.901234" />
      <trkpt lat="45.079395" lon="6.901058" />
      <trkpt lat="45.07977" lon="6.902016" />
      <trkpt lat="45.080915" lon="6.903079" />
      <trkpt lat="45.081359" lon="6.903748" />
      <trkpt lat="45.081579" lon="6.903852" />
      <trkpt lat="45.082345" lon="6.903766" />
      <trkpt lat="45.082832" lon="6.904142" />
      <trkpt lat="45.08389" lon="6.906484" />
      <trkpt lat="45.085062" lon="6.907602" />
      <trkpt lat="45.085546" lon="6.907687" />
      <trkpt lat="45.085603" lon="6.907797" />
      <trkpt lat="45.085493" lon="6.907976" />
      <trkpt lat="45.084237" lon="6.907594" />
      <trkpt lat="45.084105" lon="6.907832" />
      <trkpt lat="45.084287" lon="6.908149" />
      <trkpt lat="45.085587" lon="6.90839" />
      <trkpt lat="45.086215" lon="6.908031" />
      <trkpt lat="45.087282" lon="6.907931" />
      <trkpt lat="45.087814" lon="6.907716" />
      <trkpt lat="45.088205" lon="6.907918" />
      <trkpt lat="45.088522" lon="6.90935" />
      <trkpt lat="45.088607" lon="6.911048" />
      <trkpt lat="45.089447" lon="6.91236" />
      <trkpt lat="45.090269" lon="6.915031" />
      <trkpt lat="45.091267" lon="6.91694" />
      <trkpt lat="45.091565" lon="6.918092" />
      <trkpt lat="45.091966" lon="6.918441" />
      <trkpt lat="45.092803" lon="6.920054" />
      <trkpt lat="45.093375" lon="6.921637" />
      <trkpt lat="45.093591" lon="6.922932" />
      <trkpt lat="45.094299" lon="6.924415" />
      <trkpt lat="45.094475" lon="6.925066" />
      <trkpt lat="45.095268" lon="6.92629" />
      <trkpt lat="45.095978" lon="6.926563" />
      <trkpt lat="45.096563" lon="6.926999" />
      <trkpt lat="45.097096" lon="6.927037" />
      <trkpt lat="45.097295" lon="6.927193" />
      <trkpt lat="45.097349" lon="6.927353" />
      <trkpt lat="45.09718" lon="6.927832" />
      <trkpt lat="45.097273" lon="6.928172" />
      <trkpt lat="45.098396" lon="6.930333" />
      <trkpt lat="45.100715" lon="6.933171" />
      <trkpt lat="45.100915" lon="6.934173" />
      <trkpt lat="45.101486" lon="6.935246" />
      <trkpt lat="45.101808" lon="6.93618" />
      <trkpt lat="45.101899" lon="6.937113" />
      <trkpt lat="45.101825" lon="6.938354" />
      <trkpt lat="45.102239" lon="6.939436" />
      <trkpt lat="45.102678" lon="6.942367" />
      <trkpt lat="45.104302" lon="6.945537" />
      <trkpt lat="45.105159" lon="6.946308" />
      <trkpt lat="45.105886" lon="6.947735" />
      <trkpt lat="45.106097" lon="6.949148" />
      <trkpt lat="45.106469" lon="6.949865" />
      <trkpt lat="45.107981" lon="6.955687" />
      <trkpt lat="45.108513" lon="6.957294" />
      <trkpt lat="45.108748" lon="6.95984" />
      <trkpt lat="45.110221" lon="6.963456" />
      <trkpt lat="45.111823" lon="6.966124" />
      <trkpt lat="45.111895" lon="6.968969" />
      <trkpt lat="45.112022" lon="6.969436" />
      <trkpt lat="45.113275" lon="6.970568" />
      <trkpt lat="45.114082" lon="6.972457" />
      <trkpt lat="45.116849" lon="6.976784" />
      <trkpt lat="45.11708" lon="6.9777" />
      <trkpt lat="45.117218" lon="6.981881" />
      <trkpt lat="45.117413" lon="6.982819" />
      <trkpt lat="45.119118" lon="6.985612" />
      <trkpt lat="45.119683" lon="6.986166" />
      <trkpt lat="45.120444" lon="6.986479" />
      <trkpt lat="45.120757" lon="6.986917" />
      <trkpt lat="45.121838" lon="6.989914" />
      <trkpt lat="45.123333" lon="6.99585" />
      <trkpt lat="45.124576" lon="6.998309" />
      <trkpt lat="45.124733" lon="6.999365" />
      <trkpt lat="45.124589" lon="7.001919" />
      <trkpt lat="45.125774" lon="7.004639" />
      <trkpt lat="45.126244" lon="7.006139" />
      <trkpt lat="45.127037" lon="7.011186" />
      <trkpt lat="45.127329" lon="7.01401" />
      <trkpt lat="45.127277" lon="7.014649" />
      <trkpt lat="45.126594" lon="7.017397" />
      <trkpt lat="45.126472" lon="7.018659" />
      <trkpt lat="45.125638" lon="7.020879" />
      <trkpt lat="45.125638" lon="7.021631" />
      <trkpt lat="45.126045" lon="7.02242" />
      <trkpt lat="45.128984" lon="7.024974" />
      <trkpt lat="45.129523" lon="7.025995" />
      <trkpt lat="45.12965" lon="7.026908" />
      <trkpt lat="45.129592" lon="7.028648" />
      <trkpt lat="45.129132" lon="7.029824" />
      <trkpt lat="45.129111" lon="7.030304" />
      <trkpt lat="45.129314" lon="7.030938" />
      <trkpt lat="45.130252" lon="7.032464" />
      <trkpt lat="45.131238" lon="7.034882" />
      <trkpt lat="45.131677" lon="7.038412" />
      <trkpt lat="45.131521" lon="7.038953" />
      <trkpt lat="45.131006" lon="7.039641" />
      <trkpt lat="45.131081" lon="7.040252" />
      <trkpt lat="45.13134" lon="7.040486" />
      <trkpt lat="45.131599" lon="7.040451" />
      <trkpt lat="45.131957" lon="7.040227" />
      <trkpt lat="45.13231" lon="7.039604" />
      <trkpt lat="45.132567" lon="7.03945" />
      <trkpt lat="45.133184" lon="7.039866" />
      <trkpt lat="45.133367" lon="7.04027" />
      <trkpt lat="45.133313" lon="7.040817" />
      <trkpt lat="45.132939" lon="7.041324" />
      <trkpt lat="45.132778" lon="7.041803" />
      <trkpt lat="45.132989" lon="7.043231" />
      <trkpt lat="45.132833" lon="7.043723" />
      <trkpt lat="45.132579" lon="7.043588" />
      <trkpt lat="45.132438" lon="7.042593" />
      <trkpt lat="45.132208" lon="7.042257" />
      <trkpt lat="45.131512" lon="7.04222" />
      <trkpt lat="45.13042" lon="7.041869" />
      <trkpt lat="45.130229" lon="7.042024" />
      <trkpt lat="45.130221" lon="7.042374" />
      <trkpt lat="45.131142" lon="7.042897" />
      <trkpt lat="45.131228" lon="7.044024" />
      <trkpt lat="45.13153" lon="7.044737" />
      <trkpt lat="45.131942" lon="7.045447" />
      <trkpt lat="45.133171" lon="7.047007" />
      <trkpt lat="45.133855" lon="7.047052" />
      <trkpt lat="45.135321" lon="7.047754" />
      <trkpt lat="45.135727" lon="7.047637" />
      <trkpt lat="45.136649" lon="7.047776" />
      <trkpt lat="45.137035" lon="7.047998" />
      <trkpt lat="45.138622" lon="7.048424" />
      <trkpt lat="45.139317" lon="7.044128" />
      <trkpt lat="45.139527" lon="7.043479" />
      <trkpt lat="45.13995" lon="7.04284" />
      <trkpt lat="45.141595" lon="7.041642" />
      <trkpt lat="45.141797" lon="7.039876" />
      <trkpt lat="45.14226" lon="7.038125" />
      <trkpt lat="45.143484" lon="7.037637" />
      <trkpt lat="45.14373" lon="7.037286" />
      <trkpt lat="45.143641" lon="7.035979" />
      <trkpt lat="45.14374" lon="7.03506" />
      <trkpt lat="45.144329" lon="7.033531" />
      <trkpt lat="45.144509" lon="7.032405" />
      <trkpt lat="45.144487" lon="7.031488" />
      <trkpt lat="45.14426" lon="7.030466" />
      <trkpt lat="45.144445" lon="7.028183" />
      <trkpt lat="45.144118" lon="7.024594" />
      <trkpt lat="45.144242" lon="7.02274" />
      <trkpt lat="45.144653" lon="7.022157" />
      <trkpt lat="45.144579" lon="7.021469" />
      <trkpt lat="45.14417" lon="7.020601" />
      <trkpt lat="45.144244" lon="7.020402" />
      <trkpt lat="45.144564" lon="7.020307" />
      <trkpt lat="45.144641" lon="7.020086" />
      <trkpt lat="45.144459" lon="7.019174" />
      <trkpt lat="45.144443" lon="7.018278" />
      <trkpt lat="45.14454" lon="7.018101" />
      <trkpt lat="45.144682" lon="7.0181" />
      <trkpt lat="45.145036" lon="7.018631" />
      <trkpt lat="45.145588" lon="7.018465" />
      <trkpt lat="45.1455" lon="7.01711" />
      <trkpt lat="45.145932" lon="7.013471" />
      <trkpt lat="45.146094" lon="7.013355" />
      <trkpt lat="45.146806" lon="7.013289" />
      <trkpt lat="45.147396" lon="7.013608" />
      <trkpt lat="45.147603" lon="7.013447" />
      <trkpt lat="45.147556" lon="7.013298" />
      <trkpt lat="45.147212" lon="7.013296" />
      <trkpt lat="45.147078" lon="7.012605" />
      <trkpt lat="45.146512" lon="7.012934" />
      <trkpt lat="45.146137" lon="7.01235" />
      <trkpt lat="45.145749" lon="7.012305" />
      <trkpt lat="45.145486" lon="7.012448" />
      <trkpt lat="45.145049" lon="7.0134" />
      <trkpt lat="45.144663" lon="7.013589" />
      <trkpt lat="45.144075" lon="7.012875" />
      <trkpt lat="45.14353" lon="7.012477" />
      <trkpt lat="45.14349" lon="7.011441" />
      <trkpt lat="45.14269" lon="7.009136" />
      <trkpt lat="45.142205" lon="7.008458" />
      <trkpt lat="45.141714" lon="7.00615" />
      <trkpt lat="45.141501" lon="7.005876" />
      <trkpt lat="45.141016" lon="7.00581" />
      <trkpt lat="45.140959" lon="7.005661" />
      <trkpt lat="45.141626" lon="7.005442" />
      <trkpt lat="45.141827" lon="7.005491" />
      <trkpt lat="45.142359" lon="7.00649" />
      <trkpt lat="45.142641" lon="7.006759" />
      <trkpt lat="45.143426" lon="7.006782" />
      <trkpt lat="45.143916" lon="7.006629" />
      <trkpt lat="45.144407" lon="7.007071" />
      <trkpt lat="45.144504" lon="7.006895" />
      <trkpt lat="45.144056" lon="7.006303" />
      <trkpt lat="45.142953" lon="7.005485" />
      <trkpt lat="45.142529" lon="7.003972" />
      <trkpt lat="45.141541" lon="7.002497" />
      <trkpt lat="45.141661" lon="7.002475" />
      <trkpt lat="45.1424" lon="7.003113" />
      <trkpt lat="45.143051" lon="7.003221" />
      <trkpt lat="45.143854" lon="7.003694" />
      <trkpt lat="45.144258" lon="7.003715" />
      <trkpt lat="45.144648" lon="7.003483" />
      <trkpt lat="45.145316" lon="7.002792" />
      <trkpt lat="45.145915" lon="7.002516" />
      <trkpt lat="45.147742" lon="7.001011" />
      <trkpt lat="45.148509" lon="7.00081" />
      <trkpt lat="45.149175" lon="7.000122" />
      <trkpt lat="45.149617" lon="7.000016" />
      <trkpt lat="45.1504" lon="6.999404" />
      <trkpt lat="45.151076" lon="6.999186" />
      <trkpt lat="45.152042" lon="6.998286" />
      <trkpt lat="45.152325" lon="6.997408" />
      <trkpt lat="45.153431" lon="6.995658" />
      <trkpt lat="45.153701" lon="6.994459" />
      <trkpt lat="45.154098" lon="6.993597" />
      <trkpt lat="45.154504" lon="6.993291" />
      <trkpt lat="45.154822" lon="6.993408" />
      <trkpt lat="45.155403" lon="6.994075" />
      <trkpt lat="45.155986" lon="6.994303" />
      <trkpt lat="45.157214" lon="6.995813" />
      <trkpt lat="45.157667" lon="6.995867" />
      <trkpt lat="45.158633" lon="6.996408" />
      <trkpt lat="45.159008" lon="6.996428" />
      <trkpt lat="45.15952" lon="6.996965" />
      <trkpt lat="45.16033" lon="6.996765" />
      <trkpt lat="45.161024" lon="6.997443" />
      <trkpt lat="45.161873" lon="6.997586" />
      <trkpt lat="45.162408" lon="6.998026" />
      <trkpt lat="45.163279" lon="6.998384" />
      <trkpt lat="45.164538" lon="6.99937" />
      <trkpt lat="45.16542" lon="6.999481" />
      <trkpt lat="45.16578" lon="6.999275" />
      <trkpt lat="45.166047" lon="6.999285" />
      <trkpt lat="45.167271" lon="7.000364" />
      <trkpt lat="45.170161" lon="7.001606" />
      <trkpt lat="45.170788" lon="7.00237" />
      <trkpt lat="45.17292" lon="7.00335" />
      <trkpt lat="45.173298" lon="7.003273" />
      <trkpt lat="45.174128" lon="7.00202" />
      <trkpt lat="45.174493" lon="7.001023" />
      <trkpt lat="45.175037" lon="7.000483" />
      <trkpt lat="45.175022" lon="7.000219" />
      <trkpt lat="45.174611" lon="7.000391" />
      <trkpt lat="45.173982" lon="7.001113" />
      <trkpt lat="45.173333" lon="7.0014" />
      <trkpt lat="45.172318" lon="7.001068" />
      <trkpt lat="45.171648" lon="7.001135" />
      <trkpt lat="45.171621" lon="7.000946" />
      <trkpt lat="45.173713" lon="6.999883" />
      <trkpt lat="45.17425" lon="6.999022" />
      <trkpt lat="45.175194" lon="6.997901" />
      <trkpt lat="45.175774" lon="6.997779" />
      <trkpt lat="45.176368" lon="6.996921" />
      <trkpt lat="45.178129" lon="6.995957" />
      <trkpt lat="45.178759" lon="6.995366" />
      <trkpt lat="45.179263" lon="6.995318" />
      <trkpt lat="45.179784" lon="6.995722" />
      <trkpt lat="45.18035" lon="6.995824" />
      <trkpt lat="45.180614" lon="6.995673" />
      <trkpt lat="45.180888" lon="6.995218" />
      <trkpt lat="45.181316" lon="6.994199" />
      <trkpt lat="45.181865" lon="6.992113" />
      <trkpt lat="45.183162" lon="6.9892" />
      <trkpt lat="45.183066" lon="6.987783" />
      <trkpt lat="45.183205" lon="6.987617" />
      <trkpt lat="45.1836" lon="6.987646" />
      <trkpt lat="45.183753" lon="6.98754" />
      <trkpt lat="45.1846" lon="6.985741" />
      <trkpt lat="45.184712" lon="6.984646" />
      <trkpt lat="45.184999" lon="6.983786" />
      <trkpt lat="45.185063" lon="6.982382" />
      <trkpt lat="45.185385" lon="6.981033" />
      <trkpt lat="45.186162" lon="6.980184" />
      <trkpt lat="45.186977" lon="6.977963" />
      <trkpt lat="45.187293" lon="6.977909" />
      <trkpt lat="45.187782" lon="6.978573" />
      <trkpt lat="45.188618" lon="6.978916" />
      <trkpt lat="45.188913" lon="6.978325" />
      <trkpt lat="45.188814" lon="6.977664" />
      <trkpt lat="45.188999" lon="6.977541" />
      <trkpt lat="45.189303" lon="6.977729" />
      <trkpt lat="45.18988" lon="6.978433" />
      <trkpt lat="45.190227" lon="6.979551" />
      <trkpt lat="45.190254" lon="6.980826" />
      <trkpt lat="45.191046" lon="6.983673" />
      <trkpt lat="45.191685" lon="6.984756" />
      <trkpt lat="45.192333" lon="6.985519" />
      <trkpt lat="45.192742" lon="6.985568" />
      <trkpt lat="45.193179" lon="6.985288" />
      <trkpt lat="45.193888" lon="6.985313" />
      <trkpt lat="45.194388" lon="6.984894" />
      <trkpt lat="45.194941" lon="6.984973" />
      <trkpt lat="45.195571" lon="6.984583" />
      <trkpt lat="45.196021" lon="6.984049" />
      <trkpt lat="45.196523" lon="6.983863" />
      <trkpt lat="45.197077" lon="6.982648" />
      <trkpt lat="45.196985" lon="6.98164" />
      <trkpt lat="45.197113" lon="6.980508" />
      <trkpt lat="45.197401" lon="6.980101" />
      <trkpt lat="45.198041" lon="6.97978" />
      <trkpt lat="45.19844" lon="6.978352" />
      <trkpt lat="45.198924" lon="6.97784" />
      <trkpt lat="45.199212" lon="6.977262" />
      <trkpt lat="45.199697" lon="6.975382" />
      <trkpt lat="45.199764" lon="6.974097" />
      <trkpt lat="45.200406" lon="6.971727" />
      <trkpt lat="45.202069" lon="6.969543" />
      <trkpt lat="45.20257" lon="6.968274" />
      <trkpt lat="45.203819" lon="6.967301" />
      <trkpt lat="45.204605" lon="6.964343" />
      <trkpt lat="45.205047" lon="6.96333" />
      <trkpt lat="45.205877" lon="6.962525" />
      <trkpt lat="45.206525" lon="6.961363" />
      <trkpt lat="45.207193" lon="6.960715" />
      <trkpt lat="45.21465" lon="6.955823" />
      <trkpt lat="45.214988" lon="6.95593" />
      <trkpt lat="45.215563" lon="6.956725" />
      <trkpt lat="45.215353" lon="6.957859" />
      <trkpt lat="45.215452" lon="6.958004" />
      <trkpt lat="45.215845" lon="6.957181" />
      <trkpt lat="45.215907" lon="6.956671" />
      <trkpt lat="45.215583" lon="6.955849" />
      <trkpt lat="45.214823" lon="6.954752" />
      <trkpt lat="45.214843" lon="6.954609" />
      <trkpt lat="45.216115" lon="6.956228" />
      <trkpt lat="45.216534" lon="6.956588" />
      <trkpt lat="45.216589" lon="6.956917" />
      <trkpt lat="45.216292" lon="6.957406" />
      <trkpt lat="45.216852" lon="6.957085" />
      <trkpt lat="45.216881" lon="6.956481" />
      <trkpt lat="45.216105" lon="6.955479" />
      <trkpt lat="45.216082" lon="6.954427" />
      <trkpt lat="45.21592" lon="6.953742" />
      <trkpt lat="45.216257" lon="6.954137" />
      <trkpt lat="45.216387" lon="6.955021" />
      <trkpt lat="45.216583" lon="6.955294" />
      <trkpt lat="45.217042" lon="6.95545" />
      <trkpt lat="45.217199" lon="6.955386" />
      <trkpt lat="45.217154" lon="6.954593" />
      <trkpt lat="45.217273" lon="6.954393" />
      <trkpt lat="45.217768" lon="6.954651" />
      <trkpt lat="45.218154" lon="6.956283" />
      <trkpt lat="45.218666" lon="6.95692" />
      <trkpt lat="45.218764" lon="6.9573" />
      <trkpt lat="45.218309" lon="6.958438" />
      <trkpt lat="45.21617" lon="6.961334" />
      <trkpt lat="45.214779" lon="6.96424" />
      <trkpt lat="45.214272" lon="6.965475" />
      <trkpt lat="45.214264" lon="6.965981" />
      <trkpt lat="45.214464" lon="6.966584" />
      <trkpt lat="45.214731" lon="6.966897" />
      <trkpt lat="45.215027" lon="6.967019" />
      <trkpt lat="45.21704" lon="6.966475" />
      <trkpt lat="45.217541" lon="6.96657" />
      <trkpt lat="45.218563" lon="6.967038" />
      <trkpt lat="45.21952" lon="6.966981" />
      <trkpt lat="45.219442" lon="6.967383" />
      <trkpt lat="45.218511" lon="6.967669" />
      <trkpt lat="45.217156" lon="6.967454" />
      <trkpt lat="45.21664" lon="6.968261" />
      <trkpt lat="45.216008" lon="6.968688" />
      <trkpt lat="45.216118" lon="6.969022" />
      <trkpt lat="45.216822" lon="6.96884" />
      <trkpt lat="45.21811" lon="6.969027" />
      <trkpt lat="45.218968" lon="6.96889" />
      <trkpt lat="45.219493" lon="6.968966" />
      <trkpt lat="45.220264" lon="6.968527" />
      <trkpt lat="45.220859" lon="6.968463" />
      <trkpt lat="45.221775" lon="6.968496" />
      <trkpt lat="45.222914" lon="6.968921" />
      <trkpt lat="45.22384" lon="6.968993" />
      <trkpt lat="45.224348" lon="6.968903" />
      <trkpt lat="45.225211" lon="6.968476" />
      <trkpt lat="45.225651" lon="6.967985" />
      <trkpt lat="45.22618" lon="6.967073" />
      <trkpt lat="45.226868" lon="6.964924" />
      <trkpt lat="45.228091" lon="6.963254" />
      <trkpt lat="45.230012" lon="6.959248" />
      <trkpt lat="45.231464" lon="6.958351" />
      <trkpt lat="45.232178" lon="6.957567" />
      <trkpt lat="45.234964" lon="6.95591" />
      <trkpt lat="45.235475" lon="6.955355" />
      <trkpt lat="45.236054" lon="6.955086" />
      <trkpt lat="45.236785" lon="6.954337" />
      <trkpt lat="45.237747" lon="6.953773" />
      <trkpt lat="45.238118" lon="6.95333" />
      <trkpt lat="45.238855" lon="6.953246" />
      <trkpt lat="45.239328" lon="6.952422" />
      <trkpt lat="45.241571" lon="6.95033" />
      <trkpt lat="45.242392" lon="6.949262" />
      <trkpt lat="45.242612" lon="6.949147" />
      <trkpt lat="45.243096" lon="6.94926" />
      <trkpt lat="45.243369" lon="6.948925" />
      <trkpt lat="45.243377" lon="6.947951" />
      <trkpt lat="45.243004" lon="6.946394" />
      <trkpt lat="45.242987" lon="6.945604" />
      <trkpt lat="45.243661" lon="6.943046" />
      <trkpt lat="45.24398" lon="6.942044" />
      <trkpt lat="45.245077" lon="6.939786" />
      <trkpt lat="45.246412" lon="6.937691" />
      <trkpt lat="45.24661" lon="6.93525" />
      <trkpt lat="45.247465" lon="6.933489" />
      <trkpt lat="45.248324" lon="6.929639" />
      <trkpt lat="45.249335" lon="6.92749" />
      <trkpt lat="45.249984" lon="6.924985" />
      <trkpt lat="45.251268" lon="6.922335" />
      <trkpt lat="45.251501" lon="6.921621" />
      <trkpt lat="45.252026" lon="6.917887" />
      <trkpt lat="45.252766" lon="6.914571" />
      <trkpt lat="45.252858" lon="6.9126" />
      <trkpt lat="45.253151" lon="6.911178" />
      <trkpt lat="45.253184" lon="6.908028" />
      <trkpt lat="45.253927" lon="6.906943" />
      <trkpt lat="45.254536" lon="6.906389" />
      <trkpt lat="45.257902" lon="6.905073" />
      <trkpt lat="45.258597" lon="6.903725" />
      <trkpt lat="45.259134" lon="6.902084" />
      <trkpt lat="45.260294" lon="6.900214" />
      <trkpt lat="45.260781" lon="6.899966" />
      <trkpt lat="45.261669" lon="6.89979" />
      <trkpt lat="45.261823" lon="6.900057" />
      <trkpt lat="45.261811" lon="6.900794" />
      <trkpt lat="45.261941" lon="6.901224" />
      <trkpt lat="45.262222" lon="6.901558" />
      <trkpt lat="45.262603" lon="6.901579" />
      <trkpt lat="45.264608" lon="6.900171" />
      <trkpt lat="45.265535" lon="6.898806" />
      <trkpt lat="45.265798" lon="6.898668" />
      <trkpt lat="45.26665" lon="6.898575" />
      <trkpt lat="45.267747" lon="6.897381" />
      <trkpt lat="45.26897" lon="6.897108" />
      <trkpt lat="45.269768" lon="6.897431" />
      <trkpt lat="45.270216" lon="6.897857" />
      <trkpt lat="45.270665" lon="6.899148" />
      <trkpt lat="45.271302" lon="6.899392" />
      <trkpt lat="45.271665" lon="6.900034" />
      <trkpt lat="45.272116" lon="6.901828" />
      <trkpt lat="45.272512" lon="6.902787" />
      <trkpt lat="45.273019" lon="6.903509" />
      <trkpt lat="45.273662" lon="6.906237" />
      <trkpt lat="45.274292" lon="6.907421" />
      <trkpt lat="45.274716" lon="6.908849" />
      <trkpt lat="45.275474" lon="6.909745" />
      <trkpt lat="45.275753" lon="6.910378" />
      <trkpt lat="45.276676" lon="6.911314" />
      <trkpt lat="45.276813" lon="6.911827" />
      <trkpt lat="45.27676" lon="6.912756" />
      <trkpt lat="45.276959" lon="6.912902" />
      <trkpt lat="45.277105" lon="6.912668" />
      <trkpt lat="45.27707" lon="6.910828" />
      <trkpt lat="45.27653" lon="6.909829" />
      <trkpt lat="45.276572" lon="6.908836" />
      <trkpt lat="45.276088" lon="6.907663" />
      <trkpt lat="45.276182" lon="6.907266" />
      <trkpt lat="45.276694" lon="6.906888" />
      <trkpt lat="45.276776" lon="6.906608" />
      <trkpt lat="45.276349" lon="6.905141" />
      <trkpt lat="45.27595" lon="6.902244" />
      <trkpt lat="45.276016" lon="6.90141" />
      <trkpt lat="45.275904" lon="6.900323" />
      <trkpt lat="45.276151" lon="6.899363" />
      <trkpt lat="45.276144" lon="6.898405" />
      <trkpt lat="45.275957" lon="6.897712" />
      <trkpt lat="45.27604" lon="6.897583" />
      <trkpt lat="45.276181" lon="6.897694" />
      <trkpt lat="45.276709" lon="6.899077" />
      <trkpt lat="45.277021" lon="6.900388" />
      <trkpt lat="45.277428" lon="6.900902" />
      <trkpt lat="45.277534" lon="6.901686" />
      <trkpt lat="45.277942" lon="6.902741" />
      <trkpt lat="45.278741" lon="6.903492" />
      <trkpt lat="45.279217" lon="6.90605" />
      <trkpt lat="45.279225" lon="6.907245" />
      <trkpt lat="45.279529" lon="6.907949" />
      <trkpt lat="45.27961" lon="6.908628" />
      <trkpt lat="45.280075" lon="6.909934" />
      <trkpt lat="45.281106" lon="6.911937" />
      <trkpt lat="45.281275" lon="6.912072" />
      <trkpt lat="45.281403" lon="6.911801" />
      <trkpt lat="45.280701" lon="6.907147" />
      <trkpt lat="45.28087" lon="6.904516" />
      <trkpt lat="45.280662" lon="6.903666" />
      <trkpt lat="45.280842" lon="6.899576" />
      <trkpt lat="45.280662" lon="6.898468" />
      <trkpt lat="45.280726" lon="6.897238" />
      <trkpt lat="45.280863" lon="6.897089" />
      <trkpt lat="45.280958" lon="6.897199" />
      <trkpt lat="45.28108" lon="6.898841" />
      <trkpt lat="45.282026" lon="6.901925" />
      <trkpt lat="45.28225" lon="6.903042" />
      <trkpt lat="45.283211" lon="6.904564" />
      <trkpt lat="45.283503" lon="6.905748" />
      <trkpt lat="45.284647" lon="6.907959" />
      <trkpt lat="45.2848" lon="6.908108" />
      <trkpt lat="45.284973" lon="6.908024" />
      <trkpt lat="45.285007" lon="6.907631" />
      <trkpt lat="45.283935" lon="6.902828" />
      <trkpt lat="45.283678" lon="6.899514" />
      <trkpt lat="45.283988" lon="6.897727" />
      <trkpt lat="45.283828" lon="6.896402" />
      <trkpt lat="45.284067" lon="6.89463" />
      <trkpt lat="45.283946" lon="6.893546" />
      <trkpt lat="45.284151" lon="6.892588" />
      <trkpt lat="45.284049" lon="6.890173" />
      <trkpt lat="45.284417" lon="6.885981" />
      <trkpt lat="45.284258" lon="6.88462" />
      <trkpt lat="45.284432" lon="6.883501" />
      <trkpt lat="45.284713" lon="6.883095" />
      <trkpt lat="45.285056" lon="6.885036" />
    </trkseg>
  </trk>
</gpx>
