<?xml version="1.0" encoding="UTF-8"?>
<gpx version="1.1" creator="Fondue Tour 2026" xmlns="http://www.topografix.com/GPX/1/1" xmlns:xsi="http://www.w3.org/2001/XMLSchema-instance" xsi:schemaLocation="http://www.topografix.com/GPX/1/1 http://www.topografix.com/GPX/1/1/gpx.xsd">
  <metadata><name>Wed 09 · Geneva · Geneva to the rendezvous, then La Thuile · from Hospice du Petit-Saint-Bernard</name><desc>Fondue Tour 2026 roadbook route. Verify live pass status before departure.</desc></metadata>
  <rte>
    <name>Wed 09 · Geneva · Geneva to the rendezvous, then La Thuile · from Hospice du Petit-Saint-Bernard stops</name>
    <rtept lat="45.6714524" lon="6.8756012"><name>Hospice du Petit-Saint-Bernard</name></rtept>
    <rtept lat="45.6833134" lon="6.8860358"><name>Colle del Piccolo San Bernardo</name></rtept>
    <rtept lat="45.7081906" lon="6.9511927"><name>Chalet Eden · La Thuile</name></rtept>
  </rte>
  <trk>
    <name>Wed 09 · Geneva · Geneva to the rendezvous, then La Thuile · from Hospice du Petit-Saint-Bernard</name>
    <trkseg>
      <trkpt lat="45.670601" lon="6.87373" />
      <trkpt lat="45.670345" lon="6.873722" />
      <trkpt lat="45.669626" lon="6.873165" />
      <trkpt lat="45.669432" lon="6.873203" />
      <trkpt lat="45.66948" lon="6.873481" />
      <trkpt lat="45.676632" lon="6.881495" />
      <trkpt lat="45.678926" lon="6.882653" />
      <trkpt lat="45.6797" lon="6.88332" />
      <trkpt lat="45.680106" lon="6.884531" />
      <trkpt lat="45.680321" lon="6.884661" />
      <trkpt lat="45.680886" lon="6.88458" />
      <trkpt lat="45.681146" lon="6.884671" />
      <trkpt lat="45.682086" lon="6.88527" />
      <trkpt lat="45.684927" lon="6.887589" />
      <trkpt lat="45.685512" lon="6.887829" />
      <trkpt lat="45.686644" lon="6.8886" />
      <trkpt lat="45.687531" lon="6.888783" />
      <trkpt lat="45.687957" lon="6.888637" />
      <trkpt lat="45.688401" lon="6.888683" />
      <trkpt lat="45.69002" lon="6.889606" />
      <trkpt lat="45.690258" lon="6.890013" />
      <trkpt lat="45.690357" lon="6.891157" />
      <trkpt lat="45.690788" lon="6.891549" />
      <trkpt lat="45.691025" lon="6.891579" />
      <trkpt lat="45.691158" lon="6.89136" />
      <trkpt lat="45.690916" lon="6.890424" />
      <trkpt lat="45.690887" lon="6.889151" />
      <trkpt lat="45.691131" lon="6.88948" />
      <trkpt lat="45.691584" lon="6.89076" />
      <trkpt lat="45.691622" lon="6.890214" />
      <trkpt lat="45.691805" lon="6.890124" />
      <trkpt lat="45.69276" lon="6.890761" />
      <trkpt lat="45.693478" lon="6.891983" />
      <trkpt lat="45.693497" lon="6.893169" />
      <trkpt lat="45.693927" lon="6.894292" />
      <trkpt lat="45.693984" lon="6.895258" />
      <trkpt lat="45.694697" lon="6.896954" />
      <trkpt lat="45.69515" lon="6.898522" />
      <trkpt lat="45.695365" lon="6.898823" />
      <trkpt lat="45.696261" lon="6.899506" />
      <trkpt lat="45.697377" lon="6.901309" />
      <trkpt lat="45.698158" lon="6.902209" />
      <trkpt lat="45.698415" lon="6.903035" />
      <trkpt lat="45.699324" lon="6.904455" />
      <trkpt lat="45.699767" lon="6.905776" />
      <trkpt lat="45.700522" lon="6.906938" />
      <trkpt lat="45.700737" lon="6.907037" />
      <trkpt lat="45.701023" lon="6.90652" />
      <trkpt lat="45.70158" lon="6.906604" />
      <trkpt lat="45.701932" lon="6.906428" />
      <trkpt lat="45.702853" lon="6.907819" />
      <trkpt lat="45.704553" lon="6.911601" />
      <trkpt lat="45.704708" lon="6.911745" />
      <trkpt lat="45.704978" lon="6.911535" />
      <trkpt lat="45.705224" lon="6.91161" />
      <trkpt lat="45.705766" lon="6.912478" />
      <trkpt lat="45.706149" lon="6.912806" />
      <trkpt lat="45.70672" lon="6.912634" />
      <trkpt lat="45.707028" lon="6.912285" />
      <trkpt lat="45.707505" lon="6.912061" />
      <trkpt lat="45.708046" lon="6.911205" />
      <trkpt lat="45.708244" lon="6.910541" />
      <trkpt lat="45.708335" lon="6.910547" />
      <trkpt lat="45.708115" lon="6.91149" />
      <trkpt lat="45.707639" lon="6.912621" />
      <trkpt lat="45.707102" lon="6.913472" />
      <trkpt lat="45.70707" lon="6.914341" />
      <trkpt lat="45.706839" lon="6.914729" />
      <trkpt lat="45.706915" lon="6.914942" />
      <trkpt lat="45.707131" lon="6.914818" />
      <trkpt lat="45.707236" lon="6.914232" />
      <trkpt lat="45.70745" lon="6.913852" />
      <trkpt lat="45.708128" lon="6.91327" />
      <trkpt lat="45.708509" lon="6.9125" />
      <trkpt lat="45.709193" lon="6.911652" />
      <trkpt lat="45.709411" lon="6.909361" />
      <trkpt lat="45.709505" lon="6.909239" />
      <trkpt lat="45.709637" lon="6.909304" />
      <trkpt lat="45.709612" lon="6.911445" />
      <trkpt lat="45.710061" lon="6.912679" />
      <trkpt lat="45.709113" lon="6.915961" />
      <trkpt lat="45.709144" lon="6.917288" />
      <trkpt lat="45.708632" lon="6.917951" />
      <trkpt lat="45.708138" lon="6.917992" />
      <trkpt lat="45.707716" lon="6.918337" />
      <trkpt lat="45.707445" lon="6.918294" />
      <trkpt lat="45.707325" lon="6.92024" />
      <trkpt lat="45.706738" lon="6.920806" />
      <trkpt lat="45.706842" lon="6.921" />
      <trkpt lat="45.707252" lon="6.920972" />
      <trkpt lat="45.707408" lon="6.921073" />
      <trkpt lat="45.707776" lon="6.922834" />
      <trkpt lat="45.707677" lon="6.923124" />
      <trkpt lat="45.707476" lon="6.922982" />
      <trkpt lat="45.707367" lon="6.923042" />
      <trkpt lat="45.707241" lon="6.923535" />
      <trkpt lat="45.707624" lon="6.925447" />
      <trkpt lat="45.707588" lon="6.925658" />
      <trkpt lat="45.707342" lon="6.925887" />
      <trkpt lat="45.707556" lon="6.926444" />
      <trkpt lat="45.707576" lon="6.92698" />
      <trkpt lat="45.70761" lon="6.929549" />
      <trkpt lat="45.707435" lon="6.931324" />
      <trkpt lat="45.707538" lon="6.933817" />
      <trkpt lat="45.707621" lon="6.933877" />
      <trkpt lat="45.707666" lon="6.933709" />
      <trkpt lat="45.707806" lon="6.93165" />
      <trkpt lat="45.708669" lon="6.930195" />
      <trkpt lat="45.70882" lon="6.929255" />
      <trkpt lat="45.708946" lon="6.93046" />
      <trkpt lat="45.708851" lon="6.931962" />
      <trkpt lat="45.708443" lon="6.933514" />
      <trkpt lat="45.709003" lon="6.932866" />
      <trkpt lat="45.709308" lon="6.932167" />
      <trkpt lat="45.709798" lon="6.930296" />
      <trkpt lat="45.709579" lon="6.931641" />
      <trkpt lat="45.70969" lon="6.93304" />
      <trkpt lat="45.709378" lon="6.934285" />
      <trkpt lat="45.709719" lon="6.933739" />
      <trkpt lat="45.709989" lon="6.932665" />
      <trkpt lat="45.710313" lon="6.932325" />
      <trkpt lat="45.710513" lon="6.931073" />
      <trkpt lat="45.710725" lon="6.930954" />
      <trkpt lat="45.711347" lon="6.932035" />
      <trkpt lat="45.712022" lon="6.934327" />
      <trkpt lat="45.71268" lon="6.935282" />
      <trkpt lat="45.713505" lon="6.937578" />
      <trkpt lat="45.713117" lon="6.936833" />
      <trkpt lat="45.712236" lon="6.936262" />
      <trkpt lat="45.712043" lon="6.936415" />
      <trkpt lat="45.712069" lon="6.936712" />
      <trkpt lat="45.712912" lon="6.937506" />
      <trkpt lat="45.714067" lon="6.939665" />
      <trkpt lat="45.714489" lon="6.940165" />
      <trkpt lat="45.714998" lon="6.940353" />
      <trkpt lat="45.715517" lon="6.941262" />
      <trkpt lat="45.715357" lon="6.94129" />
      <trkpt lat="45.714927" lon="6.940789" />
      <trkpt lat="45.714261" lon="6.940452" />
      <trkpt lat="45.713199" lon="6.939576" />
      <trkpt lat="45.713074" lon="6.939546" />
      <trkpt lat="45.713058" lon="6.939696" />
      <trkpt lat="45.713572" lon="6.940348" />
      <trkpt lat="45.713953" lon="6.941457" />
      <trkpt lat="45.714609" lon="6.94171" />
      <trkpt lat="45.715755" lon="6.942425" />
      <trkpt lat="45.715686" lon="6.942547" />
      <trkpt lat="45.714991" lon="6.942306" />
      <trkpt lat="45.714517" lon="6.942496" />
      <trkpt lat="45.714125" lon="6.942365" />
      <trkpt lat="45.713372" lon="6.942793" />
      <trkpt lat="45.713112" lon="6.943363" />
      <trkpt lat="45.713811" lon="6.944214" />
      <trkpt lat="45.713387" lon="6.945076" />
      <trkpt lat="45.712506" lon="6.944723" />
      <trkpt lat="45.712163" lon="6.944899" />
      <trkpt lat="45.712071" lon="6.945514" />
      <trkpt lat="45.711464" lon="6.946847" />
      <trkpt lat="45.711576" lon="6.947775" />
      <trkpt lat="45.711854" lon="6.948247" />
      <trkpt lat="45.711264" lon="6.948714" />
      <trkpt lat="45.710718" lon="6.948664" />
      <trkpt lat="45.710432" lon="6.94887" />
      <trkpt lat="45.709635" lon="6.949731" />
      <trkpt lat="45.708818" lon="6.950993" />
      <trkpt lat="45.7083" lon="6.951439" />
    </trkseg>
  </trk>
</gpx>
