<?xml version="1.0" encoding="UTF-8"?>
<gpx version="1.1" creator="Fondue Tour 2026" xmlns="http://www.topografix.com/GPX/1/1" xmlns:xsi="http://www.w3.org/2001/XMLSchema-instance" xsi:schemaLocation="http://www.topografix.com/GPX/1/1 http://www.topografix.com/GPX/1/1/gpx.xsd">
  <metadata><name>Sun 13 · Ascona to the Lugano car return</name><desc>Fondue Tour 2026 roadbook route. Verify live pass status before departure.</desc></metadata>
  <rte>
    <name>Sun 13 · Ascona to the Lugano car return stops</name>
    <rtept lat="46.1593333" lon="8.7694379"><name>Hotel Ascona</name></rtept>
    <rtept lat="46.0175167" lon="8.9609335"><name>Europcar / AMAG Lugano</name></rtept>
  </rte>
  <trk>
    <name>Sun 13 · Ascona to the Lugano car return</name>
    <trkseg>
      <trkpt lat="46.159382" lon="8.769259" />
      <trkpt lat="46.159659" lon="8.769273" />
      <trkpt lat="46.1602" lon="8.769778" />
      <trkpt lat="46.160844" lon="8.769788" />
      <trkpt lat="46.161123" lon="8.770016" />
      <trkpt lat="46.161413" lon="8.769692" />
      <trkpt lat="46.161438" lon="8.769164" />
      <trkpt lat="46.161575" lon="8.769093" />
      <trkpt lat="46.161628" lon="8.772218" />
      <trkpt lat="46.16146" lon="8.773653" />
      <trkpt lat="46.16123" lon="8.774019" />
      <trkpt lat="46.16046" lon="8.774406" />
      <trkpt lat="46.160282" lon="8.77513" />
      <trkpt lat="46.160361" lon="8.775254" />
      <trkpt lat="46.160779" lon="8.775184" />
      <trkpt lat="46.161232" lon="8.775583" />
      <trkpt lat="46.161067" lon="8.778152" />
      <trkpt lat="46.16128" lon="8.779589" />
      <trkpt lat="46.161774" lon="8.781067" />
      <trkpt lat="46.163611" lon="8.785461" />
      <trkpt lat="46.168215" lon="8.789573" />
      <trkpt lat="46.169653" lon="8.790313" />
      <trkpt lat="46.173515" lon="8.791579" />
      <trkpt lat="46.175123" lon="8.792519" />
      <trkpt lat="46.175764" lon="8.793044" />
      <trkpt lat="46.17963" lon="8.797283" />
      <trkpt lat="46.183439" lon="8.803206" />
      <trkpt lat="46.184447" lon="8.805398" />
      <trkpt lat="46.185251" lon="8.808582" />
      <trkpt lat="46.185441" lon="8.810482" />
      <trkpt lat="46.18541" lon="8.812664" />
      <trkpt lat="46.183347" lon="8.829235" />
      <trkpt lat="46.182994" lon="8.831575" />
      <trkpt lat="46.182475" lon="8.833881" />
      <trkpt lat="46.181024" lon="8.837616" />
      <trkpt lat="46.17622" lon="8.847835" />
      <trkpt lat="46.175334" lon="8.850331" />
      <trkpt lat="46.173612" lon="8.856298" />
      <trkpt lat="46.172617" lon="8.858569" />
      <trkpt lat="46.170271" lon="8.863254" />
      <trkpt lat="46.169623" lon="8.864939" />
      <trkpt lat="46.168979" lon="8.867173" />
      <trkpt lat="46.16857" lon="8.869257" />
      <trkpt lat="46.168339" lon="8.871478" />
      <trkpt lat="46.168063" lon="8.885016" />
      <trkpt lat="46.16779" lon="8.885485" />
      <trkpt lat="46.167327" lon="8.885805" />
      <trkpt lat="46.16516" lon="8.885841" />
      <trkpt lat="46.164293" lon="8.885983" />
      <trkpt lat="46.159853" lon="8.888063" />
      <trkpt lat="46.154037" lon="8.891057" />
      <trkpt lat="46.153608" lon="8.89144" />
      <trkpt lat="46.153022" lon="8.892454" />
      <trkpt lat="46.153077" lon="8.893428" />
      <trkpt lat="46.153821" lon="8.898096" />
      <trkpt lat="46.153446" lon="8.906989" />
      <trkpt lat="46.152566" lon="8.912588" />
      <trkpt lat="46.152431" lon="8.912752" />
      <trkpt lat="46.152505" lon="8.912995" />
      <trkpt lat="46.151025" lon="8.922131" />
      <trkpt lat="46.150914" lon="8.922763" />
      <trkpt lat="46.150789" lon="8.922886" />
      <trkpt lat="46.150875" lon="8.923062" />
      <trkpt lat="46.149954" lon="8.928555" />
      <trkpt lat="46.152037" lon="8.938139" />
      <trkpt lat="46.152184" lon="8.939494" />
      <trkpt lat="46.15205" lon="8.94602" />
      <trkpt lat="46.15172" lon="8.946975" />
      <trkpt lat="46.151282" lon="8.94772" />
      <trkpt lat="46.149022" lon="8.949555" />
      <trkpt lat="46.148514" lon="8.950676" />
      <trkpt lat="46.148205" lon="8.950921" />
      <trkpt lat="46.14793" lon="8.950851" />
      <trkpt lat="46.147743" lon="8.950593" />
      <trkpt lat="46.147673" lon="8.949362" />
      <trkpt lat="46.147854" lon="8.948673" />
      <trkpt lat="46.147687" lon="8.948539" />
      <trkpt lat="46.147231" lon="8.950259" />
      <trkpt lat="46.14706" lon="8.950329" />
      <trkpt lat="46.147512" lon="8.947991" />
      <trkpt lat="46.14725" lon="8.944844" />
      <trkpt lat="46.146478" lon="8.941854" />
      <trkpt lat="46.145761" lon="8.936165" />
      <trkpt lat="46.145442" lon="8.9347" />
      <trkpt lat="46.145383" lon="8.933536" />
      <trkpt lat="46.145197" lon="8.932814" />
      <trkpt lat="46.145048" lon="8.932691" />
      <trkpt lat="46.14488" lon="8.932932" />
      <trkpt lat="46.145007" lon="8.933886" />
      <trkpt lat="46.144823" lon="8.935889" />
      <trkpt lat="46.145131" lon="8.940717" />
      <trkpt lat="46.144896" lon="8.941372" />
      <trkpt lat="46.144731" lon="8.94139" />
      <trkpt lat="46.14462" lon="8.941216" />
      <trkpt lat="46.144688" lon="8.93978" />
      <trkpt lat="46.144411" lon="8.938551" />
      <trkpt lat="46.143832" lon="8.937108" />
      <trkpt lat="46.143691" lon="8.936415" />
      <trkpt lat="46.143684" lon="8.932826" />
      <trkpt lat="46.143495" lon="8.930917" />
      <trkpt lat="46.143152" lon="8.929242" />
      <trkpt lat="46.142837" lon="8.923378" />
      <trkpt lat="46.142916" lon="8.921961" />
      <trkpt lat="46.14271" lon="8.919308" />
      <trkpt lat="46.142763" lon="8.917844" />
      <trkpt lat="46.143279" lon="8.912538" />
      <trkpt lat="46.143563" lon="8.910963" />
      <trkpt lat="46.143147" lon="8.908371" />
      <trkpt lat="46.143256" lon="8.905488" />
      <trkpt lat="46.14313" lon="8.904981" />
      <trkpt lat="46.142828" lon="8.90456" />
      <trkpt lat="46.14247" lon="8.904381" />
      <trkpt lat="46.14204" lon="8.90439" />
      <trkpt lat="46.141673" lon="8.904516" />
      <trkpt lat="46.140787" lon="8.905146" />
      <trkpt lat="46.139997" lon="8.905867" />
      <trkpt lat="46.136422" lon="8.910624" />
      <trkpt lat="46.135129" lon="8.913334" />
      <trkpt lat="46.134271" lon="8.914756" />
      <trkpt lat="46.13277" lon="8.916659" />
      <trkpt lat="46.131854" lon="8.917586" />
      <trkpt lat="46.131364" lon="8.91769" />
      <trkpt lat="46.130621" lon="8.917149" />
      <trkpt lat="46.130291" lon="8.917088" />
      <trkpt lat="46.129325" lon="8.917965" />
      <trkpt lat="46.12694" lon="8.918107" />
      <trkpt lat="46.125865" lon="8.918431" />
      <trkpt lat="46.124966" lon="8.918876" />
      <trkpt lat="46.124365" lon="8.919267" />
      <trkpt lat="46.123145" lon="8.920394" />
      <trkpt lat="46.120534" lon="8.923864" />
      <trkpt lat="46.11893" lon="8.925318" />
      <trkpt lat="46.111189" lon="8.929889" />
      <trkpt lat="46.109743" lon="8.930541" />
      <trkpt lat="46.107774" lon="8.931114" />
      <trkpt lat="46.106079" lon="8.931326" />
      <trkpt lat="46.104085" lon="8.931264" />
      <trkpt lat="46.10259" lon="8.930982" />
      <trkpt lat="46.100888" lon="8.930422" />
      <trkpt lat="46.099095" lon="8.929552" />
      <trkpt lat="46.093179" lon="8.925293" />
      <trkpt lat="46.090369" lon="8.923617" />
      <trkpt lat="46.088076" lon="8.92252" />
      <trkpt lat="46.08529" lon="8.921478" />
      <trkpt lat="46.082522" lon="8.920965" />
      <trkpt lat="46.080639" lon="8.921181" />
      <trkpt lat="46.07888" lon="8.921985" />
      <trkpt lat="46.077382" lon="8.92323" />
      <trkpt lat="46.074876" lon="8.926017" />
      <trkpt lat="46.073684" lon="8.92717" />
      <trkpt lat="46.072161" lon="8.928152" />
      <trkpt lat="46.07034" lon="8.928746" />
      <trkpt lat="46.069133" lon="8.928807" />
      <trkpt lat="46.068059" lon="8.928685" />
      <trkpt lat="46.064416" lon="8.927851" />
      <trkpt lat="46.063065" lon="8.927699" />
      <trkpt lat="46.061653" lon="8.92771" />
      <trkpt lat="46.057999" lon="8.928123" />
      <trkpt lat="46.055906" lon="8.928015" />
      <trkpt lat="46.054359" lon="8.927623" />
      <trkpt lat="46.053362" lon="8.927228" />
      <trkpt lat="46.049658" lon="8.925248" />
      <trkpt lat="46.048592" lon="8.924927" />
      <trkpt lat="46.047555" lon="8.924803" />
      <trkpt lat="46.045998" lon="8.924945" />
      <trkpt lat="46.044508" lon="8.925464" />
      <trkpt lat="46.043357" lon="8.926152" />
      <trkpt lat="46.040742" lon="8.928259" />
      <trkpt lat="46.039313" lon="8.928742" />
      <trkpt lat="46.038414" lon="8.928784" />
      <trkpt lat="46.037617" lon="8.928627" />
      <trkpt lat="46.035144" lon="8.927488" />
      <trkpt lat="46.034061" lon="8.927177" />
      <trkpt lat="46.032974" lon="8.927177" />
      <trkpt lat="46.031833" lon="8.927523" />
      <trkpt lat="46.030237" lon="8.928488" />
      <trkpt lat="46.028422" lon="8.930422" />
      <trkpt lat="46.027899" lon="8.930619" />
      <trkpt lat="46.027474" lon="8.930464" />
      <trkpt lat="46.027273" lon="8.93083" />
      <trkpt lat="46.02782" lon="8.931963" />
      <trkpt lat="46.028739" lon="8.935566" />
      <trkpt lat="46.029844" lon="8.941825" />
      <trkpt lat="46.032277" lon="8.957259" />
      <trkpt lat="46.032457" lon="8.959777" />
      <trkpt lat="46.032299" lon="8.962524" />
      <trkpt lat="46.032086" lon="8.963881" />
      <trkpt lat="46.031439" lon="8.965724" />
      <trkpt lat="46.030805" lon="8.966715" />
      <trkpt lat="46.030336" lon="8.966884" />
      <trkpt lat="46.029738" lon="8.967578" />
      <trkpt lat="46.029388" lon="8.967276" />
      <trkpt lat="46.028262" lon="8.96571" />
      <trkpt lat="46.026472" lon="8.965568" />
      <trkpt lat="46.0248" lon="8.963348" />
      <trkpt lat="46.024864" lon="8.961262" />
      <trkpt lat="46.024672" lon="8.960663" />
      <trkpt lat="46.021735" lon="8.958785" />
      <trkpt lat="46.018284" lon="8.956795" />
      <trkpt lat="46.017727" lon="8.960991" />
    </trkseg>
  </trk>
</gpx>
